{
  "type": "FeatureCollection",
  "properties": {
    "name": "PHIVOLCS volcanoes (northern Luzon subset)",
    "disclaimer": "Demonstration inventory for site assessment. Not a complete official catalogue.",
    "data_source": "PHIVOLCS / Smithsonian GVP (demonstration)"
  },
  "features": [
    {
      "type": "Feature",
      "properties": {
        "id": "cagua",
        "name": "Cagua",
        "status": "Active",
        "municipality": "Gonzaga",
        "province": "Cagayan",
        "elevation_m": 1133,
        "data_source": "PHIVOLCS / Smithsonian GVP (demonstration)"
      },
      "geometry": { "type": "Point", "coordinates": [122.123, 18.222] }
    },
    {
      "type": "Feature",
      "properties": {
        "id": "smith",
        "name": "Smith",
        "status": "Active",
        "province": "Cagayan",
        "data_source": "PHIVOLCS / Smithsonian GVP (demonstration)"
      },
      "geometry": { "type": "Point", "coordinates": [121.92, 19.54] }
    },
    {
      "type": "Feature",
      "properties": {
        "id": "babuyan-claro",
        "name": "Babuyan Claro",
        "status": "Active",
        "province": "Cagayan",
        "data_source": "PHIVOLCS / Smithsonian GVP (demonstration)"
      },
      "geometry": { "type": "Point", "coordinates": [121.94, 19.52] }
    },
    {
      "type": "Feature",
      "properties": {
        "id": "didicas",
        "name": "Didicas",
        "status": "Active",
        "province": "Cagayan",
        "data_source": "PHIVOLCS / Smithsonian GVP (demonstration)"
      },
      "geometry": { "type": "Point", "coordinates": [122.2, 19.08] }
    },
    {
      "type": "Feature",
      "properties": {
        "id": "camiguin-norte",
        "name": "Camiguin de Babuyanes",
        "status": "Active",
        "province": "Cagayan",
        "data_source": "PHIVOLCS / Smithsonian GVP (demonstration)"
      },
      "geometry": { "type": "Point", "coordinates": [121.86, 18.83] }
    },
    {
      "type": "Feature",
      "properties": {
        "id": "negron",
        "name": "Negron",
        "status": "Potentially Active",
        "province": "Zambales",
        "data_source": "PHIVOLCS (demonstration)"
      },
      "geometry": { "type": "Point", "coordinates": [120.23, 15.0] }
    },
    {
      "type": "Feature",
      "properties": {
        "id": "amalbao",
        "name": "Amalbao",
        "status": "Potentially Active",
        "province": "Ilocos Sur",
        "data_source": "PHIVOLCS (demonstration)"
      },
      "geometry": { "type": "Point", "coordinates": [120.55, 17.55] }
    },
    {
      "type": "Feature",
      "properties": {
        "id": "latud",
        "name": "Mt. Latud",
        "status": "Potentially Active",
        "province": "Ilocos Norte",
        "data_source": "PHIVOLCS (demonstration)"
      },
      "geometry": { "type": "Point", "coordinates": [120.78, 18.15] }
    },
    {
      "type": "Feature",
      "properties": {
        "id": "malabsing",
        "name": "Malabsing",
        "status": "Inactive",
        "province": "Cagayan",
        "data_source": "PHIVOLCS (demonstration)"
      },
      "geometry": { "type": "Point", "coordinates": [121.55, 17.25] }
    },
    {
      "type": "Feature",
      "properties": {
        "id": "iraya",
        "name": "Iraya",
        "status": "Active",
        "province": "Batanes",
        "data_source": "PHIVOLCS / Smithsonian GVP (demonstration)"
      },
      "geometry": { "type": "Point", "coordinates": [121.94, 20.47] }
    },
    {
      "type": "Feature",
      "properties": {
        "id": "patapat",
        "name": "Patapat",
        "status": "Inactive",
        "province": "Ilocos Norte",
        "data_source": "PHIVOLCS (demonstration)"
      },
      "geometry": { "type": "Point", "coordinates": [120.85, 18.55] }
    },
    {
      "type": "Feature",
      "properties": {
        "id": "quito",
        "name": "Quito",
        "status": "Inactive",
        "province": "Cagayan",
        "data_source": "PHIVOLCS (demonstration)"
      },
      "geometry": { "type": "Point", "coordinates": [121.7, 17.4] }
    }
  ]
}
