{"type":"FeatureCollection","features":[{"type":"Feature","properties":{"id":"LAS-RIV-0018","name":"ditch","waterway":"ditch","class":"drainage","osm_id":946388870,"data_source":"OpenStreetMap","length_km":0.675},"geometry":{"type":"LineString","coordinates":[[121.5640949,18.0888791],[121.5651275,18.0893673],[121.5663734,18.0899244],[121.5677279,18.0905491],[121.5690288,18.0911482],[121.5696833,18.0914363],[121.5698308,18.0915587]]}},{"type":"Feature","properties":{"id":"LAS-RIV-0019","name":"ditch","waterway":"ditch","class":"drainage","osm_id":946388871,"data_source":"OpenStreetMap","length_km":0.016},"geometry":{"type":"LineString","coordinates":[[121.5639661,18.0888115],[121.5640949,18.0888791]]}},{"type":"Feature","properties":{"id":"LAS-RIV-0020","name":"ditch","waterway":"ditch","class":"drainage","osm_id":946388872,"data_source":"OpenStreetMap","length_km":1.753},"geometry":{"type":"LineString","coordinates":[[121.5478102,18.086302],[121.5479091,18.0863198],[121.5482792,18.086395],[121.5509883,18.0869681],[121.552265,18.0872575],[121.5535551,18.0875481],[121.553928,18.0876425],[121.5540272,18.0876552],[121.5541694,18.0876552],[121.5543973,18.0876399],[121.5546951,18.0876578],[121.5554944,18.0876476],[121.5562239,18.0876284],[121.5569307,18.0876272],[121.5580733,18.0875928],[121.5590778,18.0875826],[121.5597524,18.0875685],[121.5603639,18.0875596],[121.561123,18.0875928],[121.5615159,18.0876425],[121.5617265,18.0877317],[121.5618284,18.0877955],[121.5626974,18.0882034],[121.5630944,18.0883844],[121.563592,18.0886279],[121.5639661,18.0888115]]}},{"type":"Feature","properties":{"id":"LAS-RIV-0021","name":"ditch","waterway":"ditch","class":"drainage","osm_id":946388873,"data_source":"OpenStreetMap","length_km":0.009},"geometry":{"type":"LineString","coordinates":[[121.5477253,18.0862886],[121.5478102,18.086302]]}},{"type":"Feature","properties":{"id":"LAS-RIV-0022","name":"ditch","waterway":"ditch","class":"drainage","osm_id":946388874,"data_source":"OpenStreetMap","length_km":0.009},"geometry":{"type":"LineString","coordinates":[[121.5474142,18.0862147],[121.5474997,18.0862374]]}},{"type":"Feature","properties":{"id":"LAS-RIV-0023","name":"ditch","waterway":"ditch","class":"drainage","osm_id":946388875,"data_source":"OpenStreetMap","length_km":0.025},"geometry":{"type":"LineString","coordinates":[[121.5474997,18.0862374],[121.5476395,18.0862746],[121.5476891,18.0862835],[121.5477253,18.0862886]]}},{"type":"Feature","properties":{"id":"LAS-RIV-0024","name":"ditch","waterway":"ditch","class":"drainage","osm_id":946388876,"data_source":"OpenStreetMap","length_km":1.26},"geometry":{"type":"LineString","coordinates":[[121.5364037,18.0839696],[121.5370904,18.0837861],[121.5372688,18.0837491],[121.537592,18.0836803],[121.5385146,18.0834342],[121.53898,18.0833042],[121.5395553,18.0831627],[121.5397283,18.0830964],[121.5398812,18.0830607],[121.5400757,18.0830301],[121.5402554,18.0830301],[121.5403734,18.0830568],[121.5404995,18.0831155],[121.5409595,18.0833462],[121.5421772,18.0839607],[121.5427338,18.0842425],[121.5430878,18.0844082],[121.5436511,18.0845574],[121.5448447,18.0848391],[121.5449774,18.0848799],[121.54704,18.08604],[121.5472814,18.086179],[121.5474142,18.0862147]]}},{"type":"Feature","properties":{"id":"LAS-RIV-0025","name":"ditch","waterway":"ditch","class":"drainage","osm_id":946388877,"data_source":"OpenStreetMap","length_km":0.008},"geometry":{"type":"LineString","coordinates":[[121.5363286,18.0839824],[121.5364037,18.0839696]]}},{"type":"Feature","properties":{"id":"LAS-RIV-0026","name":"ditch","waterway":"ditch","class":"drainage","osm_id":946388878,"data_source":"OpenStreetMap","length_km":0.064},"geometry":{"type":"LineString","coordinates":[[121.5357466,18.0841379],[121.5360175,18.0840622],[121.5363286,18.0839824]]}},{"type":"Feature","properties":{"id":"LAS-RIV-0027","name":"ditch","waterway":"ditch","class":"drainage","osm_id":946388879,"data_source":"OpenStreetMap","length_km":0.01},"geometry":{"type":"LineString","coordinates":[[121.5356527,18.0841621],[121.5357466,18.0841379]]}},{"type":"Feature","properties":{"id":"LAS-RIV-0028","name":"ditch","waterway":"ditch","class":"drainage","osm_id":946388880,"data_source":"OpenStreetMap","length_km":0.001},"geometry":{"type":"LineString","coordinates":[[121.5322074,18.0836796],[121.5322054,18.0836898]]}},{"type":"Feature","properties":{"id":"LAS-RIV-0029","name":"ditch","waterway":"ditch","class":"drainage","osm_id":946388881,"data_source":"OpenStreetMap","length_km":0.369},"geometry":{"type":"LineString","coordinates":[[121.5322074,18.0836796],[121.5325172,18.0837599],[121.5327036,18.0838014],[121.533161,18.0838702],[121.5343747,18.0840436],[121.5350358,18.0841545],[121.5353402,18.0842017],[121.5354422,18.0842093],[121.5355414,18.0841915],[121.5356527,18.0841621]]}},{"type":"Feature","properties":{"id":"LAS-RIV-0030","name":"ditch","waterway":"ditch","class":"drainage","osm_id":946388882,"data_source":"OpenStreetMap","length_km":0.008},"geometry":{"type":"LineString","coordinates":[[121.5322054,18.0836898],[121.5322021,18.0837631]]}},{"type":"Feature","properties":{"id":"LAS-RIV-0031","name":"ditch","waterway":"ditch","class":"drainage","osm_id":946388883,"data_source":"OpenStreetMap","length_km":0.726},"geometry":{"type":"LineString","coordinates":[[121.5330684,18.094144],[121.5333554,18.094121],[121.5334922,18.0941389],[121.5335619,18.0941695],[121.5338945,18.0943734],[121.5342459,18.0946284],[121.5344229,18.0946616],[121.5346321,18.0946819],[121.5351015,18.0946539],[121.5353456,18.0946743],[121.5354824,18.0946972],[121.5355441,18.0947482],[121.5357909,18.0950822],[121.5359464,18.0952505],[121.5360591,18.095304],[121.5362602,18.0953372],[121.5365553,18.0953168],[121.5383121,18.0953142],[121.5383819,18.0953091],[121.538465,18.0952785],[121.5385401,18.0952632],[121.538634,18.0952556],[121.5387413,18.0952581],[121.5392375,18.0953117],[121.5393448,18.0953244],[121.5394668,18.0953168]]}},{"type":"Feature","properties":{"id":"LAS-RIV-0032","name":"ditch","waterway":"ditch","class":"drainage","osm_id":946388884,"data_source":"OpenStreetMap","length_km":0.016},"geometry":{"type":"LineString","coordinates":[[121.5330684,18.094144],[121.5329155,18.0941516]]}},{"type":"Feature","properties":{"id":"LAS-RIV-0033","name":"ditch","waterway":"ditch","class":"drainage","osm_id":946388885,"data_source":"OpenStreetMap","length_km":0.566},"geometry":{"type":"LineString","coordinates":[[121.5322182,18.0892207],[121.532194,18.0895369],[121.532127,18.0903272],[121.5321323,18.0908219],[121.532127,18.0916581],[121.532127,18.0919437],[121.5321645,18.0921247],[121.5326902,18.0937208],[121.5328136,18.0940828],[121.5328431,18.0941363],[121.5329155,18.0941516]]}},{"type":"Feature","properties":{"id":"LAS-RIV-0034","name":"ditch","waterway":"ditch","class":"drainage","osm_id":946388886,"data_source":"OpenStreetMap","length_km":0.022},"geometry":{"type":"LineString","coordinates":[[121.532241,18.0890269],[121.5322182,18.0892207]]}},{"type":"Feature","properties":{"id":"LAS-RIV-0035","name":"ditch","waterway":"ditch","class":"drainage","osm_id":946388887,"data_source":"OpenStreetMap","length_km":0.217},"geometry":{"type":"LineString","coordinates":[[121.5323429,18.0870777],[121.5323187,18.0873773],[121.5323,18.0876667],[121.5322664,18.0883653],[121.532241,18.0890269]]}},{"type":"Feature","properties":{"id":"LAS-RIV-0036","name":"ditch","waterway":"ditch","class":"drainage","osm_id":946388888,"data_source":"OpenStreetMap","length_km":0.02},"geometry":{"type":"LineString","coordinates":[[121.5323442,18.0869005],[121.5323429,18.0870777]]}},{"type":"Feature","properties":{"id":"LAS-RIV-0037","name":"ditch","waterway":"ditch","class":"drainage","osm_id":946388889,"data_source":"OpenStreetMap","length_km":0.349},"geometry":{"type":"LineString","coordinates":[[121.5322021,18.0837631],[121.5322745,18.0853325],[121.532304,18.0862453],[121.5323254,18.0867246],[121.5323442,18.0869005]]}},{"type":"Feature","properties":{"id":"LAS-RIV-0038","name":"ditch","waterway":"ditch","class":"drainage","osm_id":946388890,"data_source":"OpenStreetMap","length_km":0.012},"geometry":{"type":"LineString","coordinates":[[121.5395822,18.095304],[121.5394668,18.0953168]]}},{"type":"Feature","properties":{"id":"LAS-RIV-0040","name":"ditch","waterway":"ditch","class":"drainage","osm_id":946388892,"data_source":"OpenStreetMap","length_km":2.775},"geometry":{"type":"LineString","coordinates":[[121.5827818,18.0941631],[121.582818,18.0940802],[121.5828328,18.0938916],[121.5829843,18.0931114],[121.5830058,18.0929865],[121.5830487,18.0929355],[121.5840223,18.0924205],[121.5847653,18.0919819],[121.5851435,18.0917448],[121.5853715,18.0916123],[121.5854305,18.0915205],[121.5858221,18.0908423],[121.5861708,18.0902865],[121.5867636,18.0893201],[121.5868682,18.0891672],[121.5869835,18.0890422],[121.5879625,18.0880122],[121.5884292,18.0874971],[121.588558,18.087334],[121.5888664,18.0868903],[121.5892687,18.0860196],[121.5893707,18.0855938],[121.5894122,18.0854166],[121.5895423,18.08514],[121.5895919,18.0849946],[121.5897073,18.0846415],[121.5897703,18.0845612],[121.5899219,18.0844044],[121.5902263,18.0842055],[121.5903671,18.0840321],[121.5906487,18.0835362],[121.5909706,18.0829536],[121.5912898,18.0823761],[121.5913743,18.0822269],[121.5913823,18.0821542],[121.5913609,18.0820344],[121.5911999,18.0814798],[121.5912133,18.0813625],[121.5912402,18.0811382],[121.5913662,18.0804013],[121.5915191,18.0799423],[121.5915701,18.0798531],[121.5916398,18.0798097],[121.5917203,18.0797791],[121.5929809,18.0795216],[121.5930346,18.0795038],[121.5931526,18.079412],[121.593866,18.0787975],[121.5940699,18.0786394],[121.5941665,18.0785578],[121.5942845,18.078466],[121.5943998,18.0783258],[121.5945205,18.078183],[121.594668,18.0781014],[121.594786,18.0780478],[121.5948692,18.0779764],[121.594955,18.077877],[121.5950569,18.0777291],[121.5952393,18.0774945],[121.5953547,18.0773849],[121.5954271,18.0773339],[121.5955478,18.0773007],[121.5960708,18.0772089],[121.5961406,18.0771707],[121.5961701,18.0770993],[121.5961137,18.0766123],[121.5961084,18.0765409],[121.5961325,18.0764899],[121.5961942,18.0764695],[121.5962478,18.0764695],[121.5963122,18.0765485],[121.5964544,18.0767143],[121.5965751,18.0767959],[121.5967521,18.0768418],[121.5969077,18.0768596],[121.5971437,18.0768494],[121.5973261,18.0767882],[121.5975326,18.0767066],[121.5975863,18.076648]]}},{"type":"Feature","properties":{"id":"LAS-RIV-0041","name":"ditch","waterway":"ditch","class":"drainage","osm_id":946388893,"data_source":"OpenStreetMap","length_km":0.01},"geometry":{"type":"LineString","coordinates":[[121.5827818,18.0941631],[121.5827255,18.0942307]]}},{"type":"Feature","properties":{"id":"LAS-RIV-0042","name":"ditch","waterway":"ditch","class":"drainage","osm_id":946388894,"data_source":"OpenStreetMap","length_km":0.8},"geometry":{"type":"LineString","coordinates":[[121.5770861,18.0985062],[121.5772819,18.0983099],[121.5776923,18.0979122],[121.5781349,18.0974303],[121.5783092,18.0972621],[121.578379,18.0972136],[121.5784755,18.0971881],[121.5786016,18.097206],[121.5789825,18.097387],[121.5790549,18.0973921],[121.5791219,18.0973717],[121.5795109,18.0970505],[121.5796852,18.0968695],[121.5798596,18.0966578],[121.5800071,18.0965202],[121.580168,18.0963646],[121.5803638,18.0962423],[121.5808895,18.0957757],[121.5814689,18.0953372],[121.5817586,18.0951154],[121.5822065,18.0946488],[121.5823325,18.0945392],[121.5825793,18.0943607],[121.5826477,18.0943135],[121.5826799,18.0942855],[121.5827255,18.0942307]]}},{"type":"Feature","properties":{"id":"LAS-RIV-0043","name":"ditch","waterway":"ditch","class":"drainage","osm_id":946388895,"data_source":"OpenStreetMap","length_km":0.018},"geometry":{"type":"LineString","coordinates":[[121.5770861,18.0985062],[121.5769494,18.0986057]]}},{"type":"Feature","properties":{"id":"LAS-RIV-0044","name":"ditch","waterway":"ditch","class":"drainage","osm_id":946388896,"data_source":"OpenStreetMap","length_km":1.129},"geometry":{"type":"LineString","coordinates":[[121.5672974,18.0980665],[121.5675174,18.0981187],[121.567634,18.0981557],[121.567689,18.0982016],[121.5677105,18.098264],[121.5676998,18.0983545],[121.5677065,18.0984221],[121.5677226,18.0984514],[121.5677816,18.0984693],[121.5679291,18.0984705],[121.5680364,18.0984705],[121.5680981,18.0984705],[121.5681852,18.0985011],[121.5682778,18.0985598],[121.5684843,18.0987586],[121.5686694,18.0988759],[121.5689698,18.0990008],[121.5697825,18.0993323],[121.5700588,18.0994088],[121.5707105,18.0995592],[121.5710968,18.0995796],[121.5720597,18.0995745],[121.5731111,18.0995439],[121.5736663,18.0995107],[121.5738487,18.0995005],[121.573905,18.0994776],[121.5740097,18.0993068],[121.5741116,18.0991207],[121.5741706,18.0990263],[121.5742189,18.0989754],[121.5742832,18.0989499],[121.5743664,18.098955],[121.5745488,18.0990314],[121.5750852,18.0992354],[121.575163,18.0992456],[121.5752408,18.099243],[121.5753213,18.099215],[121.5760991,18.0989116],[121.5764129,18.098779],[121.5767938,18.0986592],[121.5769494,18.0986057]]}},{"type":"Feature","properties":{"id":"LAS-RIV-0045","name":"ditch","waterway":"ditch","class":"drainage","osm_id":946388897,"data_source":"OpenStreetMap","length_km":0.02},"geometry":{"type":"LineString","coordinates":[[121.5672974,18.0980665],[121.567107,18.0980448]]}},{"type":"Feature","properties":{"id":"LAS-RIV-0046","name":"ditch","waterway":"ditch","class":"drainage","osm_id":946388898,"data_source":"OpenStreetMap","length_km":2.048},"geometry":{"type":"LineString","coordinates":[[121.5519445,18.1044146],[121.5520075,18.1044299],[121.5520933,18.1044427],[121.5521537,18.1044656],[121.552261,18.1045561],[121.5523924,18.1046441],[121.5525131,18.1046606],[121.5530308,18.1046249],[121.5533285,18.1046173],[121.5535806,18.1046186],[121.5536933,18.1046071],[121.5538153,18.1045791],[121.5538877,18.1045587],[121.5539923,18.1045038],[121.554215,18.1043547],[121.5543893,18.104291],[121.5545422,18.1042706],[121.5546897,18.1042196],[121.5547889,18.1041559],[121.5550035,18.104059],[121.5550974,18.104036],[121.5552074,18.104036],[121.5553737,18.104036],[121.5555051,18.1040386],[121.5556687,18.1040003],[121.5561086,18.1038168],[121.5562266,18.1037352],[121.5562588,18.1036766],[121.55624,18.1034854],[121.5560898,18.1028531],[121.5560523,18.1027307],[121.5560174,18.1026721],[121.5559021,18.1025931],[121.5557545,18.1024503],[121.5556714,18.1022769],[121.555666,18.1021341],[121.5557143,18.1020016],[121.5558082,18.1019404],[121.5559611,18.101892],[121.5561488,18.1018512],[121.5565297,18.1017543],[121.5569562,18.1015886],[121.5572834,18.1014636],[121.5573746,18.101405],[121.5574443,18.1012852],[121.5576187,18.1009767],[121.5577769,18.1007829],[121.5578654,18.100681],[121.5579835,18.1006198],[121.5590188,18.1003929],[121.5593863,18.1003062],[121.559566,18.1002373],[121.5597108,18.100194],[121.5598422,18.1001711],[121.5599468,18.1001813],[121.5601185,18.1002501],[121.5603304,18.1003623],[121.5604377,18.1003954],[121.5605772,18.1004133],[121.5607917,18.100398],[121.5612558,18.1003087],[121.5619075,18.1001124],[121.5630126,18.0997606],[121.5636831,18.0995362],[121.5641069,18.0993756],[121.56441,18.0992507],[121.5646997,18.0991385],[121.564866,18.0990595],[121.5649894,18.0989957],[121.5651852,18.0988989],[121.565381,18.0988096],[121.5655634,18.0987255],[121.5657565,18.098672],[121.5660354,18.0985853],[121.5661669,18.0985802],[121.5666684,18.0985343],[121.5667757,18.0984986],[121.5668187,18.0984298],[121.566816,18.098315],[121.5668254,18.0981149],[121.5668482,18.0980703],[121.5669112,18.0980499],[121.5669782,18.0980486],[121.567107,18.0980448]]}},{"type":"Feature","properties":{"id":"LAS-RIV-0047","name":"ditch","waterway":"ditch","class":"drainage","osm_id":946388899,"data_source":"OpenStreetMap","length_km":0.011},"geometry":{"type":"LineString","coordinates":[[121.5519445,18.1044146],[121.5518546,18.1043726]]}},{"type":"Feature","properties":{"id":"LAS-RIV-0048","name":"ditch","waterway":"ditch","class":"drainage","osm_id":946388900,"data_source":"OpenStreetMap","length_km":0.014},"geometry":{"type":"LineString","coordinates":[[121.5430114,18.098983],[121.5429121,18.0988989]]}},{"type":"Feature","properties":{"id":"LAS-RIV-0049","name":"ditch","waterway":"ditch","class":"drainage","osm_id":946388901,"data_source":"OpenStreetMap","length_km":1.164},"geometry":{"type":"LineString","coordinates":[[121.5430114,18.098983],[121.5433761,18.099243],[121.5436524,18.099396],[121.5437517,18.0994419],[121.5438724,18.099447],[121.5440306,18.0994419],[121.544154,18.0994572],[121.5454361,18.1000487],[121.5457767,18.1002272],[121.5458921,18.1002373],[121.5460262,18.100217],[121.5463293,18.1001915],[121.5465197,18.1002119],[121.5466028,18.1002526],[121.5472412,18.1005484],[121.5475738,18.1007421],[121.5491188,18.102124],[121.5501273,18.1029398],[121.5506583,18.1033145],[121.5509212,18.103442],[121.5510312,18.1034701],[121.5511572,18.1034701],[121.5513128,18.1034446],[121.551396,18.1034471],[121.551463,18.1034803],[121.5515274,18.1035465],[121.5516561,18.1038295],[121.5517983,18.1043012],[121.5518546,18.1043726]]}},{"type":"Feature","properties":{"id":"LAS-RIV-0050","name":"ditch","waterway":"ditch","class":"drainage","osm_id":946388902,"data_source":"OpenStreetMap","length_km":0.547},"geometry":{"type":"LineString","coordinates":[[121.5395822,18.095304],[121.5397498,18.0953066],[121.5398209,18.0953193],[121.5399308,18.0953538],[121.540128,18.095471],[121.5402487,18.0955883],[121.5404311,18.0958267],[121.5417266,18.097693],[121.5420833,18.098157],[121.5422952,18.0984323],[121.5424615,18.0985241],[121.5425554,18.0985649],[121.5426815,18.0986439],[121.5428209,18.0988096],[121.5429121,18.0988989]]}},{"type":"Feature","properties":{"id":"LAS-RIV-0051","name":"ditch","waterway":"ditch","class":"drainage","osm_id":946400956,"data_source":"OpenStreetMap","length_km":0.017},"geometry":{"type":"LineString","coordinates":[[121.5334842,18.0731419],[121.5335257,18.0732898]]}},{"type":"Feature","properties":{"id":"LAS-RIV-0052","name":"ditch","waterway":"ditch","class":"drainage","osm_id":946400959,"data_source":"OpenStreetMap","length_km":0.443},"geometry":{"type":"LineString","coordinates":[[121.5466744,18.0723466],[121.5475899,18.0720761],[121.5481263,18.0719206],[121.5485984,18.0718237],[121.5490195,18.0716605],[121.5493923,18.0714845],[121.5497705,18.0713035],[121.5501031,18.0711581],[121.550374,18.0710561],[121.5506101,18.0709949]]}},{"type":"Feature","properties":{"id":"LAS-RIV-0053","name":"ditch","waterway":"ditch","class":"drainage","osm_id":946400960,"data_source":"OpenStreetMap","length_km":0.014},"geometry":{"type":"LineString","coordinates":[[121.5438402,18.073091],[121.5439743,18.0730706]]}},{"type":"Feature","properties":{"id":"LAS-RIV-0054","name":"ditch","waterway":"ditch","class":"drainage","osm_id":946400961,"data_source":"OpenStreetMap","length_km":0.614},"geometry":{"type":"LineString","coordinates":[[121.5381244,18.0740828],[121.5390283,18.0738763],[121.5398893,18.0737514],[121.5403318,18.073708],[121.5407288,18.0736162],[121.5411097,18.073527],[121.541512,18.0734607],[121.5431026,18.0731725],[121.5438402,18.073091]]}},{"type":"Feature","properties":{"id":"LAS-RIV-0055","name":"ditch","waterway":"ditch","class":"drainage","osm_id":946400962,"data_source":"OpenStreetMap","length_km":0.014},"geometry":{"type":"LineString","coordinates":[[121.5379956,18.0740981],[121.5381244,18.0740828]]}},{"type":"Feature","properties":{"id":"LAS-RIV-0056","name":"ditch","waterway":"ditch","class":"drainage","osm_id":946400963,"data_source":"OpenStreetMap","length_km":0.275},"geometry":{"type":"LineString","coordinates":[[121.5354288,18.074399],[121.5356795,18.07445],[121.5358351,18.0744526],[121.5360926,18.0744475],[121.5366867,18.0743646],[121.5370434,18.0742664],[121.5379956,18.0740981]]}},{"type":"Feature","properties":{"id":"LAS-RIV-0057","name":"ditch","waterway":"ditch","class":"drainage","osm_id":946400964,"data_source":"OpenStreetMap","length_km":0.01},"geometry":{"type":"LineString","coordinates":[[121.5353335,18.0743723],[121.5354288,18.074399]]}},{"type":"Feature","properties":{"id":"LAS-RIV-0058","name":"ditch","waterway":"ditch","class":"drainage","osm_id":946400965,"data_source":"OpenStreetMap","length_km":0.238},"geometry":{"type":"LineString","coordinates":[[121.5335257,18.0732898],[121.5336062,18.0735155],[121.5336893,18.0736137],[121.5344055,18.0741504],[121.5344645,18.074167],[121.5345933,18.0741887],[121.5349272,18.0742601],[121.5353335,18.0743723]]}},{"type":"Feature","properties":{"id":"LAS-RIV-0059","name":"ditch","waterway":"ditch","class":"drainage","osm_id":946400966,"data_source":"OpenStreetMap","length_km":0.864},"geometry":{"type":"LineString","coordinates":[[121.5287366,18.0722571],[121.5292355,18.0718466],[121.5294582,18.071714],[121.5295681,18.0716936],[121.5296459,18.0717089],[121.5296862,18.0717242],[121.5298927,18.0718619],[121.5302092,18.0720022],[121.5303057,18.0720277],[121.5304559,18.0720226],[121.5306437,18.0719792],[121.5309629,18.0718211],[121.5310299,18.0717574],[121.5310943,18.071612],[121.531325,18.0706584],[121.531392,18.0704748],[121.5314323,18.0704238],[121.5314859,18.0704059],[121.5315288,18.0704008],[121.5316334,18.0704059],[121.5317568,18.070434],[121.5318614,18.0704544],[121.5319151,18.0704569],[121.5320063,18.0704442],[121.5321377,18.070411],[121.532194,18.0704034],[121.5323067,18.0704136],[121.5324059,18.0704544],[121.5324703,18.0704952],[121.5325186,18.0705972],[121.5326527,18.0710867],[121.5327626,18.0713494],[121.5328109,18.0714922],[121.532827,18.0716146],[121.5328404,18.0716834],[121.5328619,18.0717676],[121.5329075,18.0718619],[121.5329692,18.071941],[121.5330443,18.0720353],[121.5330899,18.0721347],[121.5333205,18.072632],[121.5334842,18.0731419]]}},{"type":"Feature","properties":{"id":"LAS-RIV-0060","name":"ditch","waterway":"ditch","class":"drainage","osm_id":946400967,"data_source":"OpenStreetMap","length_km":0.025},"geometry":{"type":"LineString","coordinates":[[121.5285596,18.0724076],[121.5287366,18.0722571]]}},{"type":"Feature","properties":{"id":"LAS-RIV-0061","name":"ditch","waterway":"ditch","class":"drainage","osm_id":946400968,"data_source":"OpenStreetMap","length_km":0.457},"geometry":{"type":"LineString","coordinates":[[121.5249816,18.0746285],[121.525223,18.0745597],[121.5255797,18.0744271],[121.5259793,18.0743021],[121.526159,18.0742384],[121.5263361,18.0741491],[121.5276155,18.0732337],[121.5285596,18.0724076]]}},{"type":"Feature","properties":{"id":"LAS-RIV-0062","name":"ditch","waterway":"ditch","class":"drainage","osm_id":946400969,"data_source":"OpenStreetMap","length_km":0.021},"geometry":{"type":"LineString","coordinates":[[121.5247884,18.0746591],[121.5249816,18.0746285]]}},{"type":"Feature","properties":{"id":"LAS-RIV-0063","name":"ditch","waterway":"ditch","class":"drainage","osm_id":946400970,"data_source":"OpenStreetMap","length_km":0.587},"geometry":{"type":"LineString","coordinates":[[121.5193918,18.0747841],[121.5194132,18.0747907],[121.5196627,18.0748682],[121.5199256,18.0749268],[121.5203413,18.0748988],[121.5207383,18.074881],[121.5209985,18.0748861],[121.5216744,18.0749957],[121.5219399,18.0751002],[121.5220794,18.0751181],[121.5222216,18.0751079],[121.5223879,18.0750518],[121.5225917,18.0749447],[121.522699,18.0748886],[121.5229002,18.0748019],[121.5230826,18.0747331],[121.5233132,18.0746617],[121.5234554,18.0746591],[121.5236217,18.0746591],[121.5238202,18.0746897],[121.5239999,18.0747101],[121.5241286,18.0747229],[121.5243593,18.0747178],[121.5247884,18.0746591]]}},{"type":"Feature","properties":{"id":"LAS-RIV-0064","name":"ditch","waterway":"ditch","class":"drainage","osm_id":946400971,"data_source":"OpenStreetMap","length_km":0.019},"geometry":{"type":"LineString","coordinates":[[121.5192175,18.0747509],[121.5193918,18.0747841]]}},{"type":"Feature","properties":{"id":"LAS-RIV-0065","name":"ditch","waterway":"ditch","class":"drainage","osm_id":946400972,"data_source":"OpenStreetMap","length_km":0.713},"geometry":{"type":"LineString","coordinates":[[121.5126032,18.0734811],[121.5132415,18.0735703],[121.5140784,18.0736341],[121.5151995,18.0738636],[121.5170047,18.0742588],[121.5180749,18.0744628],[121.5188017,18.0746336],[121.5192175,18.0747509]]}},{"type":"Feature","properties":{"id":"LAS-RIV-0066","name":"ditch","waterway":"ditch","class":"drainage","osm_id":946400973,"data_source":"OpenStreetMap","length_km":0.014},"geometry":{"type":"LineString","coordinates":[[121.5124691,18.0734785],[121.5126032,18.0734811]]}},{"type":"Feature","properties":{"id":"LAS-RIV-0067","name":"ditch","waterway":"ditch","class":"drainage","osm_id":946400976,"data_source":"OpenStreetMap","length_km":0.588},"geometry":{"type":"LineString","coordinates":[[121.5069383,18.072864],[121.5076169,18.0729533],[121.5085155,18.0730986],[121.5099746,18.0732363],[121.5103863,18.0732809],[121.5110435,18.0733243],[121.5118521,18.0734326],[121.5124691,18.0734785]]}},{"type":"Feature","properties":{"id":"LAS-RIV-0068","name":"ditch","waterway":"ditch","class":"drainage","osm_id":946400977,"data_source":"OpenStreetMap","length_km":0.016},"geometry":{"type":"LineString","coordinates":[[121.5067854,18.0728411],[121.5069383,18.072864]]}},{"type":"Feature","properties":{"id":"LAS-RIV-0069","name":"ditch","waterway":"ditch","class":"drainage","osm_id":946400978,"data_source":"OpenStreetMap","length_km":0.623},"geometry":{"type":"LineString","coordinates":[[121.5039745,18.0684374],[121.5041488,18.0689168],[121.5043285,18.0693859],[121.5044975,18.06985],[121.504932,18.0709847],[121.5052351,18.071714],[121.5055329,18.0725096],[121.5055838,18.0725886],[121.5056321,18.0726371],[121.5058038,18.0727085],[121.5060908,18.0727722],[121.5067854,18.0728411]]}},{"type":"Feature","properties":{"id":"LAS-RIV-0070","name":"ditch","waterway":"ditch","class":"drainage","osm_id":946400979,"data_source":"OpenStreetMap","length_km":0.015},"geometry":{"type":"LineString","coordinates":[[121.5039182,18.0683099],[121.5039745,18.0684374]]}},{"type":"Feature","properties":{"id":"LAS-RIV-0071","name":"ditch","waterway":"ditch","class":"drainage","osm_id":946400980,"data_source":"OpenStreetMap","length_km":0.782},"geometry":{"type":"LineString","coordinates":[[121.501008,18.0618967],[121.5011716,18.0623072],[121.5015873,18.0632074],[121.5016919,18.0636281],[121.5022525,18.0647578],[121.5025449,18.0651836],[121.5029499,18.0655814],[121.5030572,18.0657931],[121.5039182,18.0683099]]}},{"type":"Feature","properties":{"id":"LAS-RIV-0072","name":"ditch","waterway":"ditch","class":"drainage","osm_id":946400981,"data_source":"OpenStreetMap","length_km":0.022},"geometry":{"type":"LineString","coordinates":[[121.5009355,18.0617105],[121.501008,18.0618967]]}},{"type":"Feature","properties":{"id":"LAS-RIV-0073","name":"ditch","waterway":"ditch","class":"drainage","osm_id":946400982,"data_source":"OpenStreetMap","length_km":0.269},"geometry":{"type":"LineString","coordinates":[[121.5000451,18.0594359],[121.5002677,18.0599688],[121.5009355,18.0617105]]}},{"type":"Feature","properties":{"id":"LAS-RIV-0074","name":"ditch","waterway":"ditch","class":"drainage","osm_id":946404159,"data_source":"OpenStreetMap","length_km":0.271},"geometry":{"type":"LineString","coordinates":[[121.5943032,18.0633986],[121.5947083,18.0635886],[121.595301,18.0638385],[121.5954673,18.063943],[121.5957168,18.0641483],[121.5959059,18.0643383],[121.5959997,18.0644059],[121.5960775,18.0644199],[121.5962519,18.0644059],[121.5965281,18.0643128]]}},{"type":"Feature","properties":{"id":"LAS-RIV-0075","name":"ditch","waterway":"ditch","class":"drainage","osm_id":946404160,"data_source":"OpenStreetMap","length_km":0.015},"geometry":{"type":"LineString","coordinates":[[121.5941785,18.0633387],[121.5943032,18.0633986]]}},{"type":"Feature","properties":{"id":"LAS-RIV-0076","name":"ditch","waterway":"ditch","class":"drainage","osm_id":946404161,"data_source":"OpenStreetMap","length_km":0.43},"geometry":{"type":"LineString","coordinates":[[121.5910926,18.0645971],[121.5913434,18.064504],[121.5914333,18.0644505],[121.5917163,18.0641904],[121.5920663,18.0638092],[121.5922574,18.0635988],[121.5923472,18.0634764],[121.5925685,18.0630544],[121.5926195,18.0629804],[121.5926845,18.0629173],[121.5927442,18.062879],[121.5928012,18.0628453],[121.592875,18.062821],[121.592938,18.0628172],[121.5930352,18.0628319],[121.5931486,18.0628708],[121.5932418,18.0629154],[121.5941785,18.0633387]]}},{"type":"Feature","properties":{"id":"LAS-RIV-0077","name":"ditch","waterway":"ditch","class":"drainage","osm_id":946404162,"data_source":"OpenStreetMap","length_km":0.012},"geometry":{"type":"LineString","coordinates":[[121.5909854,18.064643],[121.5910926,18.0645971]]}},{"type":"Feature","properties":{"id":"LAS-RIV-0078","name":"ditch","waterway":"ditch","class":"drainage","osm_id":946404163,"data_source":"OpenStreetMap","length_km":0.768},"geometry":{"type":"LineString","coordinates":[[121.5842865,18.0671751],[121.5844716,18.0670693],[121.5852226,18.0666792],[121.585806,18.0663859],[121.5865168,18.0660774],[121.5871686,18.0657905],[121.5874811,18.0656566],[121.5875387,18.065635],[121.5876259,18.0656222],[121.5887001,18.0654909],[121.5892071,18.0654233],[121.5892781,18.0654016],[121.5894149,18.0653392],[121.5898199,18.0651339],[121.5903161,18.0649452],[121.5906648,18.0647935],[121.5909854,18.064643]]}},{"type":"Feature","properties":{"id":"LAS-RIV-0079","name":"ditch","waterway":"ditch","class":"drainage","osm_id":946404164,"data_source":"OpenStreetMap","length_km":0.011},"geometry":{"type":"LineString","coordinates":[[121.584194,18.0672274],[121.5842865,18.0671751]]}},{"type":"Feature","properties":{"id":"LAS-RIV-0080","name":"ditch","waterway":"ditch","class":"drainage","osm_id":946404165,"data_source":"OpenStreetMap","length_km":0.681},"geometry":{"type":"LineString","coordinates":[[121.5786526,18.0649452],[121.5788725,18.0649618],[121.5794076,18.0650204],[121.5803531,18.0651275],[121.5804791,18.0651607],[121.580978,18.0653621],[121.5813053,18.065459],[121.5817478,18.0655534],[121.5819222,18.0656248],[121.582531,18.0660302],[121.582582,18.0661016],[121.5826544,18.0662444],[121.5827858,18.06653],[121.5829776,18.0667748],[121.5833263,18.0671547],[121.5835623,18.0672529],[121.5837152,18.0672759],[121.5838735,18.0672771],[121.5839794,18.0672835],[121.5840693,18.0672644],[121.584194,18.0672274]]}},{"type":"Feature","properties":{"id":"LAS-RIV-0081","name":"ditch","waterway":"ditch","class":"drainage","osm_id":946404166,"data_source":"OpenStreetMap","length_km":0.013},"geometry":{"type":"LineString","coordinates":[[121.5785319,18.0649388],[121.5786526,18.0649452]]}},{"type":"Feature","properties":{"id":"LAS-RIV-0082","name":"ditch","waterway":"ditch","class":"drainage","osm_id":946404167,"data_source":"OpenStreetMap","length_km":0.458},"geometry":{"type":"LineString","coordinates":[[121.5743288,18.0657408],[121.5744576,18.0657319],[121.5747057,18.0657038],[121.5754017,18.065626],[121.5766382,18.0654794],[121.5768823,18.0654463],[121.5769976,18.0654055],[121.5771881,18.0653086],[121.5777567,18.0650306],[121.5780222,18.0649643],[121.5785319,18.0649388]]}},{"type":"Feature","properties":{"id":"LAS-RIV-0083","name":"ditch","waterway":"ditch","class":"drainage","osm_id":946404168,"data_source":"OpenStreetMap","length_km":0.012},"geometry":{"type":"LineString","coordinates":[[121.5742189,18.0657574],[121.5743288,18.0657408]]}},{"type":"Feature","properties":{"id":"LAS-RIV-0084","name":"ditch","waterway":"ditch","class":"drainage","osm_id":946404169,"data_source":"OpenStreetMap","length_km":0.509},"geometry":{"type":"LineString","coordinates":[[121.5715796,18.0686618],[121.5715434,18.0685432],[121.5714388,18.0681033],[121.5713811,18.0677833],[121.5714133,18.0674097],[121.5714642,18.0672006],[121.5716386,18.0669686],[121.5720704,18.0665096],[121.5721777,18.0664433],[121.5729475,18.0661118],[121.5736449,18.065839],[121.5739185,18.0657905],[121.5742189,18.0657574]]}},{"type":"Feature","properties":{"id":"LAS-RIV-0085","name":"ditch","waterway":"ditch","class":"drainage","osm_id":946404170,"data_source":"OpenStreetMap","length_km":0.011},"geometry":{"type":"LineString","coordinates":[[121.5716037,18.0687561],[121.5715796,18.0686618]]}},{"type":"Feature","properties":{"id":"LAS-RIV-0086","name":"ditch","waterway":"ditch","class":"drainage","osm_id":946404171,"data_source":"OpenStreetMap","length_km":0.515},"geometry":{"type":"LineString","coordinates":[[121.5703149,18.0711059],[121.5702707,18.0707272],[121.5702492,18.0705717],[121.5701768,18.0704518],[121.5699971,18.0702988],[121.5696672,18.0700846],[121.5696081,18.0699928],[121.5696001,18.0698985],[121.5696055,18.0694726],[121.5696913,18.069289],[121.5697825,18.0692279],[121.5698951,18.069182],[121.5699756,18.0691794],[121.5700534,18.0691667],[121.5701258,18.0691284],[121.5703002,18.0690392],[121.5704074,18.068927],[121.5704638,18.0688658],[121.5705335,18.0688352],[121.5706006,18.0688352],[121.5707132,18.0688607],[121.5709868,18.06908],[121.5711263,18.0692075],[121.5712148,18.0692661],[121.5712845,18.0692763],[121.571373,18.0692686],[121.571601,18.0690851],[121.5716386,18.0689882],[121.5716413,18.0689168],[121.5716037,18.0687561]]}},{"type":"Feature","properties":{"id":"LAS-RIV-0087","name":"ditch","waterway":"ditch","class":"drainage","osm_id":946404172,"data_source":"OpenStreetMap","length_km":0.008},"geometry":{"type":"LineString","coordinates":[[121.570327,18.0711734],[121.5703149,18.0711059]]}},{"type":"Feature","properties":{"id":"LAS-RIV-0088","name":"ditch","waterway":"ditch","class":"drainage","osm_id":946404173,"data_source":"OpenStreetMap","length_km":1.901},"geometry":{"type":"LineString","coordinates":[[121.5601078,18.0756714],[121.5600568,18.0758167],[121.5600353,18.0759289],[121.5600461,18.076036],[121.5600863,18.0761712],[121.5602043,18.0762553],[121.56095,18.0765077],[121.5615025,18.0767551],[121.5619504,18.0770483],[121.5622508,18.077135],[121.5624359,18.0771605],[121.5626183,18.0771631],[121.5627873,18.0771452],[121.5629455,18.0771146],[121.5630957,18.0771044],[121.5634418,18.0771554],[121.5638924,18.077316],[121.5642169,18.0774078],[121.5643457,18.0774078],[121.5645334,18.0773568],[121.5646595,18.0772727],[121.5648901,18.0771172],[121.5653434,18.0765562],[121.565963,18.0759162],[121.5661266,18.0757606],[121.5662393,18.0756918],[121.5664029,18.0756434],[121.5665397,18.0756306],[121.5668642,18.0756332],[121.5677869,18.0757199],[121.5680337,18.0758091],[121.5681168,18.075855],[121.5687552,18.0761916],[121.5689483,18.076212],[121.569061,18.076189],[121.5691924,18.0760564],[121.5693855,18.0757173],[121.5694821,18.0754445],[121.5695518,18.0753654],[121.5697208,18.0753144],[121.5698978,18.0752685],[121.5700883,18.0752583],[121.5702894,18.0752889],[121.5703726,18.0753119],[121.5704396,18.075317],[121.5705523,18.0753119],[121.5706515,18.0752405],[121.570791,18.0750492],[121.5708205,18.0749549],[121.5708339,18.0748606],[121.570791,18.0747535],[121.5706944,18.0746056],[121.5700427,18.0740344],[121.5697744,18.0737182],[121.5694687,18.0732694],[121.5693748,18.0731139],[121.5693614,18.0730553],[121.5693802,18.0729201],[121.5694231,18.0727569],[121.5695384,18.0725657],[121.5698254,18.0722444],[121.5702251,18.0716426],[121.5703189,18.071482],[121.5703377,18.0713698],[121.5703323,18.0712219],[121.570327,18.0711734]]}},{"type":"Feature","properties":{"id":"LAS-RIV-0089","name":"ditch","waterway":"ditch","class":"drainage","osm_id":946404174,"data_source":"OpenStreetMap","length_km":0.012},"geometry":{"type":"LineString","coordinates":[[121.5601373,18.0755694],[121.5601078,18.0756714]]}},{"type":"Feature","properties":{"id":"LAS-RIV-0090","name":"ditch","waterway":"ditch","class":"drainage","osm_id":946404175,"data_source":"OpenStreetMap","length_km":0.755},"geometry":{"type":"LineString","coordinates":[[121.555308,18.0721845],[121.5555909,18.0722329],[121.5559866,18.0722712],[121.5564063,18.0723311],[121.5567201,18.0723795],[121.5569776,18.0724331],[121.5570822,18.0724203],[121.5572298,18.0723999],[121.557388,18.0723999],[121.5574953,18.0724152],[121.5576267,18.0724815],[121.5584689,18.0729456],[121.5586942,18.0730323],[121.5589625,18.0731445],[121.5593514,18.0733918],[121.5597135,18.0737004],[121.559861,18.0737667],[121.5600327,18.0738355],[121.5601721,18.0739095],[121.5602258,18.0739477],[121.560317,18.0740624],[121.560325,18.0741415],[121.5602767,18.0749116],[121.5601855,18.0753093],[121.5601373,18.0755694]]}},{"type":"Feature","properties":{"id":"LAS-RIV-0091","name":"ditch","waterway":"ditch","class":"drainage","osm_id":946404176,"data_source":"OpenStreetMap","length_km":0.011},"geometry":{"type":"LineString","coordinates":[[121.5552047,18.0721781],[121.555308,18.0721845]]}},{"type":"Feature","properties":{"id":"LAS-RIV-0092","name":"ditch","waterway":"ditch","class":"drainage","osm_id":946404177,"data_source":"OpenStreetMap","length_km":0.498},"geometry":{"type":"LineString","coordinates":[[121.5507603,18.0709822],[121.5509587,18.0709541],[121.5516025,18.0709133],[121.5519243,18.0709159],[121.5521121,18.0709618],[121.5534961,18.0715687],[121.5543196,18.0719333],[121.5549284,18.0721169],[121.5552047,18.0721781]]}},{"type":"Feature","properties":{"id":"LAS-RIV-0093","name":"ditch","waterway":"ditch","class":"drainage","osm_id":946404178,"data_source":"OpenStreetMap","length_km":0.016},"geometry":{"type":"LineString","coordinates":[[121.5506101,18.0709949],[121.5507603,18.0709822]]}},{"type":"Feature","properties":{"id":"LAS-RIV-0109","name":"ditch","waterway":"ditch","class":"drainage","osm_id":1313450064,"data_source":"OpenStreetMap","length_km":0.013},"geometry":{"type":"LineString","coordinates":[[121.5965281,18.0643128],[121.5966368,18.0642631]]}},{"type":"Feature","properties":{"id":"LAS-RIV-0110","name":"ditch","waterway":"ditch","class":"drainage","osm_id":1313450065,"data_source":"OpenStreetMap","length_km":0.011},"geometry":{"type":"LineString","coordinates":[[121.5470789,18.0821402],[121.547154,18.0822091]]}},{"type":"Feature","properties":{"id":"LAS-RIV-0111","name":"ditch","waterway":"ditch","class":"drainage","osm_id":1313450066,"data_source":"OpenStreetMap","length_km":0.473},"geometry":{"type":"LineString","coordinates":[[121.5476891,18.0862835],[121.5477025,18.0862593],[121.5477106,18.0862019],[121.5475054,18.0848416],[121.547154,18.0827267],[121.5470602,18.0822384],[121.5470441,18.0821185],[121.5470789,18.0821402]]}},{"type":"Feature","properties":{"id":"LAS-RIV-0112","name":"ditch","waterway":"ditch","class":"drainage","osm_id":1313450067,"data_source":"OpenStreetMap","length_km":2.256},"geometry":{"type":"LineString","coordinates":[[121.5645066,18.0821581],[121.5646407,18.0821734],[121.564917,18.0822652],[121.5651047,18.0823544],[121.5652898,18.0824691],[121.5654105,18.0825074],[121.5656841,18.0825074],[121.5658611,18.0825074],[121.5660542,18.082538],[121.5662876,18.0825966],[121.5667248,18.0827063],[121.5675187,18.0830581],[121.5686747,18.0835171],[121.5687767,18.0835655],[121.5689859,18.0837491],[121.5706167,18.0850316],[121.5715742,18.0860999],[121.5717003,18.0861994],[121.5722474,18.0867118],[121.5723333,18.0867552],[121.573382,18.0870637],[121.5736073,18.0871912],[121.5738004,18.0872294],[121.5742591,18.0871886],[121.5746936,18.0871325],[121.5751335,18.0870484],[121.5752488,18.0870688],[121.5753829,18.0871198],[121.5755036,18.0871223],[121.5757021,18.0870866],[121.5759248,18.0869898],[121.576193,18.0869031],[121.5763459,18.0868801],[121.5765014,18.0868495],[121.5765551,18.0868291],[121.5767696,18.0867424],[121.5768984,18.0867373],[121.576995,18.0867526],[121.5771747,18.0867909],[121.5773141,18.0867756],[121.577687,18.0865742],[121.5779069,18.0864645],[121.5780652,18.086439],[121.5783656,18.0863957],[121.5784541,18.0864186],[121.5785238,18.0864441],[121.5786526,18.0864237],[121.5788618,18.0863396],[121.5790147,18.0863345],[121.5794653,18.0863421],[121.5797469,18.0863829],[121.5800124,18.0863906],[121.5802699,18.0862937],[121.5806964,18.0861127],[121.5809566,18.0859291],[121.5811148,18.0858246],[121.5812033,18.0858093],[121.581316,18.0858118],[121.5814796,18.085794],[121.5815735,18.0857455],[121.5817076,18.0856639],[121.5818283,18.0855798],[121.5819114,18.0855492],[121.5820107,18.0855262],[121.582177,18.0854548],[121.582472,18.0853019],[121.582751,18.0851591],[121.5829146,18.0851259],[121.5830299,18.0851259],[121.5831426,18.085103],[121.5835556,18.0849602]]}},{"type":"Feature","properties":{"id":"LAS-RIV-0113","name":"ditch","waterway":"ditch","class":"drainage","osm_id":1313450068,"data_source":"OpenStreetMap","length_km":0.012},"geometry":{"type":"LineString","coordinates":[[121.5643939,18.0821657],[121.5645066,18.0821581]]}},{"type":"Feature","properties":{"id":"LAS-RIV-0114","name":"ditch","waterway":"ditch","class":"drainage","osm_id":1313450069,"data_source":"OpenStreetMap","length_km":1.937},"geometry":{"type":"LineString","coordinates":[[121.547154,18.0822091],[121.5475081,18.0822486],[121.548003,18.082311],[121.5480418,18.0823161],[121.5481612,18.082311],[121.5482444,18.0823098],[121.5483168,18.0823289],[121.5484804,18.0823659],[121.5487204,18.0824398],[121.5489498,18.0824844],[121.5490168,18.0825163],[121.5491898,18.0826221],[121.5493105,18.0826604],[121.5495667,18.0826808],[121.5497008,18.0826757],[121.5497974,18.0826527],[121.5498617,18.0825915],[121.5499556,18.0825711],[121.5500522,18.0825941],[121.550189,18.0826527],[121.5502533,18.0826604],[121.5503418,18.0826425],[121.5506798,18.082566],[121.5509963,18.0824972],[121.5511197,18.0825278],[121.5511841,18.0826145],[121.5512055,18.0827216],[121.5512887,18.0827878],[121.5513691,18.0828592],[121.5514308,18.082923],[121.5515193,18.082974],[121.5516454,18.0830122],[121.5518251,18.0829893],[121.5521255,18.0829357],[121.5522408,18.0828924],[121.5523642,18.0828592],[121.5524608,18.0828618],[121.5525869,18.0829485],[121.5526727,18.0831805],[121.5527531,18.083206],[121.5528658,18.0831754],[121.5530106,18.0831703],[121.5530911,18.0832137],[121.5532494,18.0833003],[121.5533566,18.083336],[121.553421,18.0833182],[121.5537214,18.0831652],[121.5537456,18.0831066],[121.553759,18.0830352],[121.5538287,18.0829816],[121.5539172,18.0829408],[121.5539762,18.0829459],[121.5540621,18.0829332],[121.5540996,18.0828975],[121.5541881,18.0826961],[121.5542337,18.082668],[121.5543249,18.0826425],[121.5558887,18.0826706],[121.5563688,18.0826757],[121.5567845,18.0827012],[121.5583456,18.0828771],[121.5591609,18.0829153],[121.5593782,18.0829],[121.5598395,18.0827802],[121.560722,18.0825941],[121.5613684,18.0825227],[121.5624332,18.0824513],[121.563423,18.0823977],[121.5638334,18.0823059],[121.564182,18.0822371],[121.5643939,18.0821657]]}},{"type":"Feature","properties":{"id":"LAS-RIV-0124","name":"ditch","waterway":"ditch","class":"drainage","osm_id":1313450079,"data_source":"OpenStreetMap","length_km":0.12},"geometry":{"type":"LineString","coordinates":[[121.5194132,18.0747907],[121.5195876,18.0750684],[121.519884,18.0754955],[121.5199645,18.0757339]]}},{"type":"Feature","properties":{"id":"LAS-RIV-0125","name":"ditch","waterway":"ditch","class":"drainage","osm_id":1313450080,"data_source":"OpenStreetMap","length_km":0.015},"geometry":{"type":"LineString","coordinates":[[121.5199645,18.0757339],[121.5199739,18.0758716]]}},{"type":"Feature","properties":{"id":"LAS-RIV-0126","name":"ditch","waterway":"ditch","class":"drainage","osm_id":1313450081,"data_source":"OpenStreetMap","length_km":1.744},"geometry":{"type":"LineString","coordinates":[[121.5199739,18.0758716],[121.5200946,18.0773058],[121.5202072,18.0785348],[121.520226,18.0785909],[121.5202689,18.07867],[121.5203655,18.0787936],[121.5226856,18.0813026],[121.5228492,18.0814403],[121.5229364,18.0815066],[121.5230343,18.0815512],[121.5231201,18.0815767],[121.5234956,18.0816545],[121.5273875,18.0824551],[121.5277825,18.0825303],[121.5293958,18.0829121],[121.5321082,18.0836388],[121.5322074,18.0836796]]}},{"type":"Feature","properties":{"id":"LAS-RIV-0127","name":"ditch","waterway":"ditch","class":"drainage","osm_id":1313450082,"data_source":"OpenStreetMap","length_km":0.008},"geometry":{"type":"LineString","coordinates":[[121.5465975,18.0723693],[121.5466744,18.0723466]]}},{"type":"Feature","properties":{"id":"LAS-RIV-0128","name":"ditch","waterway":"ditch","class":"drainage","osm_id":1313450083,"data_source":"OpenStreetMap","length_km":0.288},"geometry":{"type":"LineString","coordinates":[[121.5439743,18.0730706],[121.5443203,18.0730247],[121.544854,18.0729074],[121.5465975,18.0723693]]}}]}