{"type": "FeatureCollection", "features": [{"type": "Feature", "properties": {"id": "FLOW-00001", "direction": "N", "accumulation": 25.0, "elevation_m": 72.83}, "geometry": {"type": "LineString", "coordinates": [[121.35764999999999, 18.142349999999997], [121.35764999999999, 18.142979999999998]]}}, {"type": "Feature", "properties": {"id": "FLOW-00002", "direction": "NE", "accumulation": 5.0, "elevation_m": 68.86}, "geometry": {"type": "LineString", "coordinates": [[121.37204999999999, 18.142349999999997], [121.37249099999998, 18.142790999999995]]}}, {"type": "Feature", "properties": {"id": "FLOW-00003", "direction": "NE", "accumulation": 5.0, "elevation_m": 65.21}, "geometry": {"type": "LineString", "coordinates": [[121.38645, 18.142349999999997], [121.38689099999999, 18.142790999999995]]}}, {"type": "Feature", "properties": {"id": "FLOW-00004", "direction": "NE", "accumulation": 5.0, "elevation_m": 61.86}, "geometry": {"type": "LineString", "coordinates": [[121.40084999999999, 18.142349999999997], [121.40129099999999, 18.142790999999995]]}}, {"type": "Feature", "properties": {"id": "FLOW-00005", "direction": "NE", "accumulation": 5.0, "elevation_m": 58.69}, "geometry": {"type": "LineString", "coordinates": [[121.41525, 18.142349999999997], [121.415691, 18.142790999999995]]}}, {"type": "Feature", "properties": {"id": "FLOW-00006", "direction": "NE", "accumulation": 5.0, "elevation_m": 55.53}, "geometry": {"type": "LineString", "coordinates": [[121.42965, 18.142349999999997], [121.43009099999999, 18.142790999999995]]}}, {"type": "Feature", "properties": {"id": "FLOW-00007", "direction": "NW", "accumulation": 5.0, "elevation_m": 52.29}, "geometry": {"type": "LineString", "coordinates": [[121.43684999999999, 18.142349999999997], [121.436409, 18.142790999999995]]}}, {"type": "Feature", "properties": {"id": "FLOW-00008", "direction": "NE", "accumulation": 5.0, "elevation_m": 48.22}, "geometry": {"type": "LineString", "coordinates": [[121.45124999999999, 18.142349999999997], [121.45169099999998, 18.142790999999995]]}}, {"type": "Feature", "properties": {"id": "FLOW-00009", "direction": "NE", "accumulation": 5.0, "elevation_m": 44.48}, "geometry": {"type": "LineString", "coordinates": [[121.46565, 18.142349999999997], [121.46609099999999, 18.142790999999995]]}}, {"type": "Feature", "properties": {"id": "FLOW-00010", "direction": "NE", "accumulation": 5.0, "elevation_m": 41.07}, "geometry": {"type": "LineString", "coordinates": [[121.48004999999999, 18.142349999999997], [121.48049099999999, 18.142790999999995]]}}, {"type": "Feature", "properties": {"id": "FLOW-00011", "direction": "NE", "accumulation": 5.0, "elevation_m": 37.92}, "geometry": {"type": "LineString", "coordinates": [[121.49445, 18.142349999999997], [121.494891, 18.142790999999995]]}}, {"type": "Feature", "properties": {"id": "FLOW-00012", "direction": "NE", "accumulation": 5.0, "elevation_m": 34.91}, "geometry": {"type": "LineString", "coordinates": [[121.50885, 18.142349999999997], [121.50929099999999, 18.142790999999995]]}}, {"type": "Feature", "properties": {"id": "FLOW-00013", "direction": "NW", "accumulation": 5.0, "elevation_m": 32.29}, "geometry": {"type": "LineString", "coordinates": [[121.51604999999999, 18.142349999999997], [121.515609, 18.142790999999995]]}}, {"type": "Feature", "properties": {"id": "FLOW-00014", "direction": "N", "accumulation": 25.0, "elevation_m": 28.28}, "geometry": {"type": "LineString", "coordinates": [[121.53044999999999, 18.142349999999997], [121.53044999999999, 18.142979999999998]]}}, {"type": "Feature", "properties": {"id": "FLOW-00015", "direction": "NE", "accumulation": 5.0, "elevation_m": 24.61}, "geometry": {"type": "LineString", "coordinates": [[121.54485, 18.142349999999997], [121.54529099999999, 18.142790999999995]]}}, {"type": "Feature", "properties": {"id": "FLOW-00016", "direction": "NE", "accumulation": 5.0, "elevation_m": 21.35}, "geometry": {"type": "LineString", "coordinates": [[121.55924999999999, 18.142349999999997], [121.55969099999999, 18.142790999999995]]}}, {"type": "Feature", "properties": {"id": "FLOW-00017", "direction": "NE", "accumulation": 5.0, "elevation_m": 18.5}, "geometry": {"type": "LineString", "coordinates": [[121.57365, 18.142349999999997], [121.574091, 18.142790999999995]]}}, {"type": "Feature", "properties": {"id": "FLOW-00018", "direction": "NE", "accumulation": 5.0, "elevation_m": 15.97}, "geometry": {"type": "LineString", "coordinates": [[121.58805, 18.142349999999997], [121.58849099999999, 18.142790999999995]]}}, {"type": "Feature", "properties": {"id": "FLOW-00019", "direction": "NW", "accumulation": 5.0, "elevation_m": 14.26}, "geometry": {"type": "LineString", "coordinates": [[121.59525, 18.142349999999997], [121.594809, 18.142790999999995]]}}, {"type": "Feature", "properties": {"id": "FLOW-00020", "direction": "NW", "accumulation": 5.0, "elevation_m": 15.91}, "geometry": {"type": "LineString", "coordinates": [[121.60964999999999, 18.142349999999997], [121.60920899999999, 18.142790999999995]]}}, {"type": "Feature", "properties": {"id": "FLOW-00021", "direction": "NW", "accumulation": 5.0, "elevation_m": 18.63}, "geometry": {"type": "LineString", "coordinates": [[121.62405, 18.142349999999997], [121.623609, 18.142790999999995]]}}, {"type": "Feature", "properties": {"id": "FLOW-00022", "direction": "NW", "accumulation": 5.0, "elevation_m": 21.82}, "geometry": {"type": "LineString", "coordinates": [[121.63844999999999, 18.142349999999997], [121.638009, 18.142790999999995]]}}, {"type": "Feature", "properties": {"id": "FLOW-00023", "direction": "NE", "accumulation": 5.0, "elevation_m": 25.45}, "geometry": {"type": "LineString", "coordinates": [[121.65285, 18.142349999999997], [121.653291, 18.142790999999995]]}}, {"type": "Feature", "properties": {"id": "FLOW-00024", "direction": "NW", "accumulation": 5.0, "elevation_m": 28.69}, "geometry": {"type": "LineString", "coordinates": [[121.66005, 18.142349999999997], [121.659609, 18.142790999999995]]}}, {"type": "Feature", "properties": {"id": "FLOW-00025", "direction": "NW", "accumulation": 5.0, "elevation_m": 31.59}, "geometry": {"type": "LineString", "coordinates": [[121.67445, 18.142349999999997], [121.674009, 18.142790999999995]]}}, {"type": "Feature", "properties": {"id": "FLOW-00026", "direction": "S", "accumulation": 16.0, "elevation_m": 73.29}, "geometry": {"type": "LineString", "coordinates": [[121.35764999999999, 18.13515], [121.35764999999999, 18.13452]]}}, {"type": "Feature", "properties": {"id": "FLOW-00027", "direction": "S", "accumulation": 16.0, "elevation_m": 28.54}, "geometry": {"type": "LineString", "coordinates": [[121.53044999999999, 18.13515], [121.53044999999999, 18.13452]]}}, {"type": "Feature", "properties": {"id": "FLOW-00028", "direction": "N", "accumulation": 61.0, "elevation_m": 72.28}, "geometry": {"type": "LineString", "coordinates": [[121.35764999999999, 18.12795], [121.35764999999999, 18.12858]]}}, {"type": "Feature", "properties": {"id": "FLOW-00029", "direction": "NE", "accumulation": 8.0, "elevation_m": 68.29}, "geometry": {"type": "LineString", "coordinates": [[121.37204999999999, 18.12795], [121.37249099999998, 18.128390999999997]]}}, {"type": "Feature", "properties": {"id": "FLOW-00030", "direction": "NE", "accumulation": 8.0, "elevation_m": 64.63}, "geometry": {"type": "LineString", "coordinates": [[121.38645, 18.12795], [121.38689099999999, 18.128390999999997]]}}, {"type": "Feature", "properties": {"id": "FLOW-00031", "direction": "NE", "accumulation": 8.0, "elevation_m": 61.26}, "geometry": {"type": "LineString", "coordinates": [[121.40084999999999, 18.12795], [121.40129099999999, 18.128390999999997]]}}, {"type": "Feature", "properties": {"id": "FLOW-00032", "direction": "NE", "accumulation": 7.0, "elevation_m": 58.06}, "geometry": {"type": "LineString", "coordinates": [[121.41525, 18.12795], [121.415691, 18.128390999999997]]}}, {"type": "Feature", "properties": {"id": "FLOW-00033", "direction": "NE", "accumulation": 5.0, "elevation_m": 54.89}, "geometry": {"type": "LineString", "coordinates": [[121.42965, 18.12795], [121.43009099999999, 18.128390999999997]]}}, {"type": "Feature", "properties": {"id": "FLOW-00034", "direction": "NW", "accumulation": 5.0, "elevation_m": 51.63}, "geometry": {"type": "LineString", "coordinates": [[121.43684999999999, 18.12795], [121.436409, 18.128390999999997]]}}, {"type": "Feature", "properties": {"id": "FLOW-00035", "direction": "NE", "accumulation": 8.0, "elevation_m": 47.53}, "geometry": {"type": "LineString", "coordinates": [[121.45124999999999, 18.12795], [121.45169099999998, 18.128390999999997]]}}, {"type": "Feature", "properties": {"id": "FLOW-00036", "direction": "NE", "accumulation": 8.0, "elevation_m": 43.75}, "geometry": {"type": "LineString", "coordinates": [[121.46565, 18.12795], [121.46609099999999, 18.128390999999997]]}}, {"type": "Feature", "properties": {"id": "FLOW-00037", "direction": "NE", "accumulation": 8.0, "elevation_m": 40.3}, "geometry": {"type": "LineString", "coordinates": [[121.48004999999999, 18.12795], [121.48049099999999, 18.128390999999997]]}}, {"type": "Feature", "properties": {"id": "FLOW-00038", "direction": "NE", "accumulation": 7.0, "elevation_m": 37.11}, "geometry": {"type": "LineString", "coordinates": [[121.49445, 18.12795], [121.494891, 18.128390999999997]]}}, {"type": "Feature", "properties": {"id": "FLOW-00039", "direction": "NE", "accumulation": 6.0, "elevation_m": 34.05}, "geometry": {"type": "LineString", "coordinates": [[121.50885, 18.12795], [121.50929099999999, 18.128390999999997]]}}, {"type": "Feature", "properties": {"id": "FLOW-00040", "direction": "NW", "accumulation": 5.0, "elevation_m": 31.4}, "geometry": {"type": "LineString", "coordinates": [[121.51604999999999, 18.12795], [121.515609, 18.128390999999997]]}}, {"type": "Feature", "properties": {"id": "FLOW-00041", "direction": "N", "accumulation": 48.0, "elevation_m": 27.32}, "geometry": {"type": "LineString", "coordinates": [[121.53044999999999, 18.12795], [121.53044999999999, 18.12858]]}}, {"type": "Feature", "properties": {"id": "FLOW-00042", "direction": "NE", "accumulation": 7.0, "elevation_m": 23.58}, "geometry": {"type": "LineString", "coordinates": [[121.54485, 18.12795], [121.54529099999999, 18.128390999999997]]}}, {"type": "Feature", "properties": {"id": "FLOW-00043", "direction": "NE", "accumulation": 7.0, "elevation_m": 20.25}, "geometry": {"type": "LineString", "coordinates": [[121.55924999999999, 18.12795], [121.55969099999999, 18.128390999999997]]}}, {"type": "Feature", "properties": {"id": "FLOW-00044", "direction": "NE", "accumulation": 7.0, "elevation_m": 17.33}, "geometry": {"type": "LineString", "coordinates": [[121.57365, 18.12795], [121.574091, 18.128390999999997]]}}, {"type": "Feature", "properties": {"id": "FLOW-00045", "direction": "NE", "accumulation": 6.0, "elevation_m": 14.74}, "geometry": {"type": "LineString", "coordinates": [[121.58805, 18.12795], [121.58849099999999, 18.128390999999997]]}}, {"type": "Feature", "properties": {"id": "FLOW-00046", "direction": "NW", "accumulation": 7.0, "elevation_m": 13.02}, "geometry": {"type": "LineString", "coordinates": [[121.59525, 18.12795], [121.594809, 18.128390999999997]]}}, {"type": "Feature", "properties": {"id": "FLOW-00047", "direction": "NW", "accumulation": 7.0, "elevation_m": 14.68}, "geometry": {"type": "LineString", "coordinates": [[121.60964999999999, 18.12795], [121.60920899999999, 18.128390999999997]]}}, {"type": "Feature", "properties": {"id": "FLOW-00048", "direction": "NW", "accumulation": 7.0, "elevation_m": 17.44}, "geometry": {"type": "LineString", "coordinates": [[121.62405, 18.12795], [121.623609, 18.128390999999997]]}}, {"type": "Feature", "properties": {"id": "FLOW-00049", "direction": "NW", "accumulation": 7.0, "elevation_m": 20.68}, "geometry": {"type": "LineString", "coordinates": [[121.63844999999999, 18.12795], [121.638009, 18.128390999999997]]}}, {"type": "Feature", "properties": {"id": "FLOW-00050", "direction": "NE", "accumulation": 6.0, "elevation_m": 24.39}, "geometry": {"type": "LineString", "coordinates": [[121.65285, 18.12795], [121.653291, 18.128390999999997]]}}, {"type": "Feature", "properties": {"id": "FLOW-00051", "direction": "NW", "accumulation": 5.0, "elevation_m": 27.67}, "geometry": {"type": "LineString", "coordinates": [[121.66005, 18.12795], [121.659609, 18.128390999999997]]}}, {"type": "Feature", "properties": {"id": "FLOW-00052", "direction": "NW", "accumulation": 6.0, "elevation_m": 30.64}, "geometry": {"type": "LineString", "coordinates": [[121.67445, 18.12795], [121.674009, 18.128390999999997]]}}, {"type": "Feature", "properties": {"id": "FLOW-00053", "direction": "SE", "accumulation": 252.0, "elevation_m": 72.2}, "geometry": {"type": "LineString", "coordinates": [[121.35764999999999, 18.11355], [121.35809099999999, 18.113109]]}}, {"type": "Feature", "properties": {"id": "FLOW-00054", "direction": "E", "accumulation": 9.0, "elevation_m": 72.46}, "geometry": {"type": "LineString", "coordinates": [[121.36484999999999, 18.11355], [121.36547999999999, 18.11355]]}}, {"type": "Feature", "properties": {"id": "FLOW-00055", "direction": "E", "accumulation": 117.0, "elevation_m": 68.2}, "geometry": {"type": "LineString", "coordinates": [[121.37204999999999, 18.11355], [121.37267999999999, 18.11355]]}}, {"type": "Feature", "properties": {"id": "FLOW-00056", "direction": "E", "accumulation": 99.0, "elevation_m": 64.53}, "geometry": {"type": "LineString", "coordinates": [[121.38645, 18.11355], [121.38708, 18.11355]]}}, {"type": "Feature", "properties": {"id": "FLOW-00057", "direction": "E", "accumulation": 64.0, "elevation_m": 61.14}, "geometry": {"type": "LineString", "coordinates": [[121.40084999999999, 18.11355], [121.40147999999999, 18.11355]]}}, {"type": "Feature", "properties": {"id": "FLOW-00058", "direction": "E", "accumulation": 49.0, "elevation_m": 57.92}, "geometry": {"type": "LineString", "coordinates": [[121.41525, 18.11355], [121.41588, 18.11355]]}}, {"type": "Feature", "properties": {"id": "FLOW-00059", "direction": "W", "accumulation": 16.0, "elevation_m": 55.8}, "geometry": {"type": "LineString", "coordinates": [[121.42245, 18.11355], [121.42182, 18.11355]]}}, {"type": "Feature", "properties": {"id": "FLOW-00060", "direction": "E", "accumulation": 25.0, "elevation_m": 54.73}, "geometry": {"type": "LineString", "coordinates": [[121.42965, 18.11355], [121.43028, 18.11355]]}}, {"type": "Feature", "properties": {"id": "FLOW-00061", "direction": "W", "accumulation": 25.0, "elevation_m": 51.46}, "geometry": {"type": "LineString", "coordinates": [[121.43684999999999, 18.11355], [121.43621999999999, 18.11355]]}}, {"type": "Feature", "properties": {"id": "FLOW-00062", "direction": "E", "accumulation": 16.0, "elevation_m": 51.39}, "geometry": {"type": "LineString", "coordinates": [[121.44404999999999, 18.11355], [121.44467999999999, 18.11355]]}}, {"type": "Feature", "properties": {"id": "FLOW-00063", "direction": "E", "accumulation": 135.0, "elevation_m": 47.33}, "geometry": {"type": "LineString", "coordinates": [[121.45124999999999, 18.11355], [121.45187999999999, 18.11355]]}}, {"type": "Feature", "properties": {"id": "FLOW-00064", "direction": "E", "accumulation": 99.0, "elevation_m": 43.52}, "geometry": {"type": "LineString", "coordinates": [[121.46565, 18.11355], [121.46628, 18.11355]]}}, {"type": "Feature", "properties": {"id": "FLOW-00065", "direction": "E", "accumulation": 81.0, "elevation_m": 40.04}, "geometry": {"type": "LineString", "coordinates": [[121.48004999999999, 18.11355], [121.48067999999999, 18.11355]]}}, {"type": "Feature", "properties": {"id": "FLOW-00066", "direction": "E", "accumulation": 49.0, "elevation_m": 36.81}, "geometry": {"type": "LineString", "coordinates": [[121.49445, 18.11355], [121.49508, 18.11355]]}}, {"type": "Feature", "properties": {"id": "FLOW-00067", "direction": "W", "accumulation": 9.0, "elevation_m": 35.34}, "geometry": {"type": "LineString", "coordinates": [[121.50165, 18.11355], [121.50102, 18.11355]]}}, {"type": "Feature", "properties": {"id": "FLOW-00068", "direction": "E", "accumulation": 36.0, "elevation_m": 33.69}, "geometry": {"type": "LineString", "coordinates": [[121.50885, 18.11355], [121.50948, 18.11355]]}}, {"type": "Feature", "properties": {"id": "FLOW-00069", "direction": "W", "accumulation": 25.0, "elevation_m": 31.01}, "geometry": {"type": "LineString", "coordinates": [[121.51604999999999, 18.11355], [121.51541999999999, 18.11355]]}}, {"type": "Feature", "properties": {"id": "FLOW-00070", "direction": "E", "accumulation": 16.0, "elevation_m": 30.53}, "geometry": {"type": "LineString", "coordinates": [[121.52324999999999, 18.11355], [121.52387999999999, 18.11355]]}}, {"type": "Feature", "properties": {"id": "FLOW-00071", "direction": "SE", "accumulation": 323.0, "elevation_m": 26.87}, "geometry": {"type": "LineString", "coordinates": [[121.53044999999999, 18.11355], [121.53089099999998, 18.113109]]}}, {"type": "Feature", "properties": {"id": "FLOW-00072", "direction": "E", "accumulation": 9.0, "elevation_m": 27.2}, "geometry": {"type": "LineString", "coordinates": [[121.53765, 18.11355], [121.53828, 18.11355]]}}, {"type": "Feature", "properties": {"id": "FLOW-00073", "direction": "E", "accumulation": 119.0, "elevation_m": 23.05}, "geometry": {"type": "LineString", "coordinates": [[121.54485, 18.11355], [121.54548, 18.11355]]}}, {"type": "Feature", "properties": {"id": "FLOW-00074", "direction": "E", "accumulation": 81.0, "elevation_m": 19.63}, "geometry": {"type": "LineString", "coordinates": [[121.55924999999999, 18.11355], [121.55987999999999, 18.11355]]}}, {"type": "Feature", "properties": {"id": "FLOW-00075", "direction": "SE", "accumulation": 64.0, "elevation_m": 16.61}, "geometry": {"type": "LineString", "coordinates": [[121.57365, 18.11355], [121.574091, 18.113109]]}}, {"type": "Feature", "properties": {"id": "FLOW-00076", "direction": "SE", "accumulation": 6.0, "elevation_m": 13.95}, "geometry": {"type": "LineString", "coordinates": [[121.58805, 18.11355], [121.58849099999999, 18.113109]]}}, {"type": "Feature", "properties": {"id": "FLOW-00077", "direction": "SW", "accumulation": 7.0, "elevation_m": 12.21}, "geometry": {"type": "LineString", "coordinates": [[121.59525, 18.11355], [121.594809, 18.113109]]}}, {"type": "Feature", "properties": {"id": "FLOW-00078", "direction": "SW", "accumulation": 8.0, "elevation_m": 13.87}, "geometry": {"type": "LineString", "coordinates": [[121.60964999999999, 18.11355], [121.60920899999999, 18.113109]]}}, {"type": "Feature", "properties": {"id": "FLOW-00079", "direction": "SW", "accumulation": 100.0, "elevation_m": 16.68}, "geometry": {"type": "LineString", "coordinates": [[121.62405, 18.11355], [121.623609, 18.113109]]}}, {"type": "Feature", "properties": {"id": "FLOW-00080", "direction": "W", "accumulation": 119.0, "elevation_m": 20.02}, "geometry": {"type": "LineString", "coordinates": [[121.63844999999999, 18.11355], [121.63781999999999, 18.11355]]}}, {"type": "Feature", "properties": {"id": "FLOW-00081", "direction": "W", "accumulation": 9.0, "elevation_m": 24.0}, "geometry": {"type": "LineString", "coordinates": [[121.64564999999999, 18.11355], [121.64501999999999, 18.11355]]}}, {"type": "Feature", "properties": {"id": "FLOW-00082", "direction": "SE", "accumulation": 204.0, "elevation_m": 23.81}, "geometry": {"type": "LineString", "coordinates": [[121.65285, 18.11355], [121.653291, 18.113109]]}}, {"type": "Feature", "properties": {"id": "FLOW-00083", "direction": "W", "accumulation": 25.0, "elevation_m": 27.14}, "geometry": {"type": "LineString", "coordinates": [[121.66005, 18.11355], [121.65942, 18.11355]]}}, {"type": "Feature", "properties": {"id": "FLOW-00084", "direction": "E", "accumulation": 16.0, "elevation_m": 27.94}, "geometry": {"type": "LineString", "coordinates": [[121.66725, 18.11355], [121.66788, 18.11355]]}}, {"type": "Feature", "properties": {"id": "FLOW-00085", "direction": "W", "accumulation": 36.0, "elevation_m": 30.19}, "geometry": {"type": "LineString", "coordinates": [[121.67445, 18.11355], [121.67381999999999, 18.11355]]}}, {"type": "Feature", "properties": {"id": "FLOW-00086", "direction": "S", "accumulation": 48.0, "elevation_m": 72.74}, "geometry": {"type": "LineString", "coordinates": [[121.35764999999999, 18.099149999999998], [121.35764999999999, 18.098519999999997]]}}, {"type": "Feature", "properties": {"id": "FLOW-00087", "direction": "SE", "accumulation": 7.0, "elevation_m": 68.73}, "geometry": {"type": "LineString", "coordinates": [[121.37204999999999, 18.099149999999998], [121.37249099999998, 18.098709]]}}, {"type": "Feature", "properties": {"id": "FLOW-00088", "direction": "SE", "accumulation": 7.0, "elevation_m": 65.04}, "geometry": {"type": "LineString", "coordinates": [[121.38645, 18.099149999999998], [121.38689099999999, 18.098709]]}}, {"type": "Feature", "properties": {"id": "FLOW-00089", "direction": "SE", "accumulation": 7.0, "elevation_m": 61.64}, "geometry": {"type": "LineString", "coordinates": [[121.40084999999999, 18.099149999999998], [121.40129099999999, 18.098709]]}}, {"type": "Feature", "properties": {"id": "FLOW-00090", "direction": "SE", "accumulation": 7.0, "elevation_m": 58.41}, "geometry": {"type": "LineString", "coordinates": [[121.41525, 18.099149999999998], [121.415691, 18.098709]]}}, {"type": "Feature", "properties": {"id": "FLOW-00091", "direction": "SE", "accumulation": 5.0, "elevation_m": 55.2}, "geometry": {"type": "LineString", "coordinates": [[121.42965, 18.099149999999998], [121.43009099999999, 18.098709]]}}, {"type": "Feature", "properties": {"id": "FLOW-00092", "direction": "SW", "accumulation": 5.0, "elevation_m": 51.92}, "geometry": {"type": "LineString", "coordinates": [[121.43684999999999, 18.099149999999998], [121.436409, 18.098709]]}}, {"type": "Feature", "properties": {"id": "FLOW-00093", "direction": "SE", "accumulation": 7.0, "elevation_m": 47.77}, "geometry": {"type": "LineString", "coordinates": [[121.45124999999999, 18.099149999999998], [121.45169099999998, 18.098709]]}}, {"type": "Feature", "properties": {"id": "FLOW-00094", "direction": "SE", "accumulation": 7.0, "elevation_m": 43.94}, "geometry": {"type": "LineString", "coordinates": [[121.46565, 18.099149999999998], [121.46609099999999, 18.098709]]}}, {"type": "Feature", "properties": {"id": "FLOW-00095", "direction": "SE", "accumulation": 7.0, "elevation_m": 40.42}, "geometry": {"type": "LineString", "coordinates": [[121.48004999999999, 18.099149999999998], [121.48049099999999, 18.098709]]}}, {"type": "Feature", "properties": {"id": "FLOW-00096", "direction": "SE", "accumulation": 7.0, "elevation_m": 37.15}, "geometry": {"type": "LineString", "coordinates": [[121.49445, 18.099149999999998], [121.494891, 18.098709]]}}, {"type": "Feature", "properties": {"id": "FLOW-00097", "direction": "SE", "accumulation": 6.0, "elevation_m": 33.99}, "geometry": {"type": "LineString", "coordinates": [[121.50885, 18.099149999999998], [121.50929099999999, 18.098709]]}}, {"type": "Feature", "properties": {"id": "FLOW-00098", "direction": "SW", "accumulation": 5.0, "elevation_m": 31.29}, "geometry": {"type": "LineString", "coordinates": [[121.51604999999999, 18.099149999999998], [121.515609, 18.098709]]}}, {"type": "Feature", "properties": {"id": "FLOW-00099", "direction": "S", "accumulation": 48.0, "elevation_m": 27.08}, "geometry": {"type": "LineString", "coordinates": [[121.53044999999999, 18.099149999999998], [121.53044999999999, 18.098519999999997]]}}, {"type": "Feature", "properties": {"id": "FLOW-00100", "direction": "SE", "accumulation": 7.0, "elevation_m": 23.18}, "geometry": {"type": "LineString", "coordinates": [[121.54485, 18.099149999999998], [121.54529099999999, 18.098709]]}}, {"type": "Feature", "properties": {"id": "FLOW-00101", "direction": "SE", "accumulation": 7.0, "elevation_m": 19.65}, "geometry": {"type": "LineString", "coordinates": [[121.55924999999999, 18.099149999999998], [121.55969099999999, 18.098709]]}}, {"type": "Feature", "properties": {"id": "FLOW-00102", "direction": "SE", "accumulation": 7.0, "elevation_m": 16.52}, "geometry": {"type": "LineString", "coordinates": [[121.57365, 18.099149999999998], [121.574091, 18.098709]]}}, {"type": "Feature", "properties": {"id": "FLOW-00103", "direction": "SE", "accumulation": 6.0, "elevation_m": 13.74}, "geometry": {"type": "LineString", "coordinates": [[121.58805, 18.099149999999998], [121.58849099999999, 18.098709]]}}, {"type": "Feature", "properties": {"id": "FLOW-00104", "direction": "SW", "accumulation": 7.0, "elevation_m": 11.96}, "geometry": {"type": "LineString", "coordinates": [[121.59525, 18.099149999999998], [121.594809, 18.098709]]}}, {"type": "Feature", "properties": {"id": "FLOW-00105", "direction": "SW", "accumulation": 7.0, "elevation_m": 13.62}, "geometry": {"type": "LineString", "coordinates": [[121.60964999999999, 18.099149999999998], [121.60920899999999, 18.098709]]}}, {"type": "Feature", "properties": {"id": "FLOW-00106", "direction": "SW", "accumulation": 7.0, "elevation_m": 16.53}, "geometry": {"type": "LineString", "coordinates": [[121.62405, 18.099149999999998], [121.623609, 18.098709]]}}, {"type": "Feature", "properties": {"id": "FLOW-00107", "direction": "SW", "accumulation": 7.0, "elevation_m": 19.99}, "geometry": {"type": "LineString", "coordinates": [[121.63844999999999, 18.099149999999998], [121.638009, 18.098709]]}}, {"type": "Feature", "properties": {"id": "FLOW-00108", "direction": "S", "accumulation": 48.0, "elevation_m": 23.9}, "geometry": {"type": "LineString", "coordinates": [[121.65285, 18.099149999999998], [121.65285, 18.098519999999997]]}}, {"type": "Feature", "properties": {"id": "FLOW-00109", "direction": "SW", "accumulation": 5.0, "elevation_m": 27.28}, "geometry": {"type": "LineString", "coordinates": [[121.66005, 18.099149999999998], [121.659609, 18.098709]]}}, {"type": "Feature", "properties": {"id": "FLOW-00110", "direction": "SW", "accumulation": 6.0, "elevation_m": 30.41}, "geometry": {"type": "LineString", "coordinates": [[121.67445, 18.099149999999998], [121.674009, 18.098709]]}}, {"type": "Feature", "properties": {"id": "FLOW-00111", "direction": "N", "accumulation": 22.0, "elevation_m": 73.65}, "geometry": {"type": "LineString", "coordinates": [[121.35764999999999, 18.091949999999997], [121.35764999999999, 18.092579999999998]]}}, {"type": "Feature", "properties": {"id": "FLOW-00112", "direction": "NE", "accumulation": 5.0, "elevation_m": 69.63}, "geometry": {"type": "LineString", "coordinates": [[121.37204999999999, 18.091949999999997], [121.37249099999998, 18.092390999999996]]}}, {"type": "Feature", "properties": {"id": "FLOW-00113", "direction": "NE", "accumulation": 5.0, "elevation_m": 65.94}, "geometry": {"type": "LineString", "coordinates": [[121.38645, 18.091949999999997], [121.38689099999999, 18.092390999999996]]}}, {"type": "Feature", "properties": {"id": "FLOW-00114", "direction": "NE", "accumulation": 5.0, "elevation_m": 62.54}, "geometry": {"type": "LineString", "coordinates": [[121.40084999999999, 18.091949999999997], [121.40129099999999, 18.092390999999996]]}}, {"type": "Feature", "properties": {"id": "FLOW-00115", "direction": "NE", "accumulation": 5.0, "elevation_m": 56.08}, "geometry": {"type": "LineString", "coordinates": [[121.42965, 18.091949999999997], [121.43009099999999, 18.092390999999996]]}}, {"type": "Feature", "properties": {"id": "FLOW-00116", "direction": "N", "accumulation": 16.0, "elevation_m": 27.86}, "geometry": {"type": "LineString", "coordinates": [[121.53044999999999, 18.091949999999997], [121.53044999999999, 18.092579999999998]]}}, {"type": "Feature", "properties": {"id": "FLOW-00117", "direction": "N", "accumulation": 16.0, "elevation_m": 24.62}, "geometry": {"type": "LineString", "coordinates": [[121.65285, 18.091949999999997], [121.65285, 18.092579999999998]]}}, {"type": "Feature", "properties": {"id": "FLOW-00118", "direction": "S", "accumulation": 19.0, "elevation_m": 73.67}, "geometry": {"type": "LineString", "coordinates": [[121.35764999999999, 18.08475], [121.35764999999999, 18.08412]]}}, {"type": "Feature", "properties": {"id": "FLOW-00119", "direction": "SE", "accumulation": 5.0, "elevation_m": 59.31}, "geometry": {"type": "LineString", "coordinates": [[121.41525, 18.08475], [121.415691, 18.084309]]}}, {"type": "Feature", "properties": {"id": "FLOW-00120", "direction": "SW", "accumulation": 5.0, "elevation_m": 52.8}, "geometry": {"type": "LineString", "coordinates": [[121.43684999999999, 18.08475], [121.436409, 18.084309]]}}, {"type": "Feature", "properties": {"id": "FLOW-00121", "direction": "SE", "accumulation": 5.0, "elevation_m": 48.64}, "geometry": {"type": "LineString", "coordinates": [[121.45124999999999, 18.08475], [121.45169099999998, 18.084309]]}}, {"type": "Feature", "properties": {"id": "FLOW-00122", "direction": "SE", "accumulation": 5.0, "elevation_m": 44.79}, "geometry": {"type": "LineString", "coordinates": [[121.46565, 18.08475], [121.46609099999999, 18.084309]]}}, {"type": "Feature", "properties": {"id": "FLOW-00123", "direction": "SE", "accumulation": 5.0, "elevation_m": 41.26}, "geometry": {"type": "LineString", "coordinates": [[121.48004999999999, 18.08475], [121.48049099999999, 18.084309]]}}, {"type": "Feature", "properties": {"id": "FLOW-00124", "direction": "SE", "accumulation": 5.0, "elevation_m": 37.96}, "geometry": {"type": "LineString", "coordinates": [[121.49445, 18.08475], [121.494891, 18.084309]]}}, {"type": "Feature", "properties": {"id": "FLOW-00125", "direction": "SE", "accumulation": 5.0, "elevation_m": 34.76}, "geometry": {"type": "LineString", "coordinates": [[121.50885, 18.08475], [121.50929099999999, 18.084309]]}}, {"type": "Feature", "properties": {"id": "FLOW-00126", "direction": "SW", "accumulation": 5.0, "elevation_m": 32.04}, "geometry": {"type": "LineString", "coordinates": [[121.51604999999999, 18.08475], [121.515609, 18.084309]]}}, {"type": "Feature", "properties": {"id": "FLOW-00127", "direction": "S", "accumulation": 25.0, "elevation_m": 27.78}, "geometry": {"type": "LineString", "coordinates": [[121.53044999999999, 18.08475], [121.53044999999999, 18.08412]]}}, {"type": "Feature", "properties": {"id": "FLOW-00128", "direction": "SE", "accumulation": 5.0, "elevation_m": 23.8}, "geometry": {"type": "LineString", "coordinates": [[121.54485, 18.08475], [121.54529099999999, 18.084309]]}}, {"type": "Feature", "properties": {"id": "FLOW-00129", "direction": "SE", "accumulation": 5.0, "elevation_m": 20.18}, "geometry": {"type": "LineString", "coordinates": [[121.55924999999999, 18.08475], [121.55969099999999, 18.084309]]}}, {"type": "Feature", "properties": {"id": "FLOW-00130", "direction": "SE", "accumulation": 5.0, "elevation_m": 16.89}, "geometry": {"type": "LineString", "coordinates": [[121.57365, 18.08475], [121.574091, 18.084309]]}}, {"type": "Feature", "properties": {"id": "FLOW-00131", "direction": "SE", "accumulation": 5.0, "elevation_m": 13.93}, "geometry": {"type": "LineString", "coordinates": [[121.58805, 18.08475], [121.58849099999999, 18.084309]]}}, {"type": "Feature", "properties": {"id": "FLOW-00132", "direction": "SW", "accumulation": 5.0, "elevation_m": 12.08}, "geometry": {"type": "LineString", "coordinates": [[121.59525, 18.08475], [121.594809, 18.084309]]}}, {"type": "Feature", "properties": {"id": "FLOW-00133", "direction": "SW", "accumulation": 5.0, "elevation_m": 13.75}, "geometry": {"type": "LineString", "coordinates": [[121.60964999999999, 18.08475], [121.60920899999999, 18.084309]]}}, {"type": "Feature", "properties": {"id": "FLOW-00134", "direction": "SW", "accumulation": 5.0, "elevation_m": 16.83}, "geometry": {"type": "LineString", "coordinates": [[121.62405, 18.08475], [121.623609, 18.084309]]}}, {"type": "Feature", "properties": {"id": "FLOW-00135", "direction": "SW", "accumulation": 5.0, "elevation_m": 20.46}, "geometry": {"type": "LineString", "coordinates": [[121.63844999999999, 18.08475], [121.638009, 18.084309]]}}, {"type": "Feature", "properties": {"id": "FLOW-00136", "direction": "S", "accumulation": 25.0, "elevation_m": 24.49}, "geometry": {"type": "LineString", "coordinates": [[121.65285, 18.08475], [121.65285, 18.08412]]}}, {"type": "Feature", "properties": {"id": "FLOW-00137", "direction": "SW", "accumulation": 5.0, "elevation_m": 27.91}, "geometry": {"type": "LineString", "coordinates": [[121.66005, 18.08475], [121.659609, 18.084309]]}}, {"type": "Feature", "properties": {"id": "FLOW-00138", "direction": "SW", "accumulation": 5.0, "elevation_m": 31.11}, "geometry": {"type": "LineString", "coordinates": [[121.67445, 18.08475], [121.674009, 18.084309]]}}, {"type": "Feature", "properties": {"id": "FLOW-00139", "direction": "N", "accumulation": 48.0, "elevation_m": 73.22}, "geometry": {"type": "LineString", "coordinates": [[121.35764999999999, 18.07755], [121.35764999999999, 18.07818]]}}, {"type": "Feature", "properties": {"id": "FLOW-00140", "direction": "NE", "accumulation": 7.0, "elevation_m": 69.2}, "geometry": {"type": "LineString", "coordinates": [[121.37204999999999, 18.07755], [121.37249099999998, 18.077990999999997]]}}, {"type": "Feature", "properties": {"id": "FLOW-00141", "direction": "NE", "accumulation": 7.0, "elevation_m": 65.51}, "geometry": {"type": "LineString", "coordinates": [[121.38645, 18.07755], [121.38689099999999, 18.077990999999997]]}}, {"type": "Feature", "properties": {"id": "FLOW-00142", "direction": "NE", "accumulation": 7.0, "elevation_m": 62.1}, "geometry": {"type": "LineString", "coordinates": [[121.40084999999999, 18.07755], [121.40129099999999, 18.077990999999997]]}}, {"type": "Feature", "properties": {"id": "FLOW-00143", "direction": "NE", "accumulation": 7.0, "elevation_m": 58.85}, "geometry": {"type": "LineString", "coordinates": [[121.41525, 18.07755], [121.415691, 18.077990999999997]]}}, {"type": "Feature", "properties": {"id": "FLOW-00144", "direction": "NE", "accumulation": 5.0, "elevation_m": 55.63}, "geometry": {"type": "LineString", "coordinates": [[121.42965, 18.07755], [121.43009099999999, 18.077990999999997]]}}, {"type": "Feature", "properties": {"id": "FLOW-00145", "direction": "NW", "accumulation": 5.0, "elevation_m": 52.34}, "geometry": {"type": "LineString", "coordinates": [[121.43684999999999, 18.07755], [121.436409, 18.077990999999997]]}}, {"type": "Feature", "properties": {"id": "FLOW-00146", "direction": "NE", "accumulation": 7.0, "elevation_m": 48.17}, "geometry": {"type": "LineString", "coordinates": [[121.45124999999999, 18.07755], [121.45169099999998, 18.077990999999997]]}}, {"type": "Feature", "properties": {"id": "FLOW-00147", "direction": "NE", "accumulation": 7.0, "elevation_m": 44.32}, "geometry": {"type": "LineString", "coordinates": [[121.46565, 18.07755], [121.46609099999999, 18.077990999999997]]}}, {"type": "Feature", "properties": {"id": "FLOW-00148", "direction": "NE", "accumulation": 7.0, "elevation_m": 40.77}, "geometry": {"type": "LineString", "coordinates": [[121.48004999999999, 18.07755], [121.48049099999999, 18.077990999999997]]}}, {"type": "Feature", "properties": {"id": "FLOW-00149", "direction": "NE", "accumulation": 7.0, "elevation_m": 37.47}, "geometry": {"type": "LineString", "coordinates": [[121.49445, 18.07755], [121.494891, 18.077990999999997]]}}, {"type": "Feature", "properties": {"id": "FLOW-00150", "direction": "NE", "accumulation": 6.0, "elevation_m": 34.26}, "geometry": {"type": "LineString", "coordinates": [[121.50885, 18.07755], [121.50929099999999, 18.077990999999997]]}}, {"type": "Feature", "properties": {"id": "FLOW-00151", "direction": "NW", "accumulation": 5.0, "elevation_m": 31.53}, "geometry": {"type": "LineString", "coordinates": [[121.51604999999999, 18.07755], [121.515609, 18.077990999999997]]}}, {"type": "Feature", "properties": {"id": "FLOW-00152", "direction": "N", "accumulation": 48.0, "elevation_m": 27.25}, "geometry": {"type": "LineString", "coordinates": [[121.53044999999999, 18.07755], [121.53044999999999, 18.07818]]}}, {"type": "Feature", "properties": {"id": "FLOW-00153", "direction": "NE", "accumulation": 7.0, "elevation_m": 23.25}, "geometry": {"type": "LineString", "coordinates": [[121.54485, 18.07755], [121.54529099999999, 18.077990999999997]]}}, {"type": "Feature", "properties": {"id": "FLOW-00154", "direction": "NE", "accumulation": 7.0, "elevation_m": 19.58}, "geometry": {"type": "LineString", "coordinates": [[121.55924999999999, 18.07755], [121.55969099999999, 18.077990999999997]]}}, {"type": "Feature", "properties": {"id": "FLOW-00155", "direction": "NE", "accumulation": 7.0, "elevation_m": 16.23}, "geometry": {"type": "LineString", "coordinates": [[121.57365, 18.07755], [121.574091, 18.077990999999997]]}}, {"type": "Feature", "properties": {"id": "FLOW-00156", "direction": "NE", "accumulation": 7.0, "elevation_m": 13.15}, "geometry": {"type": "LineString", "coordinates": [[121.58805, 18.07755], [121.58849099999999, 18.077990999999997]]}}, {"type": "Feature", "properties": {"id": "FLOW-00157", "direction": "NW", "accumulation": 5.0, "elevation_m": 11.41}, "geometry": {"type": "LineString", "coordinates": [[121.59525, 18.07755], [121.594809, 18.077990999999997]]}}, {"type": "Feature", "properties": {"id": "FLOW-00158", "direction": "NW", "accumulation": 7.0, "elevation_m": 13.06}, "geometry": {"type": "LineString", "coordinates": [[121.60964999999999, 18.07755], [121.60920899999999, 18.077990999999997]]}}, {"type": "Feature", "properties": {"id": "FLOW-00159", "direction": "NW", "accumulation": 7.0, "elevation_m": 16.13}, "geometry": {"type": "LineString", "coordinates": [[121.62405, 18.07755], [121.623609, 18.077990999999997]]}}, {"type": "Feature", "properties": {"id": "FLOW-00160", "direction": "NW", "accumulation": 7.0, "elevation_m": 19.84}, "geometry": {"type": "LineString", "coordinates": [[121.63844999999999, 18.07755], [121.638009, 18.077990999999997]]}}, {"type": "Feature", "properties": {"id": "FLOW-00161", "direction": "N", "accumulation": 46.0, "elevation_m": 23.92}, "geometry": {"type": "LineString", "coordinates": [[121.65285, 18.07755], [121.65285, 18.07818]]}}, {"type": "Feature", "properties": {"id": "FLOW-00162", "direction": "NW", "accumulation": 5.0, "elevation_m": 27.36}, "geometry": {"type": "LineString", "coordinates": [[121.66005, 18.07755], [121.659609, 18.077990999999997]]}}, {"type": "Feature", "properties": {"id": "FLOW-00163", "direction": "NW", "accumulation": 6.0, "elevation_m": 30.58}, "geometry": {"type": "LineString", "coordinates": [[121.67445, 18.07755], [121.674009, 18.077990999999997]]}}, {"type": "Feature", "properties": {"id": "FLOW-00164", "direction": "N", "accumulation": 75.0, "elevation_m": 73.15}, "geometry": {"type": "LineString", "coordinates": [[121.35764999999999, 18.06315], [121.35764999999999, 18.06378]]}}, {"type": "Feature", "properties": {"id": "FLOW-00165", "direction": "NE", "accumulation": 9.0, "elevation_m": 69.13}, "geometry": {"type": "LineString", "coordinates": [[121.37204999999999, 18.06315], [121.37249099999998, 18.063591]]}}, {"type": "Feature", "properties": {"id": "FLOW-00166", "direction": "NE", "accumulation": 9.0, "elevation_m": 65.43}, "geometry": {"type": "LineString", "coordinates": [[121.38645, 18.06315], [121.38689099999999, 18.063591]]}}, {"type": "Feature", "properties": {"id": "FLOW-00167", "direction": "NE", "accumulation": 8.0, "elevation_m": 62.01}, "geometry": {"type": "LineString", "coordinates": [[121.40084999999999, 18.06315], [121.40129099999999, 18.063591]]}}, {"type": "Feature", "properties": {"id": "FLOW-00168", "direction": "NE", "accumulation": 7.0, "elevation_m": 58.77}, "geometry": {"type": "LineString", "coordinates": [[121.41525, 18.06315], [121.415691, 18.063591]]}}, {"type": "Feature", "properties": {"id": "FLOW-00169", "direction": "NE", "accumulation": 5.0, "elevation_m": 55.54}, "geometry": {"type": "LineString", "coordinates": [[121.42965, 18.06315], [121.43009099999999, 18.063591]]}}, {"type": "Feature", "properties": {"id": "FLOW-00170", "direction": "NW", "accumulation": 5.0, "elevation_m": 52.25}, "geometry": {"type": "LineString", "coordinates": [[121.43684999999999, 18.06315], [121.436409, 18.063591]]}}, {"type": "Feature", "properties": {"id": "FLOW-00171", "direction": "NE", "accumulation": 9.0, "elevation_m": 48.08}, "geometry": {"type": "LineString", "coordinates": [[121.45124999999999, 18.06315], [121.45169099999998, 18.063591]]}}, {"type": "Feature", "properties": {"id": "FLOW-00172", "direction": "NE", "accumulation": 9.0, "elevation_m": 44.22}, "geometry": {"type": "LineString", "coordinates": [[121.46565, 18.06315], [121.46609099999999, 18.063591]]}}, {"type": "Feature", "properties": {"id": "FLOW-00173", "direction": "NE", "accumulation": 9.0, "elevation_m": 40.67}, "geometry": {"type": "LineString", "coordinates": [[121.48004999999999, 18.06315], [121.48049099999999, 18.063591]]}}, {"type": "Feature", "properties": {"id": "FLOW-00174", "direction": "NE", "accumulation": 7.0, "elevation_m": 37.36}, "geometry": {"type": "LineString", "coordinates": [[121.49445, 18.06315], [121.494891, 18.063591]]}}, {"type": "Feature", "properties": {"id": "FLOW-00175", "direction": "NE", "accumulation": 6.0, "elevation_m": 34.15}, "geometry": {"type": "LineString", "coordinates": [[121.50885, 18.06315], [121.50929099999999, 18.063591]]}}, {"type": "Feature", "properties": {"id": "FLOW-00176", "direction": "NW", "accumulation": 5.0, "elevation_m": 31.41}, "geometry": {"type": "LineString", "coordinates": [[121.51604999999999, 18.06315], [121.515609, 18.063591]]}}, {"type": "Feature", "properties": {"id": "FLOW-00177", "direction": "N", "accumulation": 75.0, "elevation_m": 27.12}, "geometry": {"type": "LineString", "coordinates": [[121.53044999999999, 18.06315], [121.53044999999999, 18.06378]]}}, {"type": "Feature", "properties": {"id": "FLOW-00178", "direction": "NE", "accumulation": 9.0, "elevation_m": 23.09}, "geometry": {"type": "LineString", "coordinates": [[121.54485, 18.06315], [121.54529099999999, 18.063591]]}}, {"type": "Feature", "properties": {"id": "FLOW-00179", "direction": "NE", "accumulation": 9.0, "elevation_m": 19.39}, "geometry": {"type": "LineString", "coordinates": [[121.55924999999999, 18.06315], [121.55969099999999, 18.063591]]}}, {"type": "Feature", "properties": {"id": "FLOW-00180", "direction": "NE", "accumulation": 8.0, "elevation_m": 15.98}, "geometry": {"type": "LineString", "coordinates": [[121.57365, 18.06315], [121.574091, 18.063591]]}}, {"type": "Feature", "properties": {"id": "FLOW-00181", "direction": "NE", "accumulation": 7.0, "elevation_m": 13.01}, "geometry": {"type": "LineString", "coordinates": [[121.58805, 18.06315], [121.58849099999999, 18.063591]]}}, {"type": "Feature", "properties": {"id": "FLOW-00182", "direction": "NW", "accumulation": 7.0, "elevation_m": 14.37}, "geometry": {"type": "LineString", "coordinates": [[121.60244999999999, 18.06315], [121.602009, 18.063591]]}}, {"type": "Feature", "properties": {"id": "FLOW-00183", "direction": "NW", "accumulation": 9.0, "elevation_m": 15.82}, "geometry": {"type": "LineString", "coordinates": [[121.62405, 18.06315], [121.623609, 18.063591]]}}, {"type": "Feature", "properties": {"id": "FLOW-00184", "direction": "NW", "accumulation": 9.0, "elevation_m": 19.63}, "geometry": {"type": "LineString", "coordinates": [[121.63844999999999, 18.06315], [121.638009, 18.063591]]}}, {"type": "Feature", "properties": {"id": "FLOW-00185", "direction": "N", "accumulation": 71.0, "elevation_m": 23.75}, "geometry": {"type": "LineString", "coordinates": [[121.65285, 18.06315], [121.65285, 18.06378]]}}, {"type": "Feature", "properties": {"id": "FLOW-00186", "direction": "NW", "accumulation": 5.0, "elevation_m": 27.2}, "geometry": {"type": "LineString", "coordinates": [[121.66005, 18.06315], [121.659609, 18.063591]]}}, {"type": "Feature", "properties": {"id": "FLOW-00187", "direction": "NW", "accumulation": 6.0, "elevation_m": 30.45}, "geometry": {"type": "LineString", "coordinates": [[121.67445, 18.06315], [121.674009, 18.063591]]}}, {"type": "Feature", "properties": {"id": "FLOW-00188", "direction": "SW", "accumulation": 13.0, "elevation_m": 14.95}, "geometry": {"type": "LineString", "coordinates": [[121.60964999999999, 18.05595], [121.60920899999999, 18.055509]]}}, {"type": "Feature", "properties": {"id": "FLOW-00189", "direction": "S", "accumulation": 61.0, "elevation_m": 73.68}, "geometry": {"type": "LineString", "coordinates": [[121.35764999999999, 18.04875], [121.35764999999999, 18.048119999999997]]}}, {"type": "Feature", "properties": {"id": "FLOW-00190", "direction": "SE", "accumulation": 8.0, "elevation_m": 69.66}, "geometry": {"type": "LineString", "coordinates": [[121.37204999999999, 18.04875], [121.37249099999998, 18.048309]]}}, {"type": "Feature", "properties": {"id": "FLOW-00191", "direction": "SE", "accumulation": 8.0, "elevation_m": 65.96}, "geometry": {"type": "LineString", "coordinates": [[121.38645, 18.04875], [121.38689099999999, 18.048309]]}}, {"type": "Feature", "properties": {"id": "FLOW-00192", "direction": "SE", "accumulation": 8.0, "elevation_m": 62.55}, "geometry": {"type": "LineString", "coordinates": [[121.40084999999999, 18.04875], [121.40129099999999, 18.048309]]}}, {"type": "Feature", "properties": {"id": "FLOW-00193", "direction": "SE", "accumulation": 7.0, "elevation_m": 59.31}, "geometry": {"type": "LineString", "coordinates": [[121.41525, 18.04875], [121.415691, 18.048309]]}}, {"type": "Feature", "properties": {"id": "FLOW-00194", "direction": "SE", "accumulation": 5.0, "elevation_m": 56.08}, "geometry": {"type": "LineString", "coordinates": [[121.42965, 18.04875], [121.43009099999999, 18.048309]]}}, {"type": "Feature", "properties": {"id": "FLOW-00195", "direction": "SW", "accumulation": 5.0, "elevation_m": 52.79}, "geometry": {"type": "LineString", "coordinates": [[121.43684999999999, 18.04875], [121.436409, 18.048309]]}}, {"type": "Feature", "properties": {"id": "FLOW-00196", "direction": "SE", "accumulation": 8.0, "elevation_m": 48.63}, "geometry": {"type": "LineString", "coordinates": [[121.45124999999999, 18.04875], [121.45169099999998, 18.048309]]}}, {"type": "Feature", "properties": {"id": "FLOW-00197", "direction": "SE", "accumulation": 8.0, "elevation_m": 44.77}, "geometry": {"type": "LineString", "coordinates": [[121.46565, 18.04875], [121.46609099999999, 18.048309]]}}, {"type": "Feature", "properties": {"id": "FLOW-00198", "direction": "SE", "accumulation": 8.0, "elevation_m": 41.23}, "geometry": {"type": "LineString", "coordinates": [[121.48004999999999, 18.04875], [121.48049099999999, 18.048309]]}}, {"type": "Feature", "properties": {"id": "FLOW-00199", "direction": "SE", "accumulation": 7.0, "elevation_m": 37.93}, "geometry": {"type": "LineString", "coordinates": [[121.49445, 18.04875], [121.494891, 18.048309]]}}, {"type": "Feature", "properties": {"id": "FLOW-00200", "direction": "SE", "accumulation": 6.0, "elevation_m": 34.72}, "geometry": {"type": "LineString", "coordinates": [[121.50885, 18.04875], [121.50929099999999, 18.048309]]}}, {"type": "Feature", "properties": {"id": "FLOW-00201", "direction": "SW", "accumulation": 5.0, "elevation_m": 32.0}, "geometry": {"type": "LineString", "coordinates": [[121.51604999999999, 18.04875], [121.515609, 18.048309]]}}, {"type": "Feature", "properties": {"id": "FLOW-00202", "direction": "S", "accumulation": 61.0, "elevation_m": 27.72}, "geometry": {"type": "LineString", "coordinates": [[121.53044999999999, 18.04875], [121.53044999999999, 18.048119999999997]]}}, {"type": "Feature", "properties": {"id": "FLOW-00203", "direction": "SE", "accumulation": 8.0, "elevation_m": 23.72}, "geometry": {"type": "LineString", "coordinates": [[121.54485, 18.04875], [121.54529099999999, 18.048309]]}}, {"type": "Feature", "properties": {"id": "FLOW-00204", "direction": "SE", "accumulation": 8.0, "elevation_m": 20.07}, "geometry": {"type": "LineString", "coordinates": [[121.55924999999999, 18.04875], [121.55969099999999, 18.048309]]}}, {"type": "Feature", "properties": {"id": "FLOW-00205", "direction": "SE", "accumulation": 8.0, "elevation_m": 16.73}, "geometry": {"type": "LineString", "coordinates": [[121.57365, 18.04875], [121.574091, 18.048309]]}}, {"type": "Feature", "properties": {"id": "FLOW-00206", "direction": "SE", "accumulation": 7.0, "elevation_m": 13.68}, "geometry": {"type": "LineString", "coordinates": [[121.58805, 18.04875], [121.58849099999999, 18.048309]]}}, {"type": "Feature", "properties": {"id": "FLOW-00207", "direction": "SW", "accumulation": 7.0, "elevation_m": 11.86}, "geometry": {"type": "LineString", "coordinates": [[121.59525, 18.04875], [121.594809, 18.048309]]}}, {"type": "Feature", "properties": {"id": "FLOW-00208", "direction": "SW", "accumulation": 8.0, "elevation_m": 13.5}, "geometry": {"type": "LineString", "coordinates": [[121.60964999999999, 18.04875], [121.60920899999999, 18.048309]]}}, {"type": "Feature", "properties": {"id": "FLOW-00209", "direction": "SW", "accumulation": 7.0, "elevation_m": 16.64}, "geometry": {"type": "LineString", "coordinates": [[121.62405, 18.04875], [121.623609, 18.048309]]}}, {"type": "Feature", "properties": {"id": "FLOW-00210", "direction": "SW", "accumulation": 8.0, "elevation_m": 20.33}, "geometry": {"type": "LineString", "coordinates": [[121.63844999999999, 18.04875], [121.638009, 18.048309]]}}, {"type": "Feature", "properties": {"id": "FLOW-00211", "direction": "S", "accumulation": 59.0, "elevation_m": 24.4}, "geometry": {"type": "LineString", "coordinates": [[121.65285, 18.04875], [121.65285, 18.048119999999997]]}}, {"type": "Feature", "properties": {"id": "FLOW-00212", "direction": "SW", "accumulation": 5.0, "elevation_m": 27.83}, "geometry": {"type": "LineString", "coordinates": [[121.66005, 18.04875], [121.659609, 18.048309]]}}, {"type": "Feature", "properties": {"id": "FLOW-00213", "direction": "SW", "accumulation": 6.0, "elevation_m": 31.05}, "geometry": {"type": "LineString", "coordinates": [[121.67445, 18.04875], [121.674009, 18.048309]]}}, {"type": "Feature", "properties": {"id": "FLOW-00214", "direction": "N", "accumulation": 16.0, "elevation_m": 75.12}, "geometry": {"type": "LineString", "coordinates": [[121.35764999999999, 18.041549999999997], [121.35764999999999, 18.04218]]}}, {"type": "Feature", "properties": {"id": "FLOW-00215", "direction": "N", "accumulation": 16.0, "elevation_m": 29.25}, "geometry": {"type": "LineString", "coordinates": [[121.53044999999999, 18.041549999999997], [121.53044999999999, 18.04218]]}}, {"type": "Feature", "properties": {"id": "FLOW-00216", "direction": "N", "accumulation": 16.0, "elevation_m": 25.97}, "geometry": {"type": "LineString", "coordinates": [[121.65285, 18.041549999999997], [121.65285, 18.04218]]}}, {"type": "Feature", "properties": {"id": "FLOW-00217", "direction": "S", "accumulation": 25.0, "elevation_m": 74.72}, "geometry": {"type": "LineString", "coordinates": [[121.35764999999999, 18.03435], [121.35764999999999, 18.03372]]}}, {"type": "Feature", "properties": {"id": "FLOW-00218", "direction": "SE", "accumulation": 5.0, "elevation_m": 70.71}, "geometry": {"type": "LineString", "coordinates": [[121.37204999999999, 18.03435], [121.37249099999998, 18.033909]]}}, {"type": "Feature", "properties": {"id": "FLOW-00219", "direction": "SE", "accumulation": 5.0, "elevation_m": 67.02}, "geometry": {"type": "LineString", "coordinates": [[121.38645, 18.03435], [121.38689099999999, 18.033909]]}}, {"type": "Feature", "properties": {"id": "FLOW-00220", "direction": "SE", "accumulation": 5.0, "elevation_m": 63.62}, "geometry": {"type": "LineString", "coordinates": [[121.40084999999999, 18.03435], [121.40129099999999, 18.033909]]}}, {"type": "Feature", "properties": {"id": "FLOW-00221", "direction": "SE", "accumulation": 5.0, "elevation_m": 60.38}, "geometry": {"type": "LineString", "coordinates": [[121.41525, 18.03435], [121.415691, 18.033909]]}}, {"type": "Feature", "properties": {"id": "FLOW-00222", "direction": "SE", "accumulation": 5.0, "elevation_m": 57.17}, "geometry": {"type": "LineString", "coordinates": [[121.42965, 18.03435], [121.43009099999999, 18.033909]]}}, {"type": "Feature", "properties": {"id": "FLOW-00223", "direction": "SW", "accumulation": 5.0, "elevation_m": 53.88}, "geometry": {"type": "LineString", "coordinates": [[121.43684999999999, 18.03435], [121.436409, 18.033909]]}}, {"type": "Feature", "properties": {"id": "FLOW-00224", "direction": "SE", "accumulation": 5.0, "elevation_m": 49.73}, "geometry": {"type": "LineString", "coordinates": [[121.45124999999999, 18.03435], [121.45169099999998, 18.033909]]}}, {"type": "Feature", "properties": {"id": "FLOW-00225", "direction": "SE", "accumulation": 5.0, "elevation_m": 45.89}, "geometry": {"type": "LineString", "coordinates": [[121.46565, 18.03435], [121.46609099999999, 18.033909]]}}, {"type": "Feature", "properties": {"id": "FLOW-00226", "direction": "SE", "accumulation": 5.0, "elevation_m": 42.37}, "geometry": {"type": "LineString", "coordinates": [[121.48004999999999, 18.03435], [121.48049099999999, 18.033909]]}}, {"type": "Feature", "properties": {"id": "FLOW-00227", "direction": "SE", "accumulation": 5.0, "elevation_m": 39.09}, "geometry": {"type": "LineString", "coordinates": [[121.49445, 18.03435], [121.494891, 18.033909]]}}, {"type": "Feature", "properties": {"id": "FLOW-00228", "direction": "SE", "accumulation": 5.0, "elevation_m": 35.91}, "geometry": {"type": "LineString", "coordinates": [[121.50885, 18.03435], [121.50929099999999, 18.033909]]}}, {"type": "Feature", "properties": {"id": "FLOW-00229", "direction": "SW", "accumulation": 5.0, "elevation_m": 33.2}, "geometry": {"type": "LineString", "coordinates": [[121.51604999999999, 18.03435], [121.515609, 18.033909]]}}, {"type": "Feature", "properties": {"id": "FLOW-00230", "direction": "S", "accumulation": 25.0, "elevation_m": 28.97}, "geometry": {"type": "LineString", "coordinates": [[121.53044999999999, 18.03435], [121.53044999999999, 18.03372]]}}, {"type": "Feature", "properties": {"id": "FLOW-00231", "direction": "SE", "accumulation": 5.0, "elevation_m": 25.03}, "geometry": {"type": "LineString", "coordinates": [[121.54485, 18.03435], [121.54529099999999, 18.033909]]}}, {"type": "Feature", "properties": {"id": "FLOW-00232", "direction": "SE", "accumulation": 5.0, "elevation_m": 21.47}, "geometry": {"type": "LineString", "coordinates": [[121.55924999999999, 18.03435], [121.55969099999999, 18.033909]]}}, {"type": "Feature", "properties": {"id": "FLOW-00233", "direction": "SE", "accumulation": 5.0, "elevation_m": 18.28}, "geometry": {"type": "LineString", "coordinates": [[121.57365, 18.03435], [121.574091, 18.033909]]}}, {"type": "Feature", "properties": {"id": "FLOW-00234", "direction": "SE", "accumulation": 5.0, "elevation_m": 15.45}, "geometry": {"type": "LineString", "coordinates": [[121.58805, 18.03435], [121.58849099999999, 18.033909]]}}, {"type": "Feature", "properties": {"id": "FLOW-00235", "direction": "SW", "accumulation": 5.0, "elevation_m": 13.64}, "geometry": {"type": "LineString", "coordinates": [[121.59525, 18.03435], [121.594809, 18.033909]]}}, {"type": "Feature", "properties": {"id": "FLOW-00236", "direction": "SW", "accumulation": 5.0, "elevation_m": 15.31}, "geometry": {"type": "LineString", "coordinates": [[121.60964999999999, 18.03435], [121.60920899999999, 18.033909]]}}, {"type": "Feature", "properties": {"id": "FLOW-00237", "direction": "SW", "accumulation": 5.0, "elevation_m": 18.27}, "geometry": {"type": "LineString", "coordinates": [[121.62405, 18.03435], [121.623609, 18.033909]]}}, {"type": "Feature", "properties": {"id": "FLOW-00238", "direction": "SW", "accumulation": 5.0, "elevation_m": 21.79}, "geometry": {"type": "LineString", "coordinates": [[121.63844999999999, 18.03435], [121.638009, 18.033909]]}}, {"type": "Feature", "properties": {"id": "FLOW-00239", "direction": "S", "accumulation": 25.0, "elevation_m": 25.74}, "geometry": {"type": "LineString", "coordinates": [[121.65285, 18.03435], [121.65285, 18.03372]]}}, {"type": "Feature", "properties": {"id": "FLOW-00240", "direction": "SW", "accumulation": 5.0, "elevation_m": 29.14}, "geometry": {"type": "LineString", "coordinates": [[121.66005, 18.03435], [121.659609, 18.033909]]}}, {"type": "Feature", "properties": {"id": "FLOW-00241", "direction": "SW", "accumulation": 5.0, "elevation_m": 32.29}, "geometry": {"type": "LineString", "coordinates": [[121.67445, 18.03435], [121.674009, 18.033909]]}}, {"type": "Feature", "properties": {"id": "FLOW-00242", "direction": "N", "accumulation": 36.0, "elevation_m": 74.89}, "geometry": {"type": "LineString", "coordinates": [[121.35764999999999, 18.02715], [121.35764999999999, 18.02778]]}}, {"type": "Feature", "properties": {"id": "FLOW-00243", "direction": "NE", "accumulation": 6.0, "elevation_m": 70.88}, "geometry": {"type": "LineString", "coordinates": [[121.37204999999999, 18.02715], [121.37249099999998, 18.027590999999997]]}}, {"type": "Feature", "properties": {"id": "FLOW-00244", "direction": "NE", "accumulation": 6.0, "elevation_m": 67.2}, "geometry": {"type": "LineString", "coordinates": [[121.38645, 18.02715], [121.38689099999999, 18.027590999999997]]}}, {"type": "Feature", "properties": {"id": "FLOW-00245", "direction": "NE", "accumulation": 6.0, "elevation_m": 63.8}, "geometry": {"type": "LineString", "coordinates": [[121.40084999999999, 18.02715], [121.40129099999999, 18.027590999999997]]}}, {"type": "Feature", "properties": {"id": "FLOW-00246", "direction": "NE", "accumulation": 6.0, "elevation_m": 60.57}, "geometry": {"type": "LineString", "coordinates": [[121.41525, 18.02715], [121.415691, 18.027590999999997]]}}, {"type": "Feature", "properties": {"id": "FLOW-00247", "direction": "NE", "accumulation": 5.0, "elevation_m": 57.36}, "geometry": {"type": "LineString", "coordinates": [[121.42965, 18.02715], [121.43009099999999, 18.027590999999997]]}}, {"type": "Feature", "properties": {"id": "FLOW-00248", "direction": "NW", "accumulation": 5.0, "elevation_m": 54.08}, "geometry": {"type": "LineString", "coordinates": [[121.43684999999999, 18.02715], [121.436409, 18.027590999999997]]}}, {"type": "Feature", "properties": {"id": "FLOW-00249", "direction": "NE", "accumulation": 6.0, "elevation_m": 49.94}, "geometry": {"type": "LineString", "coordinates": [[121.45124999999999, 18.02715], [121.45169099999998, 18.027590999999997]]}}, {"type": "Feature", "properties": {"id": "FLOW-00250", "direction": "NE", "accumulation": 6.0, "elevation_m": 46.11}, "geometry": {"type": "LineString", "coordinates": [[121.46565, 18.02715], [121.46609099999999, 18.027590999999997]]}}, {"type": "Feature", "properties": {"id": "FLOW-00251", "direction": "NE", "accumulation": 6.0, "elevation_m": 42.6}, "geometry": {"type": "LineString", "coordinates": [[121.48004999999999, 18.02715], [121.48049099999999, 18.027590999999997]]}}, {"type": "Feature", "properties": {"id": "FLOW-00252", "direction": "NE", "accumulation": 6.0, "elevation_m": 39.33}, "geometry": {"type": "LineString", "coordinates": [[121.49445, 18.02715], [121.494891, 18.027590999999997]]}}, {"type": "Feature", "properties": {"id": "FLOW-00253", "direction": "NE", "accumulation": 6.0, "elevation_m": 36.18}, "geometry": {"type": "LineString", "coordinates": [[121.50885, 18.02715], [121.50929099999999, 18.027590999999997]]}}, {"type": "Feature", "properties": {"id": "FLOW-00254", "direction": "NW", "accumulation": 5.0, "elevation_m": 33.48}, "geometry": {"type": "LineString", "coordinates": [[121.51604999999999, 18.02715], [121.515609, 18.027590999999997]]}}, {"type": "Feature", "properties": {"id": "FLOW-00255", "direction": "N", "accumulation": 36.0, "elevation_m": 29.27}, "geometry": {"type": "LineString", "coordinates": [[121.53044999999999, 18.02715], [121.53044999999999, 18.02778]]}}, {"type": "Feature", "properties": {"id": "FLOW-00256", "direction": "NE", "accumulation": 6.0, "elevation_m": 25.38}, "geometry": {"type": "LineString", "coordinates": [[121.54485, 18.02715], [121.54529099999999, 18.027590999999997]]}}, {"type": "Feature", "properties": {"id": "FLOW-00257", "direction": "NE", "accumulation": 6.0, "elevation_m": 21.87}, "geometry": {"type": "LineString", "coordinates": [[121.55924999999999, 18.02715], [121.55969099999999, 18.027590999999997]]}}, {"type": "Feature", "properties": {"id": "FLOW-00258", "direction": "NE", "accumulation": 7.0, "elevation_m": 18.75}, "geometry": {"type": "LineString", "coordinates": [[121.57365, 18.02715], [121.574091, 18.027590999999997]]}}, {"type": "Feature", "properties": {"id": "FLOW-00259", "direction": "NE", "accumulation": 6.0, "elevation_m": 15.99}, "geometry": {"type": "LineString", "coordinates": [[121.58805, 18.02715], [121.58849099999999, 18.027590999999997]]}}, {"type": "Feature", "properties": {"id": "FLOW-00260", "direction": "NW", "accumulation": 7.0, "elevation_m": 14.22}, "geometry": {"type": "LineString", "coordinates": [[121.59525, 18.02715], [121.594809, 18.027590999999997]]}}, {"type": "Feature", "properties": {"id": "FLOW-00261", "direction": "NW", "accumulation": 7.0, "elevation_m": 15.88}, "geometry": {"type": "LineString", "coordinates": [[121.60964999999999, 18.02715], [121.60920899999999, 18.027590999999997]]}}, {"type": "Feature", "properties": {"id": "FLOW-00262", "direction": "NW", "accumulation": 7.0, "elevation_m": 18.78}, "geometry": {"type": "LineString", "coordinates": [[121.62405, 18.02715], [121.623609, 18.027590999999997]]}}, {"type": "Feature", "properties": {"id": "FLOW-00263", "direction": "NW", "accumulation": 6.0, "elevation_m": 22.22}, "geometry": {"type": "LineString", "coordinates": [[121.63844999999999, 18.02715], [121.638009, 18.027590999999997]]}}, {"type": "Feature", "properties": {"id": "FLOW-00264", "direction": "N", "accumulation": 36.0, "elevation_m": 26.11}, "geometry": {"type": "LineString", "coordinates": [[121.65285, 18.02715], [121.65285, 18.02778]]}}, {"type": "Feature", "properties": {"id": "FLOW-00265", "direction": "NW", "accumulation": 5.0, "elevation_m": 29.48}, "geometry": {"type": "LineString", "coordinates": [[121.66005, 18.02715], [121.659609, 18.027590999999997]]}}, {"type": "Feature", "properties": {"id": "FLOW-00266", "direction": "NW", "accumulation": 6.0, "elevation_m": 32.6}, "geometry": {"type": "LineString", "coordinates": [[121.67445, 18.02715], [121.674009, 18.027590999999997]]}}, {"type": "Feature", "properties": {"id": "FLOW-00267", "direction": "S", "accumulation": 9.0, "elevation_m": 75.91}, "geometry": {"type": "LineString", "coordinates": [[121.35764999999999, 18.019949999999998], [121.35764999999999, 18.019319999999997]]}}, {"type": "Feature", "properties": {"id": "FLOW-00268", "direction": "S", "accumulation": 9.0, "elevation_m": 30.45}, "geometry": {"type": "LineString", "coordinates": [[121.53044999999999, 18.019949999999998], [121.53044999999999, 18.019319999999997]]}}, {"type": "Feature", "properties": {"id": "FLOW-00269", "direction": "S", "accumulation": 9.0, "elevation_m": 27.35}, "geometry": {"type": "LineString", "coordinates": [[121.65285, 18.019949999999998], [121.65285, 18.019319999999997]]}}, {"type": "Feature", "properties": {"id": "FLOW-00270", "direction": "N", "accumulation": 75.0, "elevation_m": 74.86}, "geometry": {"type": "LineString", "coordinates": [[121.35764999999999, 18.012749999999997], [121.35764999999999, 18.013379999999998]]}}, {"type": "Feature", "properties": {"id": "FLOW-00271", "direction": "NE", "accumulation": 9.0, "elevation_m": 70.86}, "geometry": {"type": "LineString", "coordinates": [[121.37204999999999, 18.012749999999997], [121.37249099999998, 18.013190999999996]]}}, {"type": "Feature", "properties": {"id": "FLOW-00272", "direction": "NE", "accumulation": 9.0, "elevation_m": 67.19}, "geometry": {"type": "LineString", "coordinates": [[121.38645, 18.012749999999997], [121.38689099999999, 18.013190999999996]]}}, {"type": "Feature", "properties": {"id": "FLOW-00273", "direction": "NE", "accumulation": 8.0, "elevation_m": 63.8}, "geometry": {"type": "LineString", "coordinates": [[121.40084999999999, 18.012749999999997], [121.40129099999999, 18.013190999999996]]}}, {"type": "Feature", "properties": {"id": "FLOW-00274", "direction": "NE", "accumulation": 7.0, "elevation_m": 60.59}, "geometry": {"type": "LineString", "coordinates": [[121.41525, 18.012749999999997], [121.415691, 18.013190999999996]]}}, {"type": "Feature", "properties": {"id": "FLOW-00275", "direction": "NE", "accumulation": 5.0, "elevation_m": 57.39}, "geometry": {"type": "LineString", "coordinates": [[121.42965, 18.012749999999997], [121.43009099999999, 18.013190999999996]]}}, {"type": "Feature", "properties": {"id": "FLOW-00276", "direction": "NW", "accumulation": 5.0, "elevation_m": 54.12}, "geometry": {"type": "LineString", "coordinates": [[121.43684999999999, 18.012749999999997], [121.436409, 18.013190999999996]]}}, {"type": "Feature", "properties": {"id": "FLOW-00277", "direction": "NE", "accumulation": 9.0, "elevation_m": 50.0}, "geometry": {"type": "LineString", "coordinates": [[121.45124999999999, 18.012749999999997], [121.45169099999998, 18.013190999999996]]}}, {"type": "Feature", "properties": {"id": "FLOW-00278", "direction": "NE", "accumulation": 9.0, "elevation_m": 46.2}, "geometry": {"type": "LineString", "coordinates": [[121.46565, 18.012749999999997], [121.46609099999999, 18.013190999999996]]}}, {"type": "Feature", "properties": {"id": "FLOW-00279", "direction": "NE", "accumulation": 9.0, "elevation_m": 42.72}, "geometry": {"type": "LineString", "coordinates": [[121.48004999999999, 18.012749999999997], [121.48049099999999, 18.013190999999996]]}}, {"type": "Feature", "properties": {"id": "FLOW-00280", "direction": "NE", "accumulation": 7.0, "elevation_m": 39.49}, "geometry": {"type": "LineString", "coordinates": [[121.49445, 18.012749999999997], [121.494891, 18.013190999999996]]}}, {"type": "Feature", "properties": {"id": "FLOW-00281", "direction": "NE", "accumulation": 6.0, "elevation_m": 36.38}, "geometry": {"type": "LineString", "coordinates": [[121.50885, 18.012749999999997], [121.50929099999999, 18.013190999999996]]}}, {"type": "Feature", "properties": {"id": "FLOW-00282", "direction": "NW", "accumulation": 5.0, "elevation_m": 33.71}, "geometry": {"type": "LineString", "coordinates": [[121.51604999999999, 18.012749999999997], [121.515609, 18.013190999999996]]}}, {"type": "Feature", "properties": {"id": "FLOW-00283", "direction": "N", "accumulation": 75.0, "elevation_m": 29.57}, "geometry": {"type": "LineString", "coordinates": [[121.53044999999999, 18.012749999999997], [121.53044999999999, 18.013379999999998]]}}, {"type": "Feature", "properties": {"id": "FLOW-00284", "direction": "NE", "accumulation": 9.0, "elevation_m": 25.76}, "geometry": {"type": "LineString", "coordinates": [[121.54485, 18.012749999999997], [121.54529099999999, 18.013190999999996]]}}, {"type": "Feature", "properties": {"id": "FLOW-00285", "direction": "NE", "accumulation": 9.0, "elevation_m": 22.35}, "geometry": {"type": "LineString", "coordinates": [[121.55924999999999, 18.012749999999997], [121.55969099999999, 18.013190999999996]]}}, {"type": "Feature", "properties": {"id": "FLOW-00286", "direction": "NE", "accumulation": 8.0, "elevation_m": 19.35}, "geometry": {"type": "LineString", "coordinates": [[121.57365, 18.012749999999997], [121.574091, 18.013190999999996]]}}, {"type": "Feature", "properties": {"id": "FLOW-00287", "direction": "NE", "accumulation": 6.0, "elevation_m": 16.7}, "geometry": {"type": "LineString", "coordinates": [[121.58805, 18.012749999999997], [121.58849099999999, 18.013190999999996]]}}, {"type": "Feature", "properties": {"id": "FLOW-00288", "direction": "NW", "accumulation": 7.0, "elevation_m": 14.96}, "geometry": {"type": "LineString", "coordinates": [[121.59525, 18.012749999999997], [121.594809, 18.013190999999996]]}}, {"type": "Feature", "properties": {"id": "FLOW-00289", "direction": "NW", "accumulation": 8.0, "elevation_m": 16.62}, "geometry": {"type": "LineString", "coordinates": [[121.60964999999999, 18.012749999999997], [121.60920899999999, 18.013190999999996]]}}, {"type": "Feature", "properties": {"id": "FLOW-00290", "direction": "NW", "accumulation": 9.0, "elevation_m": 19.43}, "geometry": {"type": "LineString", "coordinates": [[121.62405, 18.012749999999997], [121.623609, 18.013190999999996]]}}, {"type": "Feature", "properties": {"id": "FLOW-00291", "direction": "NW", "accumulation": 9.0, "elevation_m": 22.75}, "geometry": {"type": "LineString", "coordinates": [[121.63844999999999, 18.012749999999997], [121.638009, 18.013190999999996]]}}, {"type": "Feature", "properties": {"id": "FLOW-00292", "direction": "N", "accumulation": 75.0, "elevation_m": 26.53}, "geometry": {"type": "LineString", "coordinates": [[121.65285, 18.012749999999997], [121.65285, 18.013379999999998]]}}, {"type": "Feature", "properties": {"id": "FLOW-00293", "direction": "NW", "accumulation": 5.0, "elevation_m": 29.85}, "geometry": {"type": "LineString", "coordinates": [[121.66005, 18.012749999999997], [121.659609, 18.013190999999996]]}}, {"type": "Feature", "properties": {"id": "FLOW-00294", "direction": "NW", "accumulation": 6.0, "elevation_m": 32.89}, "geometry": {"type": "LineString", "coordinates": [[121.67445, 18.012749999999997], [121.674009, 18.013190999999996]]}}, {"type": "Feature", "properties": {"id": "FLOW-00295", "direction": "SE", "accumulation": 163.0, "elevation_m": 75.36}, "geometry": {"type": "LineString", "coordinates": [[121.35764999999999, 17.99835], [121.35809099999999, 17.997909]]}}, {"type": "Feature", "properties": {"id": "FLOW-00296", "direction": "E", "accumulation": 9.0, "elevation_m": 75.63}, "geometry": {"type": "LineString", "coordinates": [[121.36484999999999, 17.99835], [121.36547999999999, 17.99835]]}}, {"type": "Feature", "properties": {"id": "FLOW-00297", "direction": "E", "accumulation": 115.0, "elevation_m": 71.38}, "geometry": {"type": "LineString", "coordinates": [[121.37204999999999, 17.99835], [121.37267999999999, 17.99835]]}}, {"type": "Feature", "properties": {"id": "FLOW-00298", "direction": "E", "accumulation": 95.0, "elevation_m": 67.72}, "geometry": {"type": "LineString", "coordinates": [[121.38645, 17.99835], [121.38708, 17.99835]]}}, {"type": "Feature", "properties": {"id": "FLOW-00299", "direction": "E", "accumulation": 64.0, "elevation_m": 64.35}, "geometry": {"type": "LineString", "coordinates": [[121.40084999999999, 17.99835], [121.40147999999999, 17.99835]]}}, {"type": "Feature", "properties": {"id": "FLOW-00300", "direction": "E", "accumulation": 49.0, "elevation_m": 61.16}, "geometry": {"type": "LineString", "coordinates": [[121.41525, 17.99835], [121.41588, 17.99835]]}}, {"type": "Feature", "properties": {"id": "FLOW-00301", "direction": "W", "accumulation": 16.0, "elevation_m": 59.05}, "geometry": {"type": "LineString", "coordinates": [[121.42245, 17.99835], [121.42182, 17.99835]]}}, {"type": "Feature", "properties": {"id": "FLOW-00302", "direction": "E", "accumulation": 25.0, "elevation_m": 57.99}, "geometry": {"type": "LineString", "coordinates": [[121.42965, 17.99835], [121.43028, 17.99835]]}}, {"type": "Feature", "properties": {"id": "FLOW-00303", "direction": "W", "accumulation": 25.0, "elevation_m": 54.73}, "geometry": {"type": "LineString", "coordinates": [[121.43684999999999, 17.99835], [121.43621999999999, 17.99835]]}}, {"type": "Feature", "properties": {"id": "FLOW-00304", "direction": "E", "accumulation": 16.0, "elevation_m": 54.67}, "geometry": {"type": "LineString", "coordinates": [[121.44404999999999, 17.99835], [121.44467999999999, 17.99835]]}}, {"type": "Feature", "properties": {"id": "FLOW-00305", "direction": "E", "accumulation": 133.0, "elevation_m": 50.63}, "geometry": {"type": "LineString", "coordinates": [[121.45124999999999, 17.99835], [121.45187999999999, 17.99835]]}}, {"type": "Feature", "properties": {"id": "FLOW-00306", "direction": "E", "accumulation": 97.0, "elevation_m": 46.86}, "geometry": {"type": "LineString", "coordinates": [[121.46565, 17.99835], [121.46628, 17.99835]]}}, {"type": "Feature", "properties": {"id": "FLOW-00307", "direction": "E", "accumulation": 80.0, "elevation_m": 43.42}, "geometry": {"type": "LineString", "coordinates": [[121.48004999999999, 17.99835], [121.48067999999999, 17.99835]]}}, {"type": "Feature", "properties": {"id": "FLOW-00308", "direction": "E", "accumulation": 49.0, "elevation_m": 40.23}, "geometry": {"type": "LineString", "coordinates": [[121.49445, 17.99835], [121.49508, 17.99835]]}}, {"type": "Feature", "properties": {"id": "FLOW-00309", "direction": "W", "accumulation": 9.0, "elevation_m": 38.8}, "geometry": {"type": "LineString", "coordinates": [[121.50165, 17.99835], [121.50102, 17.99835]]}}, {"type": "Feature", "properties": {"id": "FLOW-00310", "direction": "E", "accumulation": 36.0, "elevation_m": 37.17}, "geometry": {"type": "LineString", "coordinates": [[121.50885, 17.99835], [121.50948, 17.99835]]}}, {"type": "Feature", "properties": {"id": "FLOW-00311", "direction": "W", "accumulation": 25.0, "elevation_m": 34.53}, "geometry": {"type": "LineString", "coordinates": [[121.51604999999999, 17.99835], [121.51541999999999, 17.99835]]}}, {"type": "Feature", "properties": {"id": "FLOW-00312", "direction": "E", "accumulation": 16.0, "elevation_m": 34.08}, "geometry": {"type": "LineString", "coordinates": [[121.52324999999999, 17.99835], [121.52387999999999, 17.99835]]}}, {"type": "Feature", "properties": {"id": "FLOW-00313", "direction": "SE", "accumulation": 306.0, "elevation_m": 30.46}, "geometry": {"type": "LineString", "coordinates": [[121.53044999999999, 17.99835], [121.53089099999998, 17.997909]]}}, {"type": "Feature", "properties": {"id": "FLOW-00314", "direction": "E", "accumulation": 9.0, "elevation_m": 30.83}, "geometry": {"type": "LineString", "coordinates": [[121.53765, 17.99835], [121.53828, 17.99835]]}}, {"type": "Feature", "properties": {"id": "FLOW-00315", "direction": "E", "accumulation": 115.0, "elevation_m": 26.73}, "geometry": {"type": "LineString", "coordinates": [[121.54485, 17.99835], [121.54548, 17.99835]]}}, {"type": "Feature", "properties": {"id": "FLOW-00316", "direction": "E", "accumulation": 80.0, "elevation_m": 23.41}, "geometry": {"type": "LineString", "coordinates": [[121.55924999999999, 17.99835], [121.55987999999999, 17.99835]]}}, {"type": "Feature", "properties": {"id": "FLOW-00317", "direction": "E", "accumulation": 64.0, "elevation_m": 20.49}, "geometry": {"type": "LineString", "coordinates": [[121.57365, 17.99835], [121.57428, 17.99835]]}}, {"type": "Feature", "properties": {"id": "FLOW-00318", "direction": "W", "accumulation": 9.0, "elevation_m": 19.89}, "geometry": {"type": "LineString", "coordinates": [[121.58085, 17.99835], [121.58022, 17.99835]]}}, {"type": "Feature", "properties": {"id": "FLOW-00319", "direction": "E", "accumulation": 36.0, "elevation_m": 17.92}, "geometry": {"type": "LineString", "coordinates": [[121.58805, 17.99835], [121.58868, 17.99835]]}}, {"type": "Feature", "properties": {"id": "FLOW-00320", "direction": "W", "accumulation": 49.0, "elevation_m": 16.2}, "geometry": {"type": "LineString", "coordinates": [[121.59525, 17.99835], [121.59461999999999, 17.99835]]}}, {"type": "Feature", "properties": {"id": "FLOW-00321", "direction": "W", "accumulation": 64.0, "elevation_m": 17.85}, "geometry": {"type": "LineString", "coordinates": [[121.60964999999999, 17.99835], [121.60901999999999, 17.99835]]}}, {"type": "Feature", "properties": {"id": "FLOW-00322", "direction": "W", "accumulation": 97.0, "elevation_m": 20.61}, "geometry": {"type": "LineString", "coordinates": [[121.62405, 17.99835], [121.62342, 17.99835]]}}, {"type": "Feature", "properties": {"id": "FLOW-00323", "direction": "W", "accumulation": 115.0, "elevation_m": 23.84}, "geometry": {"type": "LineString", "coordinates": [[121.63844999999999, 17.99835], [121.63781999999999, 17.99835]]}}, {"type": "Feature", "properties": {"id": "FLOW-00324", "direction": "W", "accumulation": 9.0, "elevation_m": 27.77}, "geometry": {"type": "LineString", "coordinates": [[121.64564999999999, 17.99835], [121.64501999999999, 17.99835]]}}, {"type": "Feature", "properties": {"id": "FLOW-00325", "direction": "E", "accumulation": 36.0, "elevation_m": 27.54}, "geometry": {"type": "LineString", "coordinates": [[121.65285, 17.99835], [121.65348, 17.99835]]}}, {"type": "Feature", "properties": {"id": "FLOW-00326", "direction": "W", "accumulation": 25.0, "elevation_m": 30.82}, "geometry": {"type": "LineString", "coordinates": [[121.66005, 17.99835], [121.65942, 17.99835]]}}, {"type": "Feature", "properties": {"id": "FLOW-00327", "direction": "E", "accumulation": 16.0, "elevation_m": 31.57}, "geometry": {"type": "LineString", "coordinates": [[121.66725, 17.99835], [121.66788, 17.99835]]}}, {"type": "Feature", "properties": {"id": "FLOW-00328", "direction": "W", "accumulation": 36.0, "elevation_m": 33.78}, "geometry": {"type": "LineString", "coordinates": [[121.67445, 17.99835], [121.67381999999999, 17.99835]]}}, {"type": "Feature", "properties": {"id": "FLOW-00329", "direction": "N", "accumulation": 9.0, "elevation_m": 77.22}, "geometry": {"type": "LineString", "coordinates": [[121.35764999999999, 17.991149999999998], [121.35764999999999, 17.99178]]}}, {"type": "Feature", "properties": {"id": "FLOW-00330", "direction": "N", "accumulation": 9.0, "elevation_m": 32.52}, "geometry": {"type": "LineString", "coordinates": [[121.53044999999999, 17.991149999999998], [121.53044999999999, 17.99178]]}}, {"type": "Feature", "properties": {"id": "FLOW-00331", "direction": "S", "accumulation": 36.0, "elevation_m": 76.46}, "geometry": {"type": "LineString", "coordinates": [[121.35764999999999, 17.98395], [121.35764999999999, 17.98332]]}}, {"type": "Feature", "properties": {"id": "FLOW-00332", "direction": "SE", "accumulation": 6.0, "elevation_m": 72.49}, "geometry": {"type": "LineString", "coordinates": [[121.37204999999999, 17.98395], [121.37249099999998, 17.983509]]}}, {"type": "Feature", "properties": {"id": "FLOW-00333", "direction": "SE", "accumulation": 6.0, "elevation_m": 68.85}, "geometry": {"type": "LineString", "coordinates": [[121.38645, 17.98395], [121.38689099999999, 17.983509]]}}, {"type": "Feature", "properties": {"id": "FLOW-00334", "direction": "SE", "accumulation": 6.0, "elevation_m": 65.5}, "geometry": {"type": "LineString", "coordinates": [[121.40084999999999, 17.98395], [121.40129099999999, 17.983509]]}}, {"type": "Feature", "properties": {"id": "FLOW-00335", "direction": "SE", "accumulation": 6.0, "elevation_m": 62.33}, "geometry": {"type": "LineString", "coordinates": [[121.41525, 17.98395], [121.415691, 17.983509]]}}, {"type": "Feature", "properties": {"id": "FLOW-00336", "direction": "SE", "accumulation": 5.0, "elevation_m": 59.18}, "geometry": {"type": "LineString", "coordinates": [[121.42965, 17.98395], [121.43009099999999, 17.983509]]}}, {"type": "Feature", "properties": {"id": "FLOW-00337", "direction": "SW", "accumulation": 5.0, "elevation_m": 55.93}, "geometry": {"type": "LineString", "coordinates": [[121.43684999999999, 17.98395], [121.436409, 17.983509]]}}, {"type": "Feature", "properties": {"id": "FLOW-00338", "direction": "SE", "accumulation": 6.0, "elevation_m": 51.87}, "geometry": {"type": "LineString", "coordinates": [[121.45124999999999, 17.98395], [121.45169099999998, 17.983509]]}}, {"type": "Feature", "properties": {"id": "FLOW-00339", "direction": "SE", "accumulation": 6.0, "elevation_m": 48.13}, "geometry": {"type": "LineString", "coordinates": [[121.46565, 17.98395], [121.46609099999999, 17.983509]]}}, {"type": "Feature", "properties": {"id": "FLOW-00340", "direction": "SE", "accumulation": 6.0, "elevation_m": 44.73}, "geometry": {"type": "LineString", "coordinates": [[121.48004999999999, 17.98395], [121.48049099999999, 17.983509]]}}, {"type": "Feature", "properties": {"id": "FLOW-00341", "direction": "SE", "accumulation": 6.0, "elevation_m": 41.59}, "geometry": {"type": "LineString", "coordinates": [[121.49445, 17.98395], [121.494891, 17.983509]]}}, {"type": "Feature", "properties": {"id": "FLOW-00342", "direction": "SE", "accumulation": 6.0, "elevation_m": 38.58}, "geometry": {"type": "LineString", "coordinates": [[121.50885, 17.98395], [121.50929099999999, 17.983509]]}}, {"type": "Feature", "properties": {"id": "FLOW-00343", "direction": "SW", "accumulation": 5.0, "elevation_m": 35.97}, "geometry": {"type": "LineString", "coordinates": [[121.51604999999999, 17.98395], [121.515609, 17.983509]]}}, {"type": "Feature", "properties": {"id": "FLOW-00344", "direction": "S", "accumulation": 36.0, "elevation_m": 31.96}, "geometry": {"type": "LineString", "coordinates": [[121.53044999999999, 17.98395], [121.53044999999999, 17.98332]]}}, {"type": "Feature", "properties": {"id": "FLOW-00345", "direction": "SE", "accumulation": 6.0, "elevation_m": 28.3}, "geometry": {"type": "LineString", "coordinates": [[121.54485, 17.98395], [121.54529099999999, 17.983509]]}}, {"type": "Feature", "properties": {"id": "FLOW-00346", "direction": "SE", "accumulation": 6.0, "elevation_m": 25.05}, "geometry": {"type": "LineString", "coordinates": [[121.55924999999999, 17.98395], [121.55969099999999, 17.983509]]}}, {"type": "Feature", "properties": {"id": "FLOW-00347", "direction": "SE", "accumulation": 6.0, "elevation_m": 22.21}, "geometry": {"type": "LineString", "coordinates": [[121.57365, 17.98395], [121.574091, 17.983509]]}}, {"type": "Feature", "properties": {"id": "FLOW-00348", "direction": "SE", "accumulation": 6.0, "elevation_m": 19.68}, "geometry": {"type": "LineString", "coordinates": [[121.58805, 17.98395], [121.58849099999999, 17.983509]]}}, {"type": "Feature", "properties": {"id": "FLOW-00349", "direction": "SW", "accumulation": 6.0, "elevation_m": 17.97}, "geometry": {"type": "LineString", "coordinates": [[121.59525, 17.98395], [121.594809, 17.983509]]}}, {"type": "Feature", "properties": {"id": "FLOW-00350", "direction": "SW", "accumulation": 6.0, "elevation_m": 19.63}, "geometry": {"type": "LineString", "coordinates": [[121.60964999999999, 17.98395], [121.60920899999999, 17.983509]]}}, {"type": "Feature", "properties": {"id": "FLOW-00351", "direction": "SW", "accumulation": 6.0, "elevation_m": 22.34}, "geometry": {"type": "LineString", "coordinates": [[121.62405, 17.98395], [121.623609, 17.983509]]}}, {"type": "Feature", "properties": {"id": "FLOW-00352", "direction": "SW", "accumulation": 6.0, "elevation_m": 25.52}, "geometry": {"type": "LineString", "coordinates": [[121.63844999999999, 17.98395], [121.638009, 17.983509]]}}, {"type": "Feature", "properties": {"id": "FLOW-00353", "direction": "SE", "accumulation": 6.0, "elevation_m": 29.14}, "geometry": {"type": "LineString", "coordinates": [[121.65285, 17.98395], [121.653291, 17.983509]]}}, {"type": "Feature", "properties": {"id": "FLOW-00354", "direction": "SW", "accumulation": 5.0, "elevation_m": 32.38}, "geometry": {"type": "LineString", "coordinates": [[121.66005, 17.98395], [121.659609, 17.983509]]}}, {"type": "Feature", "properties": {"id": "FLOW-00355", "direction": "SW", "accumulation": 6.0, "elevation_m": 35.27}, "geometry": {"type": "LineString", "coordinates": [[121.67445, 17.98395], [121.674009, 17.983509]]}}, {"type": "Feature", "properties": {"id": "FLOW-00356", "direction": "N", "accumulation": 25.0, "elevation_m": 77.25}, "geometry": {"type": "LineString", "coordinates": [[121.35764999999999, 17.97675], [121.35764999999999, 17.97738]]}}, {"type": "Feature", "properties": {"id": "FLOW-00357", "direction": "NE", "accumulation": 5.0, "elevation_m": 73.29}, "geometry": {"type": "LineString", "coordinates": [[121.37204999999999, 17.97675], [121.37249099999998, 17.977190999999998]]}}, {"type": "Feature", "properties": {"id": "FLOW-00358", "direction": "NE", "accumulation": 5.0, "elevation_m": 69.65}, "geometry": {"type": "LineString", "coordinates": [[121.38645, 17.97675], [121.38689099999999, 17.977190999999998]]}}, {"type": "Feature", "properties": {"id": "FLOW-00359", "direction": "NE", "accumulation": 5.0, "elevation_m": 66.31}, "geometry": {"type": "LineString", "coordinates": [[121.40084999999999, 17.97675], [121.40129099999999, 17.977190999999998]]}}, {"type": "Feature", "properties": {"id": "FLOW-00360", "direction": "NE", "accumulation": 5.0, "elevation_m": 63.15}, "geometry": {"type": "LineString", "coordinates": [[121.41525, 17.97675], [121.415691, 17.977190999999998]]}}, {"type": "Feature", "properties": {"id": "FLOW-00361", "direction": "NE", "accumulation": 5.0, "elevation_m": 60.02}, "geometry": {"type": "LineString", "coordinates": [[121.42965, 17.97675], [121.43009099999999, 17.977190999999998]]}}, {"type": "Feature", "properties": {"id": "FLOW-00362", "direction": "NW", "accumulation": 5.0, "elevation_m": 56.78}, "geometry": {"type": "LineString", "coordinates": [[121.43684999999999, 17.97675], [121.436409, 17.977190999999998]]}}, {"type": "Feature", "properties": {"id": "FLOW-00363", "direction": "NE", "accumulation": 5.0, "elevation_m": 52.74}, "geometry": {"type": "LineString", "coordinates": [[121.45124999999999, 17.97675], [121.45169099999998, 17.977190999999998]]}}, {"type": "Feature", "properties": {"id": "FLOW-00364", "direction": "NE", "accumulation": 6.0, "elevation_m": 49.01}, "geometry": {"type": "LineString", "coordinates": [[121.46565, 17.97675], [121.46609099999999, 17.977190999999998]]}}, {"type": "Feature", "properties": {"id": "FLOW-00365", "direction": "NE", "accumulation": 6.0, "elevation_m": 45.63}, "geometry": {"type": "LineString", "coordinates": [[121.48004999999999, 17.97675], [121.48049099999999, 17.977190999999998]]}}, {"type": "Feature", "properties": {"id": "FLOW-00366", "direction": "NE", "accumulation": 6.0, "elevation_m": 42.52}, "geometry": {"type": "LineString", "coordinates": [[121.49445, 17.97675], [121.494891, 17.977190999999998]]}}, {"type": "Feature", "properties": {"id": "FLOW-00367", "direction": "NE", "accumulation": 6.0, "elevation_m": 39.54}, "geometry": {"type": "LineString", "coordinates": [[121.50885, 17.97675], [121.50929099999999, 17.977190999999998]]}}, {"type": "Feature", "properties": {"id": "FLOW-00368", "direction": "NW", "accumulation": 5.0, "elevation_m": 36.94}, "geometry": {"type": "LineString", "coordinates": [[121.51604999999999, 17.97675], [121.515609, 17.977190999999998]]}}, {"type": "Feature", "properties": {"id": "FLOW-00369", "direction": "N", "accumulation": 36.0, "elevation_m": 32.96}, "geometry": {"type": "LineString", "coordinates": [[121.53044999999999, 17.97675], [121.53044999999999, 17.97738]]}}, {"type": "Feature", "properties": {"id": "FLOW-00370", "direction": "NE", "accumulation": 6.0, "elevation_m": 29.33}, "geometry": {"type": "LineString", "coordinates": [[121.54485, 17.97675], [121.54529099999999, 17.977190999999998]]}}, {"type": "Feature", "properties": {"id": "FLOW-00371", "direction": "NE", "accumulation": 6.0, "elevation_m": 26.11}, "geometry": {"type": "LineString", "coordinates": [[121.55924999999999, 17.97675], [121.55969099999999, 17.977190999999998]]}}, {"type": "Feature", "properties": {"id": "FLOW-00372", "direction": "NE", "accumulation": 6.0, "elevation_m": 23.29}, "geometry": {"type": "LineString", "coordinates": [[121.57365, 17.97675], [121.574091, 17.977190999999998]]}}, {"type": "Feature", "properties": {"id": "FLOW-00373", "direction": "NE", "accumulation": 6.0, "elevation_m": 20.78}, "geometry": {"type": "LineString", "coordinates": [[121.58805, 17.97675], [121.58849099999999, 17.977190999999998]]}}, {"type": "Feature", "properties": {"id": "FLOW-00374", "direction": "NW", "accumulation": 6.0, "elevation_m": 19.08}, "geometry": {"type": "LineString", "coordinates": [[121.59525, 17.97675], [121.594809, 17.977190999999998]]}}, {"type": "Feature", "properties": {"id": "FLOW-00375", "direction": "NW", "accumulation": 6.0, "elevation_m": 20.74}, "geometry": {"type": "LineString", "coordinates": [[121.60964999999999, 17.97675], [121.60920899999999, 17.977190999999998]]}}, {"type": "Feature", "properties": {"id": "FLOW-00376", "direction": "NW", "accumulation": 6.0, "elevation_m": 23.44}, "geometry": {"type": "LineString", "coordinates": [[121.62405, 17.97675], [121.623609, 17.977190999999998]]}}, {"type": "Feature", "properties": {"id": "FLOW-00377", "direction": "NW", "accumulation": 6.0, "elevation_m": 26.59}, "geometry": {"type": "LineString", "coordinates": [[121.63844999999999, 17.97675], [121.638009, 17.977190999999998]]}}, {"type": "Feature", "properties": {"id": "FLOW-00378", "direction": "NE", "accumulation": 6.0, "elevation_m": 30.18}, "geometry": {"type": "LineString", "coordinates": [[121.65285, 17.97675], [121.653291, 17.977190999999998]]}}, {"type": "Feature", "properties": {"id": "FLOW-00379", "direction": "NW", "accumulation": 5.0, "elevation_m": 33.41}, "geometry": {"type": "LineString", "coordinates": [[121.66005, 17.97675], [121.659609, 17.977190999999998]]}}, {"type": "Feature", "properties": {"id": "FLOW-00380", "direction": "NW", "accumulation": 6.0, "elevation_m": 36.27}, "geometry": {"type": "LineString", "coordinates": [[121.67445, 17.97675], [121.674009, 17.977190999999998]]}}, {"type": "Feature", "properties": {"id": "FLOW-00381", "direction": "SE", "accumulation": 56.0, "elevation_m": 77.85}, "geometry": {"type": "LineString", "coordinates": [[121.35764999999999, 17.969549999999998], [121.35809099999999, 17.969109]]}}, {"type": "Feature", "properties": {"id": "FLOW-00382", "direction": "E", "accumulation": 6.0, "elevation_m": 78.13}, "geometry": {"type": "LineString", "coordinates": [[121.36484999999999, 17.969549999999998], [121.36547999999999, 17.969549999999998]]}}, {"type": "Feature", "properties": {"id": "FLOW-00383", "direction": "E", "accumulation": 38.0, "elevation_m": 73.9}, "geometry": {"type": "LineString", "coordinates": [[121.37204999999999, 17.969549999999998], [121.37267999999999, 17.969549999999998]]}}, {"type": "Feature", "properties": {"id": "FLOW-00384", "direction": "E", "accumulation": 30.0, "elevation_m": 70.28}, "geometry": {"type": "LineString", "coordinates": [[121.38645, 17.969549999999998], [121.38708, 17.969549999999998]]}}, {"type": "Feature", "properties": {"id": "FLOW-00385", "direction": "E", "accumulation": 26.0, "elevation_m": 66.95}, "geometry": {"type": "LineString", "coordinates": [[121.40084999999999, 17.969549999999998], [121.40147999999999, 17.969549999999998]]}}, {"type": "Feature", "properties": {"id": "FLOW-00386", "direction": "E", "accumulation": 22.0, "elevation_m": 63.8}, "geometry": {"type": "LineString", "coordinates": [[121.41525, 17.969549999999998], [121.41588, 17.969549999999998]]}}, {"type": "Feature", "properties": {"id": "FLOW-00387", "direction": "W", "accumulation": 10.0, "elevation_m": 61.72}, "geometry": {"type": "LineString", "coordinates": [[121.42245, 17.969549999999998], [121.42182, 17.969549999999998]]}}, {"type": "Feature", "properties": {"id": "FLOW-00388", "direction": "E", "accumulation": 14.0, "elevation_m": 60.68}, "geometry": {"type": "LineString", "coordinates": [[121.42965, 17.969549999999998], [121.43028, 17.969549999999998]]}}, {"type": "Feature", "properties": {"id": "FLOW-00389", "direction": "W", "accumulation": 14.0, "elevation_m": 57.45}, "geometry": {"type": "LineString", "coordinates": [[121.43684999999999, 17.969549999999998], [121.43621999999999, 17.969549999999998]]}}, {"type": "Feature", "properties": {"id": "FLOW-00390", "direction": "E", "accumulation": 10.0, "elevation_m": 57.43}, "geometry": {"type": "LineString", "coordinates": [[121.44404999999999, 17.969549999999998], [121.44467999999999, 17.969549999999998]]}}, {"type": "Feature", "properties": {"id": "FLOW-00391", "direction": "E", "accumulation": 42.0, "elevation_m": 53.42}, "geometry": {"type": "LineString", "coordinates": [[121.45124999999999, 17.969549999999998], [121.45187999999999, 17.969549999999998]]}}, {"type": "Feature", "properties": {"id": "FLOW-00392", "direction": "E", "accumulation": 31.0, "elevation_m": 49.72}, "geometry": {"type": "LineString", "coordinates": [[121.46565, 17.969549999999998], [121.46628, 17.969549999999998]]}}, {"type": "Feature", "properties": {"id": "FLOW-00393", "direction": "E", "accumulation": 24.0, "elevation_m": 46.35}, "geometry": {"type": "LineString", "coordinates": [[121.48004999999999, 17.969549999999998], [121.48067999999999, 17.969549999999998]]}}, {"type": "Feature", "properties": {"id": "FLOW-00394", "direction": "E", "accumulation": 18.0, "elevation_m": 43.26}, "geometry": {"type": "LineString", "coordinates": [[121.49445, 17.969549999999998], [121.49508, 17.969549999999998]]}}, {"type": "Feature", "properties": {"id": "FLOW-00395", "direction": "W", "accumulation": 6.0, "elevation_m": 41.88}, "geometry": {"type": "LineString", "coordinates": [[121.50165, 17.969549999999998], [121.50102, 17.969549999999998]]}}, {"type": "Feature", "properties": {"id": "FLOW-00396", "direction": "E", "accumulation": 15.0, "elevation_m": 40.31}, "geometry": {"type": "LineString", "coordinates": [[121.50885, 17.969549999999998], [121.50948, 17.969549999999998]]}}, {"type": "Feature", "properties": {"id": "FLOW-00397", "direction": "W", "accumulation": 12.0, "elevation_m": 37.72}, "geometry": {"type": "LineString", "coordinates": [[121.51604999999999, 17.969549999999998], [121.51541999999999, 17.969549999999998]]}}, {"type": "Feature", "properties": {"id": "FLOW-00398", "direction": "E", "accumulation": 9.0, "elevation_m": 37.33}, "geometry": {"type": "LineString", "coordinates": [[121.52324999999999, 17.969549999999998], [121.52387999999999, 17.969549999999998]]}}, {"type": "Feature", "properties": {"id": "FLOW-00399", "direction": "SE", "accumulation": 51.0, "elevation_m": 33.77}, "geometry": {"type": "LineString", "coordinates": [[121.53044999999999, 17.969549999999998], [121.53089099999998, 17.969109]]}}, {"type": "Feature", "properties": {"id": "FLOW-00400", "direction": "E", "accumulation": 6.0, "elevation_m": 34.21}, "geometry": {"type": "LineString", "coordinates": [[121.53765, 17.969549999999998], [121.53828, 17.969549999999998]]}}, {"type": "Feature", "properties": {"id": "FLOW-00401", "direction": "E", "accumulation": 30.0, "elevation_m": 30.17}, "geometry": {"type": "LineString", "coordinates": [[121.54485, 17.969549999999998], [121.54548, 17.969549999999998]]}}, {"type": "Feature", "properties": {"id": "FLOW-00402", "direction": "E", "accumulation": 24.0, "elevation_m": 26.98}, "geometry": {"type": "LineString", "coordinates": [[121.55924999999999, 17.969549999999998], [121.55987999999999, 17.969549999999998]]}}, {"type": "Feature", "properties": {"id": "FLOW-00403", "direction": "E", "accumulation": 21.0, "elevation_m": 24.19}, "geometry": {"type": "LineString", "coordinates": [[121.57365, 17.969549999999998], [121.57428, 17.969549999999998]]}}, {"type": "Feature", "properties": {"id": "FLOW-00404", "direction": "W", "accumulation": 6.0, "elevation_m": 23.63}, "geometry": {"type": "LineString", "coordinates": [[121.58085, 17.969549999999998], [121.58022, 17.969549999999998]]}}, {"type": "Feature", "properties": {"id": "FLOW-00405", "direction": "E", "accumulation": 15.0, "elevation_m": 21.69}, "geometry": {"type": "LineString", "coordinates": [[121.58805, 17.969549999999998], [121.58868, 17.969549999999998]]}}, {"type": "Feature", "properties": {"id": "FLOW-00406", "direction": "W", "accumulation": 18.0, "elevation_m": 20.0}, "geometry": {"type": "LineString", "coordinates": [[121.59525, 17.969549999999998], [121.59461999999999, 17.969549999999998]]}}, {"type": "Feature", "properties": {"id": "FLOW-00407", "direction": "W", "accumulation": 21.0, "elevation_m": 21.65}, "geometry": {"type": "LineString", "coordinates": [[121.60964999999999, 17.969549999999998], [121.60901999999999, 17.969549999999998]]}}, {"type": "Feature", "properties": {"id": "FLOW-00408", "direction": "W", "accumulation": 27.0, "elevation_m": 24.34}, "geometry": {"type": "LineString", "coordinates": [[121.62405, 17.969549999999998], [121.62342, 17.969549999999998]]}}, {"type": "Feature", "properties": {"id": "FLOW-00409", "direction": "W", "accumulation": 30.0, "elevation_m": 27.47}, "geometry": {"type": "LineString", "coordinates": [[121.63844999999999, 17.969549999999998], [121.63781999999999, 17.969549999999998]]}}, {"type": "Feature", "properties": {"id": "FLOW-00410", "direction": "W", "accumulation": 6.0, "elevation_m": 31.34}, "geometry": {"type": "LineString", "coordinates": [[121.64564999999999, 17.969549999999998], [121.64501999999999, 17.969549999999998]]}}, {"type": "Feature", "properties": {"id": "FLOW-00411", "direction": "E", "accumulation": 15.0, "elevation_m": 31.04}, "geometry": {"type": "LineString", "coordinates": [[121.65285, 17.969549999999998], [121.65348, 17.969549999999998]]}}, {"type": "Feature", "properties": {"id": "FLOW-00412", "direction": "W", "accumulation": 12.0, "elevation_m": 34.25}, "geometry": {"type": "LineString", "coordinates": [[121.66005, 17.969549999999998], [121.65942, 17.969549999999998]]}}, {"type": "Feature", "properties": {"id": "FLOW-00413", "direction": "E", "accumulation": 9.0, "elevation_m": 34.94}, "geometry": {"type": "LineString", "coordinates": [[121.66725, 17.969549999999998], [121.66788, 17.969549999999998]]}}, {"type": "Feature", "properties": {"id": "FLOW-00414", "direction": "W", "accumulation": 15.0, "elevation_m": 37.08}, "geometry": {"type": "LineString", "coordinates": [[121.67445, 17.969549999999998], [121.67381999999999, 17.969549999999998]]}}]}