{"type":"FeatureCollection","features":[{"type":"Feature","properties":{"id":"LAS-RIV-0001","name":"river","waterway":"river","class":"main","osm_id":82085784,"data_source":"OpenStreetMap","length_km":8.027},"geometry":{"type":"LineString","coordinates":[[121.4202776,18.0180494],[121.4214349,18.018227],[121.4217406,18.018528],[121.4218827,18.0190357],[121.4230549,18.0202463],[121.422894,18.0209817],[121.4230174,18.0213796],[121.4238223,18.0216091],[121.426944,18.0225092],[121.4272311,18.0245113],[121.4280924,18.0248147],[121.4295917,18.0235406],[121.4299426,18.025664],[121.4305487,18.0265741],[121.4313143,18.0263617],[121.4312505,18.0249967],[121.4320161,18.0252697],[121.4325265,18.0271504],[121.4338025,18.0278178],[121.4370238,18.0272106],[121.4373641,18.0280918],[121.4392524,18.0280918],[121.4413123,18.0285815],[121.4441303,18.0296317],[121.4449172,18.0308668],[121.4461189,18.0295609],[121.4471488,18.0279286],[121.4490371,18.028255],[121.4519108,18.027307],[121.453157,18.0280918],[121.4556433,18.0291144],[121.4575436,18.0301818],[121.4582043,18.0302475],[121.4584447,18.0298599],[121.4561764,18.0271264],[121.4565195,18.0268398],[121.4586501,18.0267859],[121.4633909,18.02614],[121.4657482,18.0276583],[121.4663106,18.0284095],[121.466472,18.0293248],[121.4666335,18.0304698],[121.4669678,18.0308899],[121.4675956,18.0311765],[121.4685913,18.030807],[121.4688522,18.0304323],[121.4691789,18.030119],[121.469527,18.0298061],[121.4703196,18.0291559],[121.4708723,18.0285627]]}},{"type":"Feature","properties":{"id":"LAS-RIV-0002","name":"river","waterway":"river","class":"main","osm_id":82117936,"data_source":"OpenStreetMap","length_km":0.615},"geometry":{"type":"LineString","coordinates":[[121.458421,17.9967732],[121.4586049,17.9974021],[121.4590024,17.997699],[121.4596281,17.9979826],[121.459915,17.9981677],[121.4604115,17.9992126],[121.4609545,17.999749],[121.4611255,18.0000693],[121.4616138,18.0011416]]}},{"type":"Feature","properties":{"id":"LAS-RIV-0003","name":"Lasam River","waterway":"river","class":"main","osm_id":82117937,"data_source":"OpenStreetMap","length_km":47.865},"geometry":{"type":"LineString","coordinates":[[121.434659,17.9435444],[121.4363161,17.9447571],[121.4368689,17.9454467],[121.4376656,17.9458268],[121.4383523,17.9460113],[121.4392783,17.9470482],[121.4397327,17.9479458],[121.4408806,17.9490287],[121.4418704,17.9496508],[121.4419246,17.950099],[121.4421598,17.9510491],[121.4425705,17.9516014],[121.4427821,17.9519801],[121.4428368,17.952259],[121.4429133,17.9524791],[121.4430159,17.9527519],[121.4430723,17.953127],[121.4430186,17.9538568],[121.4430347,17.9540992],[121.4431339,17.9544156],[121.4427692,17.9550586],[121.4422542,17.9553724],[121.4420557,17.9554821],[121.4416695,17.9554974],[121.4410096,17.9555357],[121.4407951,17.9556556],[121.4399099,17.95612],[121.4395183,17.9563548],[121.4392635,17.9566788],[121.4391535,17.9569544],[121.439175,17.9571457],[121.4392903,17.9574111],[121.4396398,17.9578219],[121.4407226,17.9592737],[121.4413905,17.9605954],[121.4414589,17.9609131],[121.4414187,17.9613532],[121.4414696,17.9615318],[121.441526,17.9616147],[121.4416814,17.9617547],[121.4429542,17.9620753],[121.4433912,17.962216],[121.4441961,17.96231],[121.4446869,17.9622462],[121.4448023,17.9621518],[121.4454004,17.9616747],[121.4456043,17.9614399],[121.4459074,17.9612945],[121.4462399,17.9612307],[121.4469963,17.9616058],[121.447227,17.9618788],[121.4474335,17.9621263],[121.4476025,17.9623023],[121.4478895,17.9623483],[121.4483052,17.9623585],[121.4498824,17.9624529],[121.4507031,17.962606],[121.4508668,17.9626876],[121.4514166,17.9629963],[121.4517358,17.9636648],[121.4517412,17.9639506],[121.4519369,17.9644328],[121.4522856,17.9658423],[121.4518511,17.9663082],[121.4516634,17.9666398],[121.4514032,17.9670251],[121.4510231,17.9672706],[121.4504215,17.9676935],[121.4501345,17.9679257],[121.4494205,17.9687097],[121.4490724,17.9691759],[121.4483857,17.9697321],[121.4477313,17.9702985],[121.4477259,17.9706557],[121.447978,17.9714517],[121.4485091,17.9719824],[121.4488524,17.9723906],[121.44889,17.9725539],[121.4488953,17.9733397],[121.4486432,17.9736969],[121.4485252,17.9738142],[121.4479706,17.9741644],[121.4480209,17.9746613],[121.4483321,17.9756665],[121.4483482,17.9763298],[121.4484501,17.9766513],[121.4488256,17.9772483],[121.4491588,17.9778978],[121.4496765,17.9789618],[121.4501694,17.979427],[121.4505175,17.9796609],[121.4509345,17.9802471],[121.4517655,17.9810498],[121.4528275,17.9818099],[121.4540467,17.9822516],[121.4549573,17.9823669],[121.4552875,17.9824263],[121.4563803,17.9824703],[121.4569056,17.9826281],[121.4571225,17.9828089],[121.457229,17.9829962],[121.4572639,17.9831887],[121.4571251,17.9834607],[121.4566917,17.9839501],[121.4564601,17.9840463],[121.4541981,17.9848764],[121.4531547,17.9850958],[121.4527317,17.9853591],[121.4519851,17.9864353],[121.4520416,17.9867846],[121.4522561,17.9870706],[121.4527295,17.9873651],[121.4531358,17.9873508],[121.4539325,17.9872025],[121.4544341,17.9870015],[121.4546877,17.9869411],[121.4548928,17.9870219],[121.4554697,17.9878488],[121.4555874,17.9881775],[121.4558092,17.9883394],[121.4561692,17.9882907],[121.4566389,17.9884148],[121.4575669,17.9884531],[121.4583984,17.9886265],[121.4592821,17.9886222],[121.4595058,17.9886005],[121.4597121,17.9883986],[121.4599975,17.9876772],[121.4603051,17.987388],[121.4605737,17.9874887],[121.4611638,17.9879275],[121.4614368,17.9884837],[121.4614773,17.9895533],[121.461382,17.9900892],[121.4610806,17.9907446],[121.4605646,17.9914307],[121.4603897,17.9923518],[121.459823,17.9926761],[121.4596716,17.9929612],[121.4595263,17.9930004],[121.4590614,17.9933063],[121.4590042,17.9937125],[121.4585946,17.9951714],[121.458421,17.9967732],[121.4580785,17.9975603],[121.4577502,17.9989474],[121.4575743,17.9997437],[121.4575936,18.0003142],[121.4589076,18.0027044],[121.4601219,18.0018845],[121.4600334,18.0013732],[121.4599836,18.0010856],[121.4604685,18.0005802],[121.461043,18.0006022],[121.4616138,18.0011416],[121.4617152,18.0017653],[121.4623285,18.0028125],[121.4632052,18.003625],[121.4636534,18.0041054],[121.4644768,18.0044396],[121.4650737,18.0046741],[121.4657843,18.0051689],[121.4660466,18.0055405],[121.4656716,18.0062288],[121.4648541,18.0070692],[121.4636133,18.0073842],[121.4616809,18.0077762],[121.4600813,18.0080529],[121.4597176,18.008345],[121.4596708,18.0087691],[121.4599248,18.009951],[121.4603819,18.0110156],[121.4613455,18.0115767],[121.4617334,18.0117233],[121.4621941,18.0118076],[121.4624896,18.0116874],[121.4626861,18.0113412],[121.4629558,18.0110104],[121.4638808,18.0109368],[121.4644833,18.0107232],[121.4655121,18.0111405],[121.4669857,18.0108933],[121.467956,18.0111193],[121.4685196,18.0114866],[121.4688653,18.0118414],[121.469024,18.0122676],[121.4691097,18.0126176],[121.46891,18.0132431],[121.4687864,18.0139506],[121.4684027,18.0148072],[121.4678257,18.0153808],[121.4663116,18.0158779],[121.4657266,18.0164944],[121.4655815,18.0168149],[121.4658758,18.0173259],[121.4666976,18.0176834],[121.4693611,18.0184027],[121.4700087,18.0187912],[121.4699199,18.0194653],[121.4695215,18.0196951],[121.4691854,18.0202655],[121.4689605,18.0208496],[121.4687881,18.0214692],[121.4686822,18.0220321],[121.4687266,18.0227315],[121.4689888,18.0235478],[121.4690627,18.0242932],[121.4690963,18.0247825],[121.46909,18.0253909],[121.4691818,18.0261281],[121.4696921,18.0274537],[121.4700698,18.0281958],[121.4704862,18.0285452],[121.4708723,18.0285627],[121.4721546,18.0283921],[121.4728034,18.0284727],[121.473308,18.0286398],[121.4733812,18.0289538],[121.4736729,18.0292241],[121.4734744,18.0297033],[121.4728979,18.0299625],[121.4728916,18.0307411],[121.4729702,18.0313806],[121.4728648,18.0319217],[121.4728571,18.0332456],[121.4733534,18.0344597],[121.4733438,18.035209],[121.4735407,18.0366195],[121.4739979,18.0373285],[121.4744665,18.0376603],[121.4753268,18.0379853],[121.4759531,18.0381784],[121.4766725,18.0384697],[121.4772933,18.0390539],[121.4775417,18.0399313],[121.4775845,18.0404028],[121.4778352,18.0406939],[121.4789364,18.0414716],[121.4795087,18.0420595],[121.4798419,18.0424806],[121.4802301,18.042767],[121.4807991,18.0431364],[121.4814464,18.0434195],[121.481686,18.0434986],[121.4821389,18.0435597],[121.4824417,18.0435977],[121.4831933,18.043631],[121.4838432,18.0437725],[121.4840198,18.0439585],[121.4840998,18.0441445],[121.4842277,18.0445776],[121.4843762,18.045686],[121.4844889,18.0459363],[121.4857115,18.0465042],[121.4867518,18.0470721],[121.4882698,18.0480502],[121.4892275,18.0488041],[121.4897062,18.0500141],[121.4902515,18.0515285],[121.4909389,18.0518739],[121.4920641,18.0521148],[121.4929306,18.0524469],[121.4950063,18.0535782],[121.4961616,18.0538246],[121.4971559,18.0542955],[121.4980208,18.0544202],[121.4995544,18.0541788],[121.5004189,18.0542056],[121.501203,18.0543965],[121.5023549,18.055219],[121.503202,18.0555069],[121.5039974,18.0558713],[121.5051753,18.0567506],[121.5060615,18.0577029],[121.5064466,18.0579969],[121.50669,18.0579659],[121.506954,18.0564839],[121.5065998,18.0543777],[121.5064035,18.0537638],[121.5067325,18.0531996],[121.5078631,18.0523909],[121.5083761,18.0518208],[121.5089065,18.0515905],[121.5105476,18.0521192],[121.5120411,18.0527445],[121.5133855,18.0523038],[121.5152984,18.0520855],[121.5171867,18.0527169],[121.51856,18.053228],[121.5198109,18.0534656],[121.5209793,18.0542664],[121.5239662,18.0541838],[121.5256024,18.0559219],[121.5272632,18.0575347],[121.5287524,18.0590861],[121.528806,18.0603133],[121.5272235,18.0614495],[121.5270905,18.0621624],[121.5273564,18.0624962],[121.5276418,18.0626188],[121.5278723,18.0626734],[121.5281323,18.0623485],[121.5284114,18.0622494],[121.5292003,18.0621971],[121.5298532,18.0620569],[121.530205,18.0620238],[121.5304426,18.0621666],[121.5306835,18.0625368],[121.5314346,18.0631835],[121.5321749,18.0638567],[121.5325504,18.0640862],[121.5331834,18.0649073],[121.5338807,18.0654071],[121.535887,18.0660599],[121.5363725,18.0662486],[121.5369009,18.0670085],[121.5372603,18.0672839],[121.5380451,18.0675955],[121.5389693,18.0677439],[121.5397088,18.0676289],[121.5403411,18.0671671],[121.5410691,18.0672023],[121.5415036,18.0676205],[121.5418094,18.0677531],[121.5424209,18.0680795],[121.5430142,18.0684942],[121.5436075,18.0688068],[121.545101,18.0687849],[121.5461759,18.0684263],[121.5469077,18.0679388],[121.5472499,18.0672696],[121.5474384,18.0670434],[121.548002,18.0669535],[121.5486769,18.0670989],[121.5489788,18.0670225],[121.5491456,18.066663],[121.5495826,18.0665343],[121.5498018,18.06577],[121.5498005,18.0653832],[121.5502429,18.0643821],[121.5502958,18.0637766],[121.5502716,18.0631921],[121.5500771,18.0628669],[121.5494801,18.0626045],[121.5488595,18.0617232],[121.5493463,18.0602874],[121.5499048,18.0596066],[121.550579,18.0593078],[121.5516007,18.059245],[121.5520942,18.0594303],[121.5527807,18.059883],[121.5535247,18.0606202],[121.5538,18.061179],[121.5538878,18.0616802],[121.5540748,18.0619192],[121.5551723,18.0625319],[121.5563525,18.0632967],[121.5567994,18.0633139],[121.5581949,18.0637558],[121.5585261,18.063591],[121.5594439,18.0630275],[121.5609148,18.0624033],[121.5624297,18.0615798],[121.5630509,18.0611413],[121.5635049,18.0604711],[121.5643229,18.0599057],[121.5646009,18.0594319],[121.5649771,18.059043],[121.5654023,18.0588433],[121.5658717,18.0588113],[121.5662733,18.0585559],[121.5664684,18.0582811],[121.5665808,18.0580955],[121.5673065,18.0576926],[121.5675619,18.0576778],[121.5682891,18.0577152],[121.5685781,18.0576154],[121.5692057,18.0570821],[121.5695622,18.0570187],[121.5708586,18.056902],[121.5715319,18.056796],[121.5720684,18.0568944],[121.5728849,18.0567946],[121.5730718,18.0566827],[121.5734843,18.0567631],[121.5737536,18.0570044],[121.5749321,18.0574049],[121.5760324,18.0581646],[121.5770654,18.0593238],[121.5771135,18.0597619],[121.576963,18.0602],[121.5771364,18.0606672],[121.5776297,18.0608774],[121.5778473,18.0612135],[121.5781641,18.0614242],[121.5786353,18.0615404],[121.5789928,18.0615351],[121.5793393,18.0613724],[121.5794067,18.0611169],[121.5792611,18.0608895],[121.5792589,18.0604104],[121.5798238,18.0595848],[121.5810577,18.0584873],[121.5818229,18.0574212],[121.5830071,18.0567114],[121.5837226,18.0567043],[121.5841456,18.0570063],[121.5842376,18.0573083],[121.5843793,18.0577886],[121.5845431,18.0580591],[121.5859358,18.0588997],[121.5873575,18.0596125],[121.5889669,18.0590184],[121.5896023,18.0589213],[121.5902819,18.0587404],[121.590459,18.058608],[121.5905424,18.0584388],[121.5907388,18.058309],[121.591233,18.0582526],[121.5916379,18.0579419],[121.5918663,18.0573585],[121.5928806,18.0567909],[121.5938728,18.0564854],[121.5967713,18.0573254],[121.5975044,18.0572871],[121.598224,18.0571657],[121.5989215,18.0574218],[121.5995376,18.0578575],[121.6005543,18.0588252],[121.6011123,18.0590731],[121.6014686,18.0596584],[121.6017917,18.060055],[121.60186,18.0604318],[121.6017949,18.0608798],[121.6019063,18.0611809],[121.6023298,18.0614784],[121.6037014,18.0614344],[121.6045268,18.0606919],[121.6047675,18.0599703],[121.6053888,18.0596563],[121.6057785,18.0596674],[121.606078,18.0600982],[121.606179,18.0606025],[121.606076,18.0607792],[121.606184,18.0610319],[121.6065512,18.0615571],[121.6065886,18.061807],[121.6067072,18.0621349],[121.6067671,18.0623875],[121.6067507,18.0629347],[121.6068446,18.0634925],[121.6068227,18.065038],[121.6069776,18.0657694],[121.6065441,18.067891],[121.6067027,18.0686088],[121.6069992,18.0690225],[121.6073108,18.0690686],[121.6074434,18.0692202],[121.6076169,18.0694318],[121.6078055,18.0694994],[121.6079409,18.0695402],[121.6083422,18.0696798],[121.6091089,18.0695882],[121.6099858,18.0698532],[121.610747,18.0696149],[121.611122,18.0698379],[121.6114103,18.0706199],[121.6114415,18.0720123],[121.6112527,18.0722248],[121.6111037,18.0725776],[121.6110914,18.0729354],[121.6110059,18.073759],[121.6111905,18.0739662],[121.6114593,18.0740226],[121.6116508,18.0739322],[121.6123399,18.0732454],[121.6130079,18.0728919],[121.6133843,18.0721499],[121.613465,18.0717614],[121.6137736,18.0713819],[121.6140916,18.0712714],[121.6143477,18.0712799],[121.6148315,18.0717467],[121.6154522,18.0722027],[121.6157573,18.0724975],[121.6158266,18.0725898],[121.6158585,18.0726905],[121.6158703,18.0730604],[121.615602,18.0737944],[121.6153542,18.0743244],[121.6149373,18.0745645],[121.6143275,18.0746933],[121.6138952,18.0755414],[121.6134416,18.0760033],[121.6116498,18.0761872],[121.6116475,18.0763982],[121.6116442,18.0767099],[121.612617,18.0775548],[121.6143124,18.0782722],[121.6148478,18.0804781],[121.6187446,18.0818624],[121.6220363,18.0817105],[121.6235323,18.0831453],[121.6239517,18.083992],[121.6241915,18.0851629],[121.6248189,18.0856795],[121.6257805,18.0857599],[121.6266651,18.0854942],[121.6274018,18.0852552],[121.6281396,18.0854802],[121.6300827,18.0860393],[121.6303627,18.0865811],[121.6301807,18.0872362],[121.6294038,18.0877468],[121.6282399,18.0891688],[121.6260984,18.0910986],[121.6257718,18.0918966],[121.6257352,18.0926809],[121.6259449,18.0935582],[121.6264691,18.0942847],[121.6270159,18.0946572],[121.6280767,18.0944392],[121.6305813,18.0929696],[121.6313715,18.0924116],[121.6325628,18.0916835],[121.6334704,18.0914959],[121.6345661,18.0917782],[121.6351573,18.092696],[121.6357093,18.0942942],[121.6359164,18.0950374],[121.6356971,18.0979945],[121.6361712,18.0987697],[121.6367512,18.0990474],[121.6390173,18.0992649],[121.6405817,18.0989064],[121.642245,18.0972646],[121.6427815,18.0968873],[121.6430229,18.0968363],[121.6432589,18.0968669],[121.6449487,18.0974227],[121.6454154,18.0975349],[121.6459572,18.097642],[121.6512038,18.0978031]]}},{"type":"Feature","properties":{"id":"LAS-RIV-0094","name":"river","waterway":"river","class":"main","osm_id":1013442016,"data_source":"OpenStreetMap","length_km":0.559},"geometry":{"type":"LineString","coordinates":[[121.4666385,18.022328],[121.4658768,18.0211904],[121.4658124,18.0209404],[121.4658097,18.0206318],[121.4659465,18.0197314],[121.465925,18.0191601],[121.4657453,18.0186499],[121.465571,18.0181985],[121.465284,18.0178159],[121.4651553,18.0177313]]}},{"type":"Feature","properties":{"id":"LAS-RIV-0095","name":"river","waterway":"river","class":"main","osm_id":1013442017,"data_source":"OpenStreetMap","length_km":2.313},"geometry":{"type":"LineString","coordinates":[[121.465068,18.017674],[121.4647207,18.0173823],[121.4645786,18.0171795],[121.4639617,18.0164857],[121.4638919,18.0163556],[121.4637229,18.0157664],[121.4636183,18.015343],[121.4633099,18.0147538],[121.4628298,18.0141314],[121.4623121,18.0135141],[121.4619768,18.0130346],[121.4617461,18.0128611],[121.4612043,18.0123892],[121.4606491,18.0118306],[121.4601529,18.0115092],[121.4598901,18.0113664],[121.4595816,18.0110781],[121.4592946,18.0107797],[121.4592088,18.0107031],[121.4591364,18.0105144],[121.4591092,18.0103911],[121.4591494,18.0102585],[121.4592594,18.0100468],[121.4593828,18.009807],[121.4594364,18.0095978],[121.4594525,18.0094805],[121.4593694,18.0092407],[121.4590663,18.0086311],[121.4590394,18.0084806],[121.4590287,18.0083582],[121.4590502,18.0082051],[121.459085,18.0079067],[121.4590958,18.007172],[121.4590904,18.0067282],[121.4589563,18.005514],[121.4589751,18.0049936],[121.4590529,18.0047232],[121.4592782,18.0042386],[121.4595303,18.0038814],[121.459769,18.0036697],[121.4602384,18.0034937],[121.4612308,18.0031289],[121.461381,18.002958],[121.4614964,18.0027743],[121.4614508,18.0025856],[121.4614105,18.0023407],[121.4607963,18.0014785],[121.4606032,18.0012795],[121.4604449,18.0012081],[121.460343,18.0011902],[121.4601418,18.0012974],[121.4600334,18.0013732]]}},{"type":"Feature","properties":{"id":"LAS-RIV-0096","name":"river","waterway":"river","class":"main","osm_id":1013442018,"data_source":"OpenStreetMap","length_km":0.011},"geometry":{"type":"LineString","coordinates":[[121.4651553,18.0177313],[121.465068,18.017674]]}}]}