{"type":"FeatureCollection","features":[{"type":"Feature","properties":{"name":"river banks","parent_id":"LAS-RIV-0001","data_source":"Derived buffer (stub)"},"geometry":{"type":"Polygon","coordinates":[[[121.42002760000001,18.018124399999998],[121.4211849,18.018302],[121.42149060000001,18.018603],[121.4216327,18.0191107],[121.4228049,18.0203213],[121.422644,18.0210567],[121.42276740000001,18.0214546],[121.4235723,18.021684099999998],[121.42669400000001,18.022584199999997],[121.4269811,18.0245863],[121.4278424,18.0248897],[121.42934170000001,18.0236156],[121.42969260000001,18.025738999999998],[121.43029870000001,18.0266491],[121.4310643,18.026436699999998],[121.43100050000001,18.025071699999998],[121.4317661,18.025344699999998],[121.4322765,18.0272254],[121.4335525,18.0278928],[121.43677380000001,18.0272856],[121.4371141,18.028166799999997],[121.4390024,18.028166799999997],[121.44106230000001,18.0286565],[121.4438803,18.0297067],[121.44466720000001,18.030941799999997],[121.44586890000001,18.0296359],[121.4468988,18.028003599999998],[121.4487871,18.02833],[121.4516608,18.027382],[121.45290700000001,18.028166799999997],[121.45539330000001,18.0291894],[121.4572936,18.0302568],[121.45795430000001,18.0303225],[121.4581947,18.0299349],[121.45592640000001,18.0272014],[121.4562695,18.0269148],[121.4584001,18.0268609],[121.4631409,18.026215],[121.4654982,18.027733299999998],[121.4660606,18.028484499999998],[121.466222,18.0293998],[121.4663835,18.030544799999998],[121.46671780000001,18.030964899999997],[121.4673456,18.0312515],[121.4683413,18.030882],[121.4686022,18.0305073],[121.46892890000001,18.030193999999998],[121.469277,18.029881099999997],[121.4700696,18.029230899999998],[121.4706223,18.028637699999997],[121.47112229999999,18.0284877],[121.47056959999999,18.0290809],[121.469777,18.0297311],[121.4694289,18.030044],[121.4691022,18.030357300000002],[121.4688413,18.030732],[121.46784559999999,18.031101500000002],[121.4672178,18.0308149],[121.4668835,18.0303948],[121.46672199999999,18.029249800000002],[121.4665606,18.0283345],[121.46599819999999,18.0275833],[121.46364089999999,18.026065000000003],[121.4589001,18.0267109],[121.4567695,18.026764800000002],[121.4564264,18.0270514],[121.4586947,18.029784900000003],[121.4584543,18.030172500000003],[121.45779359999999,18.030106800000002],[121.4558933,18.029039400000002],[121.453407,18.0280168],[121.45216079999999,18.027232],[121.44928709999999,18.028180000000003],[121.44739879999999,18.0278536],[121.4463689,18.0294859],[121.4451672,18.0307918],[121.44438029999999,18.0295567],[121.4415623,18.028506500000002],[121.4395024,18.0280168],[121.43761409999999,18.0280168],[121.4372738,18.0271356],[121.43405249999999,18.027742800000002],[121.43277649999999,18.0270754],[121.43226609999999,18.0251947],[121.4315005,18.0249217],[121.43156429999999,18.0262867],[121.4307987,18.026499100000002],[121.4301926,18.025589],[121.4298417,18.0234656],[121.42834239999999,18.0247397],[121.4274811,18.0244363],[121.427194,18.0224342],[121.42407229999999,18.0215341],[121.4232674,18.0213046],[121.423144,18.0209067],[121.42330489999999,18.0201713],[121.42213269999999,18.0189607],[121.4219906,18.018453],[121.42168489999999,18.018152],[121.4205276,18.0179744],[121.42002760000001,18.018124399999998]]]}},{"type":"Feature","properties":{"name":"river banks","parent_id":"LAS-RIV-0002","data_source":"Derived buffer (stub)"},"geometry":{"type":"Polygon","coordinates":[[[121.45817100000001,17.9968482],[121.4583549,17.997477099999998],[121.45875240000001,17.997774],[121.45937810000001,17.9980576],[121.459665,17.9982427],[121.46016150000001,17.9992876],[121.4607045,17.999824],[121.4608755,18.0001443],[121.4613638,18.0012166],[121.46186379999999,18.0010666],[121.46137549999999,17.9999943],[121.4612045,17.999674000000002],[121.4606615,17.9991376],[121.46016499999999,17.9980927],[121.4598781,17.9979076],[121.4592524,17.997624000000002],[121.45885489999999,17.9973271],[121.458671,17.9966982],[121.45817100000001,17.9968482]]]}},{"type":"Feature","properties":{"name":"Lasam River banks","parent_id":"LAS-RIV-0003","data_source":"Derived buffer (stub)"},"geometry":{"type":"Polygon","coordinates":[[[121.434409,17.9436194],[121.4360661,17.9448321],[121.4366189,17.9455217],[121.43741560000001,17.945901799999998],[121.43810230000001,17.946086299999997],[121.4390283,17.9471232],[121.4394827,17.9480208],[121.4406306,17.9491037],[121.4416204,17.9497258],[121.4416746,17.950174],[121.4419098,17.951124099999998],[121.44232050000001,17.9516764],[121.44253210000001,17.9520551],[121.4425868,17.952334],[121.4426633,17.9525541],[121.44276590000001,17.952826899999998],[121.4428223,17.953201999999997],[121.44276860000001,17.9539318],[121.4427847,17.9541742],[121.44288390000001,17.9544906],[121.4425192,17.9551336],[121.4420042,17.9554474],[121.4418057,17.9555571],[121.44141950000001,17.955572399999998],[121.4407596,17.955610699999998],[121.44054510000001,17.9557306],[121.43965990000001,17.956194999999997],[121.43926830000001,17.9564298],[121.4390135,17.956753799999998],[121.43890350000001,17.9570294],[121.43892500000001,17.9572207],[121.4390403,17.9574861],[121.4393898,17.957896899999998],[121.4404726,17.9593487],[121.4411405,17.960670399999998],[121.4412089,17.960988099999998],[121.4411687,17.9614282],[121.44121960000001,17.9616068],[121.441276,17.961689699999997],[121.4414314,17.9618297],[121.44270420000001,17.962150299999998],[121.4431412,17.962291],[121.4439461,17.962384999999998],[121.4444369,17.962321199999998],[121.44455230000001,17.9622268],[121.4451504,17.9617497],[121.4453543,17.961514899999997],[121.4456574,17.9613695],[121.4459899,17.9613057],[121.4467463,17.9616808],[121.446977,17.9619538],[121.44718350000001,17.9622013],[121.44735250000001,17.9623773],[121.44763950000001,17.962423299999998],[121.4480552,17.9624335],[121.44963240000001,17.962527899999998],[121.4504531,17.962681],[121.4506168,17.962762599999998],[121.45116660000001,17.9630713],[121.4514858,17.9637398],[121.4514912,17.9640256],[121.45168690000001,17.9645078],[121.4520356,17.965917299999997],[121.4516011,17.9663832],[121.4514134,17.9667148],[121.45115320000001,17.9671001],[121.4507731,17.967345599999998],[121.45017150000001,17.9677685],[121.44988450000001,17.968000699999997],[121.44917050000001,17.9687847],[121.44882240000001,17.9692509],[121.44813570000001,17.9698071],[121.4474813,17.970373499999997],[121.4474759,17.970730699999997],[121.44772800000001,17.9715267],[121.4482591,17.9720574],[121.44860240000001,17.9724656],[121.44864000000001,17.9726289],[121.44864530000001,17.9734147],[121.44839320000001,17.9737719],[121.44827520000001,17.9738892],[121.44772060000001,17.9742394],[121.44777090000001,17.9747363],[121.44808210000001,17.975741499999998],[121.4480982,17.976404799999997],[121.44820010000001,17.9767263],[121.44857560000001,17.9773233],[121.44890880000001,17.9779728],[121.4494265,17.9790368],[121.4499194,17.979502],[121.45026750000001,17.979735899999998],[121.45068450000001,17.9803221],[121.4515155,17.9811248],[121.4525775,17.981884899999997],[121.45379670000001,17.9823266],[121.45470730000001,17.982441899999998],[121.4550375,17.9825013],[121.45613030000001,17.982545299999998],[121.4566556,17.9827031],[121.4568725,17.982883899999997],[121.456979,17.983071199999998],[121.4570139,17.9832637],[121.4568751,17.983535699999997],[121.4564417,17.9840251],[121.4562101,17.984121299999998],[121.4539481,17.9849514],[121.4529047,17.9851708],[121.4524817,17.9854341],[121.45173510000001,17.9865103],[121.4517916,17.9868596],[121.4520061,17.987145599999998],[121.45247950000001,17.9874401],[121.4528858,17.9874258],[121.4536825,17.987277499999998],[121.4541841,17.9870765],[121.4544377,17.987016099999998],[121.4546428,17.987096899999997],[121.4552197,17.987923799999997],[121.4553374,17.988252499999998],[121.45555920000001,17.9884144],[121.45591920000001,17.9883657],[121.45638890000001,17.9884898],[121.45731690000001,17.9885281],[121.4581484,17.988701499999998],[121.4590321,17.988697199999997],[121.45925580000001,17.9886755],[121.45946210000001,17.9884736],[121.4597475,17.9877522],[121.4600551,17.987462999999998],[121.4603237,17.9875637],[121.4609138,17.9880025],[121.46118680000001,17.9885587],[121.4612273,17.9896283],[121.461132,17.9901642],[121.46083060000001,17.9908196],[121.4603146,17.991505699999998],[121.4601397,17.9924268],[121.459573,17.9927511],[121.4594216,17.9930362],[121.4592763,17.9930754],[121.4588114,17.9933813],[121.4587542,17.9937875],[121.4583446,17.9952464],[121.45817100000001,17.9968482],[121.4578285,17.9976353],[121.45750020000001,17.999022399999998],[121.45732430000001,17.9998187],[121.4573436,18.000389199999997],[121.45865760000001,18.002779399999998],[121.45987190000001,18.001959499999998],[121.4597834,18.0014482],[121.4597336,18.0011606],[121.46021850000001,18.0006552],[121.46079300000001,18.0006772],[121.4613638,18.0012166],[121.4614652,18.001840299999998],[121.4620785,18.0028875],[121.46295520000001,18.0037],[121.4634034,18.0041804],[121.4642268,18.0045146],[121.46482370000001,18.004749099999998],[121.4655343,18.0052439],[121.4657966,18.005615499999998],[121.4654216,18.006303799999998],[121.4646041,18.0071442],[121.46336330000001,18.0074592],[121.46143090000001,18.007851199999998],[121.4598313,18.008127899999998],[121.45946760000001,18.008419999999997],[121.4594208,18.008844099999997],[121.4596748,18.010026],[121.46013190000001,18.0110906],[121.4610955,18.011651699999998],[121.4614834,18.0117983],[121.46194410000001,18.0118826],[121.4622396,18.0117624],[121.4624361,18.0114162],[121.46270580000001,18.0110854],[121.4636308,18.0110118],[121.4642333,18.0107982],[121.4652621,18.0112155],[121.4667357,18.0109683],[121.467706,18.0111943],[121.4682696,18.0115616],[121.46861530000001,18.0119164],[121.46877400000001,18.0123426],[121.46885970000001,18.012692599999998],[121.46866,18.0133181],[121.4685364,18.0140256],[121.4681527,18.0148822],[121.46757570000001,18.015455799999998],[121.4660616,18.0159529],[121.4654766,18.016569399999998],[121.4653315,18.0168899],[121.46562580000001,18.0174009],[121.46644760000001,18.017758399999998],[121.4691111,18.0184777],[121.4697587,18.018866199999998],[121.4696699,18.0195403],[121.4692715,18.0197701],[121.4689354,18.0203405],[121.4687105,18.020924599999997],[121.4685381,18.021544199999997],[121.46843220000001,18.0221071],[121.4684766,18.022806499999998],[121.46873880000001,18.0236228],[121.4688127,18.024368199999998],[121.46884630000001,18.0248575],[121.46884,18.0254659],[121.46893180000001,18.0262031],[121.46944210000001,18.027528699999998],[121.46981980000001,18.028270799999998],[121.4702362,18.0286202],[121.4706223,18.028637699999997],[121.4719046,18.0284671],[121.47255340000001,18.028547699999997],[121.47305800000001,18.0287148],[121.47313120000001,18.0290288],[121.4734229,18.0292991],[121.4732244,18.0297783],[121.47264790000001,18.0300375],[121.4726416,18.0308161],[121.47272020000001,18.031455599999997],[121.4726148,18.0319967],[121.4726071,18.0333206],[121.4731034,18.0345347],[121.4730938,18.035283999999997],[121.4732907,18.0366945],[121.4737479,18.0374035],[121.47421650000001,18.037735299999998],[121.47507680000001,18.038060299999998],[121.4757031,18.0382534],[121.47642250000001,18.0385447],[121.4770433,18.039128899999998],[121.47729170000001,18.040006299999998],[121.47733450000001,18.040477799999998],[121.47758520000001,18.0407689],[121.4786864,18.0415466],[121.4792587,18.0421345],[121.4795919,18.0425556],[121.4799801,18.042842],[121.4805491,18.0432114],[121.4811964,18.043494499999998],[121.481436,18.0435736],[121.4818889,18.0436347],[121.4821917,18.0436727],[121.4829433,18.043706],[121.4835932,18.0438475],[121.4837698,18.044033499999998],[121.4838498,18.0442195],[121.48397770000001,18.0446526],[121.4841262,18.045761],[121.48423890000001,18.0460113],[121.4854615,18.0465792],[121.4865018,18.0471471],[121.4880198,18.048125199999998],[121.4889775,18.0488791],[121.4894562,18.050089099999997],[121.4900015,18.0516035],[121.49068890000001,18.0519489],[121.4918141,18.052189799999997],[121.4926806,18.0525219],[121.4947563,18.0536532],[121.4959116,18.053899599999998],[121.4969059,18.054370499999997],[121.49777080000001,18.054495199999998],[121.4993044,18.054253799999998],[121.5001689,18.0542806],[121.50095300000001,18.0544715],[121.5021049,18.055294],[121.50295200000001,18.0555819],[121.50374740000001,18.0559463],[121.50492530000001,18.0568256],[121.50581150000001,18.057777899999998],[121.50619660000001,18.058071899999998],[121.50644000000001,18.058040899999998],[121.506704,18.0565589],[121.50634980000001,18.0544527],[121.50615350000001,18.053838799999998],[121.5064825,18.053274599999998],[121.5076131,18.052465899999998],[121.50812610000001,18.0518958],[121.5086565,18.0516655],[121.5102976,18.0521942],[121.51179110000001,18.0528195],[121.5131355,18.0523788],[121.51504840000001,18.0521605],[121.5169367,18.0527919],[121.51831,18.053303],[121.5195609,18.053540599999998],[121.5207293,18.0543414],[121.52371620000001,18.0542588],[121.5253524,18.0559969],[121.5270132,18.0576097],[121.52850240000001,18.059161099999997],[121.52855600000001,18.0603883],[121.52697350000001,18.061524499999997],[121.5268405,18.062237399999997],[121.52710640000001,18.062571199999997],[121.5273918,18.062693799999998],[121.5276223,18.0627484],[121.5278823,18.062423499999998],[121.5281614,18.062324399999998],[121.5289503,18.062272099999998],[121.52960320000001,18.0621319],[121.529955,18.062098799999998],[121.5301926,18.0622416],[121.5304335,18.0626118],[121.5311846,18.0632585],[121.5319249,18.063931699999998],[121.53230040000001,18.064161199999997],[121.5329334,18.0649823],[121.5336307,18.0654821],[121.53563700000001,18.066134899999998],[121.5361225,18.0663236],[121.53665090000001,18.0670835],[121.5370103,18.0673589],[121.53779510000001,18.0676705],[121.53871930000001,18.0678189],[121.5394588,18.067703899999998],[121.54009110000001,18.067242099999998],[121.54081910000001,18.0672773],[121.5412536,18.0676955],[121.54155940000001,18.0678281],[121.5421709,18.0681545],[121.54276420000001,18.0685692],[121.5433575,18.0688818],[121.54485100000001,18.0688599],[121.5459259,18.068501299999998],[121.54665770000001,18.0680138],[121.5469999,18.0673446],[121.54718840000001,18.0671184],[121.547752,18.0670285],[121.54842690000001,18.0671739],[121.5487288,18.0670975],[121.54889560000001,18.066737999999997],[121.5493326,18.0666093],[121.5495518,18.065845],[121.54955050000001,18.0654582],[121.5499929,18.0644571],[121.5500458,18.0638516],[121.55002160000001,18.063267099999997],[121.5498271,18.0629419],[121.5492301,18.062679499999998],[121.54860950000001,18.0617982],[121.5490963,18.0603624],[121.5496548,18.059681599999998],[121.550329,18.059382799999998],[121.5513507,18.05932],[121.5518442,18.059505299999998],[121.5525307,18.059957999999998],[121.5532747,18.060695199999998],[121.55355,18.061253999999998],[121.5536378,18.0617552],[121.5538248,18.061994199999997],[121.5549223,18.0626069],[121.55610250000001,18.063371699999998],[121.55654940000001,18.0633889],[121.55794490000001,18.063830799999998],[121.5582761,18.063665999999998],[121.55919390000001,18.0631025],[121.56066480000001,18.0624783],[121.5621797,18.0616548],[121.5628009,18.061216299999998],[121.5632549,18.0605461],[121.5640729,18.0599807],[121.56435090000001,18.0595069],[121.5647271,18.059117999999998],[121.56515230000001,18.0589183],[121.56562170000001,18.058886299999998],[121.56602330000001,18.0586309],[121.56621840000001,18.058356099999997],[121.5663308,18.0581705],[121.5670565,18.0577676],[121.5673119,18.0577528],[121.56803910000001,18.0577902],[121.5683281,18.0576904],[121.5689557,18.057157099999998],[121.5693122,18.0570937],[121.5706086,18.056977],[121.5712819,18.056870999999997],[121.57181840000001,18.0569694],[121.57263490000001,18.0568696],[121.5728218,18.0567577],[121.57323430000001,18.0568381],[121.57350360000001,18.0570794],[121.5746821,18.0574799],[121.57578240000001,18.0582396],[121.5768154,18.0593988],[121.5768635,18.0598369],[121.57671300000001,18.060274999999997],[121.5768864,18.0607422],[121.57737970000001,18.060952399999998],[121.57759730000001,18.0612885],[121.5779141,18.0614992],[121.57838530000001,18.061615399999997],[121.5787428,18.0616101],[121.5790893,18.0614474],[121.57915670000001,18.061191899999997],[121.5790111,18.060964499999997],[121.5790089,18.060485399999997],[121.5795738,18.0596598],[121.58080770000001,18.0585623],[121.58157290000001,18.0574962],[121.58275710000001,18.0567864],[121.58347260000001,18.0567793],[121.5838956,18.0570813],[121.5839876,18.057383299999998],[121.5841293,18.057863599999997],[121.58429310000001,18.0581341],[121.58568580000001,18.0589747],[121.5871075,18.0596875],[121.58871690000001,18.0590934],[121.5893523,18.0589963],[121.5900319,18.0588154],[121.590209,18.058683],[121.59029240000001,18.0585138],[121.5904888,18.058384],[121.59098300000001,18.0583276],[121.5913879,18.0580169],[121.59161630000001,18.0574335],[121.5926306,18.0568659],[121.5936228,18.0565604],[121.5965213,18.0574004],[121.59725440000001,18.0573621],[121.59797400000001,18.057240699999998],[121.59867150000001,18.0574968],[121.59928760000001,18.0579325],[121.6003043,18.0589002],[121.6008623,18.059148099999998],[121.60121860000001,18.0597334],[121.60154170000001,18.060129999999997],[121.60161000000001,18.0605068],[121.60154490000001,18.060954799999998],[121.6016563,18.0612559],[121.60207980000001,18.061553399999998],[121.60345140000001,18.0615094],[121.60427680000001,18.060766899999997],[121.6045175,18.0600453],[121.6051388,18.0597313],[121.6055285,18.059742399999998],[121.605828,18.060173199999998],[121.605929,18.0606775],[121.60582600000001,18.060854199999998],[121.605934,18.0611069],[121.6063012,18.0616321],[121.6063386,18.061882],[121.60645720000001,18.0622099],[121.6065171,18.0624625],[121.60650070000001,18.0630097],[121.60659460000001,18.063567499999998],[121.6065727,18.065113],[121.6067276,18.0658444],[121.6062941,18.067966],[121.6064527,18.0686838],[121.60674920000001,18.069097499999998],[121.6070608,18.0691436],[121.6071934,18.0692952],[121.6073669,18.0695068],[121.6075555,18.0695744],[121.60769090000001,18.069615199999998],[121.6080922,18.0697548],[121.6088589,18.069663199999997],[121.60973580000001,18.0699282],[121.61049700000001,18.0696899],[121.610872,18.0699129],[121.61116030000001,18.0706949],[121.6111915,18.0720873],[121.6110027,18.0722998],[121.6108537,18.072652599999998],[121.61084140000001,18.073010399999998],[121.6107559,18.073833999999998],[121.61094050000001,18.0740412],[121.61120930000001,18.074097599999998],[121.61140080000001,18.0740072],[121.6120899,18.0733204],[121.6127579,18.072966899999997],[121.61313430000001,18.0722249],[121.61321500000001,18.0718364],[121.61352360000001,18.071456899999998],[121.6138416,18.0713464],[121.6140977,18.0713549],[121.6145815,18.071821699999997],[121.6152022,18.072277699999997],[121.6155073,18.0725725],[121.61557660000001,18.0726648],[121.61560850000001,18.0727655],[121.6156203,18.073135399999998],[121.615352,18.0738694],[121.6151042,18.074399399999997],[121.6146873,18.0746395],[121.61407750000001,18.0747683],[121.61364520000001,18.075616399999998],[121.61319160000001,18.0760783],[121.6113998,18.0762622],[121.61139750000001,18.0764732],[121.6113942,18.0767849],[121.612367,18.0776298],[121.61406240000001,18.0783472],[121.61459780000001,18.0805531],[121.6184946,18.081937399999997],[121.62178630000001,18.0817855],[121.6232823,18.0832203],[121.62370170000001,18.084066999999997],[121.6239415,18.0852379],[121.6245689,18.0857545],[121.62553050000001,18.0858349],[121.6264151,18.0855692],[121.62715180000001,18.085330199999998],[121.6278896,18.085555199999998],[121.62983270000001,18.0861143],[121.63011270000001,18.0866561],[121.6299307,18.0873112],[121.62915380000001,18.0878218],[121.6279899,18.0892438],[121.62584840000001,18.091173599999998],[121.6255218,18.091971599999997],[121.6254852,18.0927559],[121.6256949,18.0936332],[121.6262191,18.0943597],[121.62676590000001,18.0947322],[121.6278267,18.0945142],[121.63033130000001,18.0930446],[121.6311215,18.092486599999997],[121.63231280000001,18.091758499999997],[121.6332204,18.0915709],[121.6343161,18.0918532],[121.63490730000001,18.092771],[121.63545930000001,18.0943692],[121.6356664,18.095112399999998],[121.63544710000001,18.098069499999998],[121.63592120000001,18.098844699999997],[121.63650120000001,18.0991224],[121.63876730000001,18.0993399],[121.6403317,18.0989814],[121.64199500000001,18.097339599999998],[121.6425315,18.096962299999998],[121.64277290000001,18.0969113],[121.64300890000001,18.096941899999997],[121.6446987,18.097497699999998],[121.64516540000001,18.0976099],[121.6457072,18.097717],[121.65095380000001,18.0978781],[121.6514538,18.0977281],[121.64620719999999,18.097567],[121.6456654,18.0974599],[121.6451987,18.0973477],[121.6435089,18.0967919],[121.6432729,18.0967613],[121.64303149999999,18.0968123],[121.642495,18.0971896],[121.64083169999999,18.0988314],[121.6392673,18.099189900000002],[121.6370012,18.0989724],[121.6364212,18.0986947],[121.6359471,18.0979195],[121.6361664,18.0949624],[121.6359593,18.0942192],[121.6354073,18.092621],[121.6348161,18.0917032],[121.63372039999999,18.091420900000003],[121.6328128,18.0916085],[121.6316215,18.0923366],[121.6308313,18.0928946],[121.62832669999999,18.0943642],[121.6272659,18.0945822],[121.62671909999999,18.0942097],[121.62619489999999,18.0934832],[121.62598519999999,18.092605900000002],[121.62602179999999,18.0918216],[121.6263484,18.0910236],[121.62848989999999,18.0890938],[121.6296538,18.087671800000003],[121.63043069999999,18.0871612],[121.6306127,18.0865061],[121.6303327,18.0859643],[121.62838959999999,18.0854052],[121.6276518,18.0851802],[121.62691509999999,18.0854192],[121.6260305,18.0856849],[121.62506889999999,18.085604500000002],[121.62444149999999,18.0850879],[121.6242017,18.083917],[121.62378229999999,18.083070300000003],[121.6222863,18.0816355],[121.6189946,18.0817874],[121.6150978,18.0804031],[121.6145624,18.0781972],[121.612867,18.077479800000003],[121.6118942,18.076634900000002],[121.6118975,18.0763232],[121.61189979999999,18.0761122],[121.6136916,18.0759283],[121.6141452,18.0754664],[121.6145775,18.0746183],[121.61518729999999,18.074489500000002],[121.61560419999999,18.0742494],[121.61585199999999,18.0737194],[121.61612029999999,18.0729854],[121.6161085,18.0726155],[121.6160766,18.0725148],[121.61600729999999,18.072422500000002],[121.61570219999999,18.0721277],[121.61508149999999,18.0716717],[121.61459769999999,18.0712049],[121.61434159999999,18.0711964],[121.6140236,18.0713069],[121.613715,18.0716864],[121.6136343,18.0720749],[121.6132579,18.0728169],[121.61258989999999,18.073170400000002],[121.6119008,18.073857200000003],[121.6117093,18.0739476],[121.6114405,18.073891200000002],[121.61125589999999,18.073684],[121.6113414,18.0728604],[121.6113537,18.0725026],[121.61150269999999,18.072149800000002],[121.61169149999999,18.071937300000002],[121.6116603,18.0705449],[121.61137199999999,18.0697629],[121.610997,18.069539900000002],[121.6102358,18.069778200000002],[121.60935889999999,18.0695132],[121.60859219999999,18.0696048],[121.6081909,18.0694652],[121.60805549999999,18.069424400000003],[121.60786689999999,18.0693568],[121.60769339999999,18.0691452],[121.60756079999999,18.068993600000002],[121.6072492,18.0689475],[121.6069527,18.0685338],[121.60679409999999,18.067816],[121.60722759999999,18.0656944],[121.60707269999999,18.064963000000002],[121.6070946,18.0634175],[121.6070007,18.0628597],[121.6070171,18.0623125],[121.6069572,18.0620599],[121.60683859999999,18.061732000000003],[121.60680119999999,18.061482100000003],[121.606434,18.0609569],[121.606326,18.0607042],[121.60642899999999,18.060527500000003],[121.60632799999999,18.0600232],[121.6060285,18.0595924],[121.6056388,18.0595813],[121.60501749999999,18.0598953],[121.6047768,18.0606169],[121.6039514,18.0613594],[121.6025798,18.0614034],[121.60215629999999,18.0611059],[121.6020449,18.0608048],[121.60211,18.0603568],[121.6020417,18.05998],[121.6017186,18.0595834],[121.60136229999999,18.0589981],[121.6008043,18.058750200000002],[121.5997876,18.057782500000002],[121.5991715,18.0573468],[121.598474,18.0570907],[121.5977544,18.0572121],[121.5970213,18.0572504],[121.5941228,18.0564104],[121.5931306,18.0567159],[121.5921163,18.0572835],[121.59188789999999,18.0578669],[121.591483,18.0581776],[121.59098879999999,18.058234000000002],[121.5907924,18.058363800000002],[121.59070899999999,18.058533],[121.59053189999999,18.058665400000002],[121.58985229999999,18.058846300000003],[121.5892169,18.0589434],[121.58760749999999,18.0595375],[121.5861858,18.058824700000002],[121.5847931,18.057984100000002],[121.58462929999999,18.0577136],[121.58448759999999,18.0572333],[121.5843956,18.056931300000002],[121.5839726,18.0566293],[121.5832571,18.056636400000002],[121.5820729,18.0573462],[121.5813077,18.0584123],[121.5800738,18.0595098],[121.5795089,18.0603354],[121.57951109999999,18.0608145],[121.5796567,18.0610419],[121.5795893,18.0612974],[121.57924279999999,18.0614601],[121.5788853,18.0614654],[121.57841409999999,18.061349200000002],[121.5780973,18.061138500000002],[121.5778797,18.0608024],[121.5773864,18.060592200000002],[121.577213,18.060125],[121.57736349999999,18.059686900000003],[121.57731539999999,18.059248800000002],[121.5762824,18.058089600000002],[121.57518209999999,18.057329900000003],[121.5740036,18.0569294],[121.5737343,18.056688100000002],[121.57332179999999,18.0566077],[121.5731349,18.0567196],[121.5723184,18.056819400000002],[121.57178189999999,18.056721],[121.57110859999999,18.056827000000002],[121.56981219999999,18.0569437],[121.56945569999999,18.0570071],[121.56882809999999,18.0575404],[121.5685391,18.0576402],[121.5678119,18.0576028],[121.5675565,18.0576176],[121.56683079999999,18.0580205],[121.5667184,18.0582061],[121.5665233,18.058480900000003],[121.5661217,18.0587363],[121.5656523,18.0587683],[121.56522709999999,18.058968],[121.5648509,18.0593569],[121.56457289999999,18.059830700000003],[121.56375489999999,18.060396100000002],[121.56330089999999,18.0610663],[121.56267969999999,18.0615048],[121.5611648,18.0623283],[121.5596939,18.0629525],[121.55877609999999,18.063516],[121.5584449,18.0636808],[121.5570494,18.0632389],[121.5566025,18.0632217],[121.55542229999999,18.0624569],[121.55432479999999,18.0618442],[121.55413779999999,18.061605200000002],[121.55404999999999,18.061104],[121.55377469999999,18.0605452],[121.5530307,18.059808],[121.5523442,18.0593553],[121.55185069999999,18.05917],[121.550829,18.0592328],[121.55015479999999,18.0595316],[121.54959629999999,18.0602124],[121.5491095,18.0616482],[121.54973009999999,18.0625295],[121.55032709999999,18.0627919],[121.5505216,18.0631171],[121.5505458,18.0637016],[121.5504929,18.0643071],[121.5500505,18.0653082],[121.55005179999999,18.065695],[121.54983259999999,18.0664593],[121.5493956,18.066588],[121.5492288,18.0669475],[121.5489269,18.067023900000002],[121.54825199999999,18.0668785],[121.5476884,18.0669684],[121.54749989999999,18.0671946],[121.5471577,18.0678638],[121.54642589999999,18.0683513],[121.545351,18.0687099],[121.54385749999999,18.068731800000002],[121.5432642,18.0684192],[121.54267089999999,18.0680045],[121.5420594,18.067678100000002],[121.54175359999999,18.0675455],[121.5413191,18.067127300000003],[121.5405911,18.0670921],[121.5399588,18.0675539],[121.5392193,18.0676689],[121.5382951,18.0675205],[121.5375103,18.0672089],[121.5371509,18.0669335],[121.5366225,18.066173600000003],[121.536137,18.0659849],[121.53413069999999,18.065332100000003],[121.53343339999999,18.064832300000003],[121.5328004,18.0640112],[121.5324249,18.0637817],[121.53168459999999,18.063108500000002],[121.53093349999999,18.0624618],[121.5306926,18.062091600000002],[121.53045499999999,18.0619488],[121.5301032,18.061981900000003],[121.5294503,18.0621221],[121.52866139999999,18.0621744],[121.52838229999999,18.0622735],[121.52812229999999,18.062598400000002],[121.52789179999999,18.0625438],[121.5276064,18.0624212],[121.5273405,18.0620874],[121.5274735,18.0613745],[121.529056,18.0602383],[121.5290024,18.0590111],[121.52751319999999,18.057459700000003],[121.52585239999999,18.055846900000002],[121.5242162,18.0541088],[121.52122929999999,18.0541914],[121.52006089999999,18.0533906],[121.51880999999999,18.053153000000002],[121.51743669999999,18.0526419],[121.5155484,18.0520105],[121.51363549999999,18.0522288],[121.5122911,18.0526695],[121.51079759999999,18.0520442],[121.50915649999999,18.0515155],[121.5086261,18.051745800000003],[121.50811309999999,18.0523159],[121.50698249999999,18.0531246],[121.5066535,18.0536888],[121.5068498,18.0543027],[121.50720399999999,18.0564089],[121.50694,18.0578909],[121.5066966,18.0579219],[121.5063115,18.0576279],[121.5054253,18.056675600000002],[121.5042474,18.0557963],[121.503452,18.055431900000002],[121.5026049,18.055144000000002],[121.501453,18.0543215],[121.5006689,18.0541306],[121.49980439999999,18.0541038],[121.4982708,18.0543452],[121.49740589999999,18.0542205],[121.49641159999999,18.0537496],[121.4952563,18.0535032],[121.49318059999999,18.0523719],[121.49231409999999,18.0520398],[121.4911889,18.0517989],[121.4905015,18.0514535],[121.4899562,18.0499391],[121.48947749999999,18.048729100000003],[121.48851979999999,18.0479752],[121.48700179999999,18.046997100000002],[121.48596149999999,18.046429200000002],[121.4847389,18.045861300000002],[121.4846262,18.045611],[121.4844777,18.0445026],[121.48434979999999,18.044069500000003],[121.48426979999999,18.0438835],[121.48409319999999,18.0436975],[121.48344329999999,18.043556000000002],[121.48269169999999,18.0435227],[121.48238889999999,18.0434847],[121.48193599999999,18.0434236],[121.48169639999999,18.0433445],[121.48104909999999,18.043061400000003],[121.4804801,18.042692000000002],[121.48009189999999,18.042405600000002],[121.47975869999999,18.0419845],[121.47918639999999,18.041396600000002],[121.4780852,18.040618900000002],[121.4778345,18.0403278],[121.4777917,18.0398563],[121.4775433,18.0389789],[121.4769225,18.0383947],[121.47620309999999,18.0381034],[121.4755768,18.0379103],[121.4747165,18.0375853],[121.4742479,18.037253500000002],[121.4737907,18.0365445],[121.47359379999999,18.035134],[121.47360339999999,18.0343847],[121.4731071,18.033170600000002],[121.47311479999999,18.031846700000003],[121.4732202,18.0313056],[121.47314159999999,18.0306661],[121.4731479,18.0298875],[121.4737244,18.029628300000002],[121.47392289999999,18.0291491],[121.4736312,18.0288788],[121.473558,18.0285648],[121.4730534,18.0283977],[121.47240459999999,18.028317100000002],[121.47112229999999,18.0284877],[121.47073619999999,18.0284702],[121.4703198,18.0281208],[121.4699421,18.0273787],[121.4694318,18.026053100000002],[121.46933999999999,18.025315900000003],[121.4693463,18.0247075],[121.46931269999999,18.0242182],[121.4692388,18.0234728],[121.46897659999999,18.0226565],[121.4689322,18.0219571],[121.46903809999999,18.0213942],[121.46921049999999,18.0207746],[121.4694354,18.020190500000002],[121.4697715,18.0196201],[121.47016989999999,18.0193903],[121.47025869999999,18.0187162],[121.4696111,18.0183277],[121.4669476,18.0176084],[121.4661258,18.0172509],[121.4658315,18.0167399],[121.46597659999999,18.0164194],[121.46656159999999,18.0158029],[121.4680757,18.0153058],[121.46865269999999,18.0147322],[121.4690364,18.013875600000002],[121.46915999999999,18.0131681],[121.4693597,18.0125426],[121.469274,18.012192600000002],[121.4691153,18.011766400000003],[121.46876959999999,18.011411600000002],[121.468206,18.011044300000002],[121.46723569999999,18.0108183],[121.46576209999999,18.0110655],[121.46473329999999,18.010648200000002],[121.46413079999999,18.0108618],[121.4632058,18.0109354],[121.4629361,18.0112662],[121.46273959999999,18.0116124],[121.4624441,18.011732600000002],[121.4619834,18.0116483],[121.46159549999999,18.0115017],[121.4606319,18.0109406],[121.46017479999999,18.009876000000002],[121.45992079999999,18.0086941],[121.4599676,18.00827],[121.46033129999999,18.0079779],[121.4619309,18.0077012],[121.4638633,18.0073092],[121.46510409999999,18.0069942],[121.46592159999999,18.0061538],[121.46629659999999,18.0054655],[121.46603429999999,18.005093900000002],[121.4653237,18.0045991],[121.4647268,18.004364600000002],[121.46390339999999,18.0040304],[121.4634552,18.00355],[121.46257849999999,18.002737500000002],[121.4619652,18.0016903],[121.46186379999999,18.0010666],[121.461293,18.0005272],[121.4607185,18.000505200000003],[121.4602336,18.0010106],[121.4602834,18.0012982],[121.4603719,18.0018095],[121.4591576,18.0026294],[121.45784359999999,18.0002392],[121.4578243,17.9996687],[121.4580002,17.9988724],[121.4583285,17.9974853],[121.458671,17.9966982],[121.45884459999999,17.9950964],[121.45925419999999,17.993637500000002],[121.45931139999999,17.9932313],[121.45977629999999,17.9929254],[121.45992159999999,17.9928862],[121.460073,17.9926011],[121.46063969999999,17.992276800000003],[121.46081459999999,17.9913557],[121.4613306,17.9906696],[121.461632,17.9900142],[121.46172729999999,17.989478300000002],[121.4616868,17.9884087],[121.46141379999999,17.987852500000002],[121.46082369999999,17.9874137],[121.4605551,17.987313],[121.4602475,17.9876022],[121.4599621,17.9883236],[121.4597558,17.9885255],[121.45953209999999,17.9885472],[121.45864839999999,17.9885515],[121.4578169,17.988378100000002],[121.4568889,17.988339800000002],[121.4564192,17.9882157],[121.4560592,17.988264400000002],[121.4558374,17.9881025],[121.45571969999999,17.9877738],[121.45514279999999,17.9869469],[121.45493769999999,17.9868661],[121.4546841,17.986926500000003],[121.45418249999999,17.9871275],[121.45338579999999,17.987275800000003],[121.4529795,17.987290100000003],[121.4525061,17.9869956],[121.4522916,17.9867096],[121.4522351,17.9863603],[121.4529817,17.9852841],[121.4534047,17.9850208],[121.4544481,17.984801400000002],[121.4567101,17.9839713],[121.45694169999999,17.983875100000002],[121.4573751,17.9833857],[121.4575139,17.9831137],[121.45747899999999,17.9829212],[121.45737249999999,17.9827339],[121.4571556,17.9825531],[121.4566303,17.9823953],[121.45553749999999,17.9823513],[121.4552073,17.9822919],[121.4542967,17.982176600000003],[121.45307749999999,17.9817349],[121.45201549999999,17.980974800000002],[121.4511845,17.9801721],[121.4507675,17.9795859],[121.45041939999999,17.979352000000002],[121.44992649999999,17.9788868],[121.4494088,17.977822800000002],[121.4490756,17.9771733],[121.4487001,17.9765763],[121.44859819999999,17.9762548],[121.4485821,17.9755915],[121.4482709,17.974586300000002],[121.4482206,17.9740894],[121.4487752,17.9737392],[121.4488932,17.9736219],[121.4491453,17.9732647],[121.44914,17.972478900000002],[121.4491024,17.9723156],[121.44875909999999,17.971907400000003],[121.448228,17.9713767],[121.44797589999999,17.9705807],[121.4479813,17.9702235],[121.4486357,17.969657100000003],[121.4493224,17.9691009],[121.4496705,17.968634700000003],[121.4503845,17.9678507],[121.4506715,17.9676185],[121.4512731,17.9671956],[121.4516532,17.966950100000002],[121.4519134,17.9665648],[121.4521011,17.9662332],[121.45253559999999,17.9657673],[121.4521869,17.964357800000002],[121.4519912,17.9638756],[121.45198579999999,17.9635898],[121.4516666,17.9629213],[121.4511168,17.9626126],[121.45095309999999,17.962531000000002],[121.4501324,17.9623779],[121.44855519999999,17.9622835],[121.4481395,17.9622733],[121.4478525,17.962227300000002],[121.4476835,17.962051300000002],[121.44747699999999,17.961803800000002],[121.44724629999999,17.961530800000002],[121.44648989999999,17.961155700000003],[121.44615739999999,17.961219500000002],[121.4458543,17.9613649],[121.44565039999999,17.9615997],[121.4450523,17.962076800000002],[121.44493689999999,17.9621712],[121.4444461,17.962235],[121.44364119999999,17.962141000000003],[121.4432042,17.9620003],[121.44193139999999,17.9616797],[121.44177599999999,17.9615397],[121.4417196,17.9614568],[121.4416687,17.961278200000002],[121.4417089,17.9608381],[121.44164049999999,17.9605204],[121.4409726,17.9591987],[121.43988979999999,17.9577469],[121.43954029999999,17.957336100000003],[121.439425,17.957070700000003],[121.4394035,17.956879400000002],[121.43951349999999,17.9566038],[121.4397683,17.9562798],[121.4401599,17.956045],[121.4410451,17.9555806],[121.4412596,17.9554607],[121.4419195,17.9554224],[121.44230569999999,17.955407100000002],[121.44250419999999,17.955297400000003],[121.4430192,17.954983600000002],[121.4433839,17.954340600000002],[121.44328469999999,17.954024200000003],[121.4432686,17.9537818],[121.44332229999999,17.953052],[121.4432659,17.9526769],[121.4431633,17.952404100000003],[121.44308679999999,17.952184000000003],[121.4430321,17.9519051],[121.4428205,17.951526400000002],[121.4424098,17.9509741],[121.44217459999999,17.950024000000003],[121.4421204,17.9495758],[121.4411306,17.9489537],[121.43998269999999,17.9478708],[121.43952829999999,17.946973200000002],[121.4386023,17.9459363],[121.4379156,17.9457518],[121.43711889999999,17.945371700000003],[121.4365661,17.9446821],[121.43490899999999,17.9434694],[121.434409,17.9436194]]]}},{"type":"Feature","properties":{"name":"river banks","parent_id":"LAS-RIV-0094","data_source":"Derived buffer (stub)"},"geometry":{"type":"Polygon","coordinates":[[[121.46638850000001,18.022403],[121.46562680000001,18.021265399999997],[121.46556240000001,18.0210154],[121.4655597,18.0207068],[121.4656965,18.0198064],[121.465675,18.0192351],[121.4654953,18.0187249],[121.465321,18.0182735],[121.465034,18.017890899999998],[121.46490530000001,18.0178063],[121.4654053,18.017656300000002],[121.46553399999999,18.0177409],[121.46582099999999,18.0181235],[121.46599529999999,18.0185749],[121.46617499999999,18.0190851],[121.4661965,18.019656400000002],[121.46605969999999,18.0205568],[121.4660624,18.0208654],[121.4661268,18.0211154],[121.4668885,18.022253000000003],[121.46638850000001,18.022403]]]}},{"type":"Feature","properties":{"name":"river banks","parent_id":"LAS-RIV-0095","data_source":"Derived buffer (stub)"},"geometry":{"type":"Polygon","coordinates":[[[121.46481800000001,18.017749],[121.4644707,18.0174573],[121.4643286,18.0172545],[121.4637117,18.0165607],[121.4636419,18.0164306],[121.4634729,18.0158414],[121.4633683,18.015418],[121.4630599,18.0148288],[121.4625798,18.0142064],[121.46206210000001,18.013589099999997],[121.46172680000001,18.0131096],[121.4614961,18.012936099999997],[121.46095430000001,18.0124642],[121.4603991,18.0119056],[121.4599029,18.011584199999998],[121.4596401,18.0114414],[121.45933160000001,18.011153099999998],[121.45904460000001,18.0108547],[121.4589588,18.0107781],[121.45888640000001,18.0105894],[121.4588592,18.0104661],[121.4588994,18.010333499999998],[121.4590094,18.0101218],[121.4591328,18.009881999999998],[121.45918640000001,18.0096728],[121.4592025,18.009555499999998],[121.4591194,18.0093157],[121.45881630000001,18.008706099999998],[121.4587894,18.008555599999998],[121.45877870000001,18.0084332],[121.4588002,18.0082801],[121.45883500000001,18.0079817],[121.4588458,18.007247],[121.4588404,18.0068032],[121.4587063,18.005589],[121.45872510000001,18.005068599999998],[121.45880290000001,18.0047982],[121.4590282,18.0043136],[121.4592803,18.0039564],[121.459519,18.0037447],[121.4599884,18.0035687],[121.4609808,18.0032039],[121.46113100000001,18.003033],[121.46124640000001,18.002849299999998],[121.4612008,18.0026606],[121.4611605,18.0024157],[121.4605463,18.0015535],[121.4603532,18.001354499999998],[121.4601949,18.0012831],[121.460093,18.0012652],[121.45989180000001,18.001372399999997],[121.4597834,18.0014482],[121.4602834,18.0012982],[121.4603918,18.0012224],[121.46059299999999,18.0011152],[121.4606949,18.0011331],[121.46085319999999,18.0012045],[121.46104629999999,18.001403500000002],[121.4616605,18.002265700000002],[121.46170079999999,18.0025106],[121.4617464,18.0026993],[121.461631,18.002883],[121.46148079999999,18.0030539],[121.46048839999999,18.0034187],[121.46001899999999,18.0035947],[121.45978029999999,18.003806400000002],[121.4595282,18.004163600000002],[121.4593029,18.004648200000002],[121.4592251,18.0049186],[121.45920629999999,18.005439000000003],[121.45934039999999,18.006653200000002],[121.4593458,18.007097],[121.459335,18.0078317],[121.45930019999999,18.008130100000002],[121.4592787,18.0082832],[121.45928939999999,18.0084056],[121.4593163,18.0085561],[121.4596194,18.0091657],[121.45970249999999,18.0094055],[121.4596864,18.009522800000003],[121.4596328,18.009732],[121.45950939999999,18.009971800000002],[121.4593994,18.0101835],[121.4593592,18.0103161],[121.4593864,18.010439400000003],[121.4594588,18.0106281],[121.4595446,18.0107047],[121.4598316,18.0110031],[121.46014009999999,18.0112914],[121.46040289999999,18.0114342],[121.46089909999999,18.0117556],[121.4614543,18.012314200000002],[121.4619961,18.0127861],[121.4622268,18.012959600000002],[121.4625621,18.0134391],[121.46307979999999,18.0140564],[121.46355989999999,18.014678800000002],[121.46386829999999,18.015268000000003],[121.46397289999999,18.0156914],[121.46414189999999,18.0162806],[121.46421169999999,18.0164107],[121.46482859999999,18.017104500000002],[121.4649707,18.017307300000002],[121.465318,18.017599],[121.46481800000001,18.017749]]]}},{"type":"Feature","properties":{"name":"river banks","parent_id":"LAS-RIV-0096","data_source":"Derived buffer (stub)"},"geometry":{"type":"Polygon","coordinates":[[[121.46490530000001,18.0178063],[121.46481800000001,18.017749],[121.465318,18.017599],[121.4654053,18.017656300000002],[121.46490530000001,18.0178063]]]}}]}