{"type":"FeatureCollection","features":[{"type":"Feature","properties":{"id":"LAS-RIV-0004","name":"stream","waterway":"stream","class":"tributary","osm_id":357172803,"data_source":"OpenStreetMap","length_km":5.376},"geometry":{"type":"LineString","coordinates":[[121.4732286,18.1108993],[121.473345,18.1108773],[121.473569,18.1108849],[121.4736401,18.1109244],[121.4736521,18.110955],[121.473628,18.1110175],[121.4736602,18.111122],[121.4737447,18.1112507],[121.473742,18.1112954],[121.4736803,18.1114126],[121.473691,18.1114662],[121.4737232,18.1116408],[121.4737433,18.1117313],[121.4738064,18.1118039],[121.4738721,18.1118243],[121.4739807,18.1118154],[121.4741711,18.1118575],[121.4743052,18.1118881],[121.4743736,18.1119199],[121.4745024,18.1120474],[121.4746419,18.1121405],[121.4746633,18.1121723],[121.4746754,18.1122297],[121.4746754,18.1123342],[121.4746593,18.1124617],[121.4746781,18.112533],[121.4747572,18.1126414],[121.4747585,18.1126758],[121.4747237,18.1127663],[121.4745587,18.1128836],[121.4745373,18.1129244],[121.4745453,18.1130824],[121.4745279,18.1131997],[121.474544,18.1132634],[121.4745788,18.1132915],[121.4746875,18.1133348],[121.4747035,18.1133628],[121.4747693,18.1134801],[121.4748149,18.1135094],[121.4749919,18.1135477],[121.4750348,18.1135808],[121.4750576,18.1137299],[121.4750992,18.1137605],[121.4753392,18.1137618],[121.4754318,18.1137899],[121.4756115,18.1138383],[121.4757751,18.1139084],[121.4758703,18.1139097],[121.4759535,18.1139313],[121.4760339,18.1139759],[121.4760983,18.1139734],[121.4762539,18.1139403],[121.476443,18.1139237],[121.4766079,18.1138867],[121.4767125,18.1138447],[121.4767648,18.1138651],[121.4769123,18.1139415],[121.4770612,18.1140218],[121.4771792,18.1140575],[121.4772597,18.1140269],[121.4774166,18.1140014],[121.4774689,18.1140244],[121.477485,18.114097],[121.4774837,18.1142156],[121.4775239,18.1142487],[121.4775923,18.1142717],[121.4776996,18.1142627],[121.4777318,18.1142882],[121.4777908,18.1143889],[121.4777948,18.1145699],[121.477823,18.1146579],[121.4778498,18.1146834],[121.478004,18.1147866],[121.4780295,18.1148325],[121.4780885,18.1149714],[121.4781287,18.1150326],[121.4782427,18.115285],[121.478283,18.1153819],[121.4783178,18.1154481],[121.4783943,18.1156266],[121.4784412,18.1156189],[121.4788744,18.115494],[121.4790165,18.1154558],[121.4791641,18.1158191],[121.4792204,18.1158382],[121.4792512,18.1159274],[121.479262,18.1160651],[121.4792284,18.1160829],[121.4791292,18.1161161],[121.4791158,18.1161403],[121.4791962,18.1163429],[121.4792579,18.1163977],[121.4792915,18.1164424],[121.4793585,18.11658],[121.4793572,18.116696],[121.4793719,18.1168222],[121.4794041,18.116928],[121.4794269,18.1170542],[121.4794698,18.1171077],[121.4795583,18.1171804],[121.4796978,18.1172313],[121.4797568,18.1173486],[121.4798024,18.117522],[121.4798292,18.1175653],[121.4797971,18.117652],[121.4798078,18.1178202],[121.4798775,18.1180395],[121.4799446,18.1180675],[121.4799634,18.1181414],[121.4799741,18.1182306],[121.4800599,18.1183148],[121.4801511,18.1183963],[121.4802879,18.1184014],[121.4803791,18.1184728],[121.48054,18.1185365],[121.4806822,18.1185952],[121.4808968,18.1185799],[121.4810175,18.1186156],[121.4811462,18.1187991],[121.4812803,18.1189597],[121.4814976,18.1191025],[121.4816076,18.1191866],[121.4816746,18.1192784],[121.4818731,18.1193956],[121.4818972,18.1195078],[121.4819965,18.1197066],[121.4820957,18.1198647],[121.4821172,18.1199488],[121.4821574,18.1200049],[121.4822513,18.1202828],[121.4823639,18.1205428],[121.4824283,18.1205275],[121.4826563,18.1204408],[121.4829326,18.1203337],[121.4831659,18.12027],[121.4832222,18.12027],[121.4832786,18.1203159],[121.4833081,18.1205632],[121.4833778,18.120683],[121.4834878,18.1207951],[121.4836353,18.120971],[121.4836997,18.1210169],[121.4837426,18.1210577],[121.4837775,18.1211724],[121.4838311,18.121203],[121.4838284,18.1212999],[121.4838445,18.1214299],[121.4838445,18.1215854],[121.4839035,18.1217409],[121.4838874,18.1218123],[121.4838365,18.1218607],[121.4837185,18.1218632],[121.483705,18.1219499],[121.4837909,18.1220646],[121.483925,18.1221564],[121.4839411,18.1222788],[121.4839733,18.122396],[121.4840484,18.122475],[121.4840376,18.1225515],[121.4839491,18.1226203],[121.4838096,18.1226637],[121.4836782,18.1227886],[121.4836004,18.1228778],[121.4835307,18.122888],[121.4835012,18.1229568],[121.4835387,18.123018],[121.4835495,18.1230945],[121.4834905,18.1231429],[121.4834529,18.1233035],[121.4833993,18.1233468],[121.4832598,18.1234284],[121.4831552,18.1235278],[121.4830372,18.1236553],[121.4830318,18.1237726],[121.4829782,18.1238159],[121.482887,18.1240198],[121.4829326,18.1241141],[121.4829969,18.1241294],[121.483064,18.124081],[121.4831847,18.1239306],[121.4833,18.1238975],[121.4833456,18.1239459],[121.4833993,18.1240784],[121.4835173,18.1242747],[121.4835066,18.124341],[121.483461,18.1243894],[121.4835146,18.1245296],[121.483587,18.1246291],[121.4837453,18.1246112],[121.4838579,18.1246342],[121.4839089,18.1247285],[121.483992,18.1249681],[121.4840135,18.1252765],[121.4839706,18.1254065],[121.4839491,18.1255799],[121.483984,18.1257634],[121.4840886,18.1260591],[121.4840806,18.1261356],[121.4839652,18.1261534],[121.4839277,18.1262223],[121.4839599,18.1263879],[121.4840403,18.1266403],[121.4841047,18.126834],[121.4840806,18.1268825],[121.4839357,18.1269742],[121.4838472,18.1270838],[121.483815,18.1271654],[121.4838365,18.1272725],[121.4838177,18.1274713],[121.4838418,18.1277466],[121.4838874,18.1278511],[121.4840001,18.1279607],[121.4840457,18.1280882],[121.4840081,18.1281851],[121.4839303,18.1282182],[121.4837426,18.1282998],[121.4836246,18.1284349],[121.483638,18.128519],[121.483764,18.1287739],[121.4838284,18.1289192],[121.4838499,18.1290696],[121.4838311,18.1292608],[121.4838392,18.1294647],[121.4837855,18.1295896],[121.4837721,18.1297196],[121.4838499,18.1298955],[121.4838579,18.1299872],[121.4838445,18.1301555],[121.483925,18.1303798],[121.4839089,18.1305582],[121.483925,18.1306984],[121.4839491,18.1308972],[121.4839599,18.1310782],[121.4839518,18.1312618],[121.4839652,18.1314045],[121.4839625,18.1315523],[121.4840403,18.1317537],[121.4840832,18.1317384],[121.4841396,18.1317027],[121.4842764,18.1317104],[121.4843219,18.1317894],[121.4842308,18.1319118],[121.4842683,18.1319525],[121.4843354,18.1319908],[121.4843675,18.1320698],[121.4843622,18.1321947],[121.4843783,18.1322814],[121.4843354,18.1323629],[121.4843219,18.1324878],[121.4842522,18.1325465],[121.4841986,18.1326357],[121.4841825,18.1327198],[121.4841905,18.1327784],[121.484161,18.1328804],[121.4841664,18.1329301],[121.4841704,18.1330728],[121.4841999,18.13312],[121.4842173,18.1332156],[121.4842388,18.1333621],[121.484267,18.1335393],[121.484271,18.1336706],[121.4842911,18.1338324],[121.4843179,18.1340427],[121.4843555,18.1340555],[121.4844185,18.134058],[121.4844494,18.1341281],[121.4844668,18.1342823],[121.4845352,18.134355],[121.4845593,18.1344646],[121.4846693,18.1346264],[121.4846854,18.1346965],[121.4847042,18.1348227],[121.484731,18.1348711],[121.4847176,18.1349604],[121.484798,18.1351299],[121.4848182,18.135191],[121.484794,18.1353006],[121.4848021,18.1353401],[121.4848731,18.1354],[121.4848718,18.1354944],[121.4848785,18.1356282],[121.4849053,18.1357467],[121.4849241,18.135827],[121.4849362,18.1359098],[121.4849737,18.1359774],[121.4849965,18.1360921],[121.485018,18.1361469],[121.4850783,18.1361635],[121.4851347,18.1361928],[121.4851789,18.1362794],[121.4852151,18.1363508],[121.485301,18.1364018],[121.4853761,18.1364719],[121.4853787,18.1365165],[121.4854096,18.1366172],[121.485474,18.136672],[121.4855598,18.1367535],[121.4855893,18.136802],[121.4856309,18.1369396],[121.4856175,18.1369715],[121.4855102,18.1370798],[121.4854082,18.1371626],[121.4853117,18.1372595],[121.4852674,18.137285],[121.4852647,18.1373271],[121.4852768,18.1374099],[121.485313,18.137443],[121.4853519,18.1374927],[121.485364,18.1375769],[121.4853251,18.1376368],[121.4853251,18.137689],[121.4853291,18.1378114],[121.4853559,18.1378305],[121.4853747,18.1379197],[121.4854364,18.1380866],[121.4854847,18.1382332],[121.4854807,18.1382931],[121.485415,18.138511],[121.4853989,18.138613],[121.4853425,18.138706],[121.4852661,18.1388755],[121.4852165,18.1390119],[121.4851695,18.1390591],[121.4850555,18.1391279],[121.4850448,18.1391814],[121.4850757,18.1392834],[121.4850676,18.1394541],[121.4850515,18.1396695],[121.4850958,18.1397332],[121.4850931,18.1397727],[121.4850515,18.1398645],[121.485018,18.1399614],[121.4850005,18.1401054],[121.4850126,18.1401793],[121.4850435,18.1402405],[121.4850327,18.1402927],[121.4849898,18.1404367],[121.4849952,18.140489],[121.4850287,18.1405616],[121.4850435,18.1406534],[121.4850529,18.1407859],[121.4850314,18.1408662],[121.4850153,18.1409465],[121.4850073,18.1410599],[121.4849013,18.1413556],[121.4849254,18.1414703],[121.4850301,18.1416334],[121.4850059,18.1417405],[121.485014,18.1419699],[121.4849684,18.1420515],[121.4847082,18.1421228],[121.4843675,18.1420693],[121.4841637,18.1421024],[121.4840001,18.142212],[121.4839089,18.1422222],[121.4837694,18.1421534],[121.4836943,18.1420769],[121.483646,18.1419469],[121.4834395,18.1419164],[121.4832491,18.1417966],[121.4830506,18.1417889],[121.4829165,18.1419011],[121.4828414,18.1421075],[121.4827287,18.1421993],[121.4825034,18.1422554],[121.4822432,18.142523],[121.4822566,18.1426479],[121.4823237,18.1429283],[121.4822969,18.143043],[121.4820957,18.1431857],[121.4819509,18.1433106],[121.4817309,18.1434023],[121.4817578,18.143461],[121.4818516,18.1435374],[121.4817819,18.143619],[121.4817712,18.143721],[121.4819401,18.1438076],[121.4820635,18.1438688],[121.4820501,18.1439503],[121.4820099,18.1441237],[121.4819697,18.1442409],[121.481908,18.144325],[121.4817846,18.144376]]}},{"type":"Feature","properties":{"id":"LAS-RIV-0005","name":"stream","waterway":"stream","class":"tributary","osm_id":565471336,"data_source":"OpenStreetMap","length_km":0.091},"geometry":{"type":"LineString","coordinates":[[121.475814,18.1145062],[121.4757845,18.1144272],[121.4757778,18.1143749],[121.4757563,18.1143316],[121.4756893,18.114213],[121.4756423,18.1141366],[121.475586,18.1139517],[121.4755538,18.1138829],[121.4754318,18.1137899]]}},{"type":"Feature","properties":{"id":"LAS-RIV-0006","name":"stream","waterway":"stream","class":"tributary","osm_id":627522735,"data_source":"OpenStreetMap","length_km":0.942},"geometry":{"type":"LineString","coordinates":[[121.5802994,18.0506098],[121.5802592,18.050541],[121.5802941,18.0504543],[121.5803397,18.0503319],[121.5803397,18.050235],[121.5803021,18.0500947],[121.5802458,18.050059],[121.5801412,18.0500768],[121.5800446,18.0501482],[121.5799561,18.0502681],[121.5799293,18.0503446],[121.5799293,18.0504441],[121.5799132,18.0505104],[121.5798515,18.0505563],[121.5797603,18.0506302],[121.5797281,18.0507067],[121.5796611,18.0508342],[121.5795565,18.0508904],[121.579417,18.0509133],[121.5792426,18.0509235],[121.5791649,18.0508955],[121.5790683,18.0508394],[121.5790576,18.0507832],[121.5791407,18.0507042],[121.5792453,18.0506761],[121.5793151,18.0506098],[121.5793419,18.0505308],[121.579307,18.0503982],[121.5792426,18.0502197],[121.5791514,18.0501329],[121.5790227,18.0500794],[121.5789208,18.0500794],[121.5788376,18.0501074],[121.5787464,18.0501814],[121.5787169,18.0503038],[121.578733,18.0504135],[121.5788028,18.0505486],[121.5789101,18.050694],[121.5789208,18.0507552],[121.5788832,18.0508215],[121.5787974,18.05087],[121.5786928,18.0508547],[121.5785265,18.0507756],[121.5784004,18.0506889],[121.5782851,18.050592],[121.5781859,18.0504492],[121.5781456,18.0502936],[121.5780973,18.0501712],[121.5780196,18.0500921],[121.5778854,18.0500003],[121.5776172,18.0498907],[121.5774375,18.0498346],[121.5773249,18.0497683],[121.5771183,18.0496102],[121.5769976,18.0494954],[121.5769547,18.0494367],[121.5769735,18.049373],[121.5770191,18.0493526],[121.577113,18.0493628],[121.5773088,18.0494036],[121.5774348,18.0494265],[121.5775207,18.0494163],[121.5775421,18.0493908],[121.5775663,18.0493067],[121.5775555,18.0492072],[121.577408,18.0491001],[121.5772605,18.0490313],[121.5771291,18.04897],[121.5770781,18.0488782],[121.5770781,18.0487839],[121.5771183,18.0487227],[121.5771827,18.0486666],[121.577231,18.0486181],[121.577231,18.0485671]]}},{"type":"Feature","properties":{"id":"LAS-RIV-0007","name":"stream","waterway":"stream","class":"tributary","osm_id":627527709,"data_source":"OpenStreetMap","length_km":1.335},"geometry":{"type":"LineString","coordinates":[[121.5698871,18.0425587],[121.5699501,18.0425752],[121.5701419,18.0425829],[121.5702519,18.0425765],[121.5703149,18.0425625],[121.5704101,18.042537],[121.5704986,18.0424936],[121.5705644,18.0424401],[121.5706287,18.0423712],[121.5706904,18.0422998],[121.5707655,18.0422552],[121.5708312,18.0422271],[121.5709305,18.0421927],[121.5710109,18.0421685],[121.5711035,18.0421404],[121.5711504,18.0421481],[121.5711692,18.042185],[121.5711826,18.0422501],[121.5712108,18.0423604],[121.5712161,18.0424688],[121.5712108,18.0425204],[121.5711799,18.0425778],[121.5711316,18.0426428],[121.57107,18.0427308],[121.5709318,18.0428826],[121.5708487,18.0429718],[121.5708165,18.043056],[121.5708192,18.0431376],[121.5708339,18.0432179],[121.5708581,18.0432677],[121.5708943,18.0432983],[121.5709372,18.0433136],[121.5709828,18.043311],[121.5710351,18.0433046],[121.5710847,18.0432817],[121.5711652,18.0432154],[121.5713006,18.0430687],[121.5713704,18.043019],[121.5714562,18.0429909],[121.5715353,18.0429935],[121.5716238,18.0430139],[121.5716936,18.0430777],[121.5717445,18.0431784],[121.5717687,18.0432868],[121.5717432,18.0433518],[121.5716855,18.0434628],[121.5716708,18.0435584],[121.571703,18.0436285],[121.5717781,18.0437165],[121.5718572,18.0437943],[121.571935,18.0438606],[121.5719792,18.0438772],[121.5720288,18.0438759],[121.5720946,18.0438466],[121.5721589,18.0438147],[121.5722032,18.043742],[121.5722595,18.0436464],[121.5723118,18.0435444],[121.5723534,18.0434768],[121.5723708,18.0434283],[121.5723668,18.0433748],[121.5723534,18.0433046],[121.5723467,18.0432345],[121.5723547,18.0431873],[121.5723829,18.0431554],[121.5724218,18.0431389],[121.572458,18.0431593],[121.5725237,18.043223],[121.5725921,18.0432906],[121.5726498,18.0434487],[121.5726565,18.0435405],[121.5726337,18.0435941],[121.5725881,18.0436094],[121.5725103,18.0436158],[121.572458,18.0436425],[121.5724473,18.0436706],[121.5724875,18.0437395],[121.5725894,18.0438236],[121.5726565,18.0439282],[121.5726645,18.0440034],[121.5726645,18.0440889],[121.5726484,18.0441399],[121.5726458,18.0441832],[121.5726632,18.0442164],[121.5727034,18.0442278],[121.5727973,18.044187],[121.5729663,18.0441067],[121.5731125,18.0440506],[121.5732332,18.0440366],[121.573323,18.0440608],[121.5733632,18.0440952],[121.5733901,18.0441373],[121.5733941,18.0441819],[121.5733203,18.0442572],[121.573268,18.0443031],[121.573264,18.0443515],[121.5732653,18.0444127],[121.5732385,18.0444535],[121.5731902,18.0444688],[121.5731393,18.0444803],[121.5731017,18.044525],[121.573083,18.0445683],[121.5730736,18.044618],[121.5730964,18.0446601],[121.5731272,18.0446856],[121.5731956,18.0447111],[121.5732667,18.04472],[121.5733217,18.0447073],[121.5733619,18.0446856],[121.5733901,18.0446397],[121.5734196,18.0445747],[121.5734638,18.044516],[121.5735336,18.0444739],[121.5736221,18.0444497],[121.5737092,18.0444395],[121.5737589,18.0444306],[121.5737964,18.0444051],[121.5738246,18.0443541],[121.5738581,18.0443133],[121.5738983,18.0442916],[121.5739399,18.0442814],[121.5739962,18.0442801],[121.5740553,18.0442827],[121.5740888,18.0443146],[121.5741156,18.0443796],[121.574133,18.0445339],[121.5741464,18.0447239],[121.5741652,18.0448539],[121.5741773,18.044947],[121.5741786,18.0450337],[121.5741424,18.0451166],[121.5740794,18.0452174],[121.5740566,18.0452849],[121.574062,18.045364],[121.5740928,18.0454902],[121.5741451,18.0455629],[121.5741907,18.045568],[121.5742403,18.04554],[121.5742779,18.0454494],[121.574302,18.0453627],[121.5743557,18.0452939],[121.5744039,18.0452199],[121.574416,18.0451536],[121.5744227,18.0450847],[121.5744536,18.0450261],[121.5745059,18.0449917],[121.5745474,18.0449853],[121.5745997,18.0450159],[121.5746547,18.0450694],[121.5747003,18.0451447],[121.5747647,18.0453015],[121.5748116,18.0454405]]}},{"type":"Feature","properties":{"id":"LAS-RIV-0008","name":"stream","waterway":"stream","class":"tributary","osm_id":631839511,"data_source":"OpenStreetMap","length_km":0.335},"geometry":{"type":"LineString","coordinates":[[121.5966368,18.0642631],[121.5975434,18.0640973],[121.597935,18.0640081],[121.598112,18.0640259],[121.5990856,18.0646532],[121.5994984,18.064914]]}},{"type":"Feature","properties":{"id":"LAS-RIV-0009","name":"stream","waterway":"stream","class":"tributary","osm_id":636061670,"data_source":"OpenStreetMap","length_km":0.247},"geometry":{"type":"LineString","coordinates":[[121.5998675,18.0655418],[121.6000429,18.0659417],[121.6001984,18.0662145],[121.6008475,18.0668036],[121.6010245,18.0668903],[121.6011935,18.0668597],[121.6014666,18.0667751]]}},{"type":"Feature","properties":{"id":"LAS-RIV-0010","name":"stream","waterway":"stream","class":"tributary","osm_id":946388862,"data_source":"OpenStreetMap","length_km":0.294},"geometry":{"type":"LineString","coordinates":[[121.5646729,18.0939528],[121.5646863,18.0937743],[121.5646863,18.0936417],[121.5646595,18.0933715],[121.5646434,18.0932771],[121.5646675,18.0931446],[121.5647534,18.0930706],[121.5648392,18.0930298],[121.5649357,18.0930273],[121.5649921,18.09304],[121.5650752,18.0931012],[121.5651637,18.0931624],[121.5652281,18.0931802],[121.5652925,18.0932516],[121.5653032,18.0933766],[121.5653032,18.0934735],[121.5652978,18.0935525],[121.5652925,18.0936137],[121.5653139,18.0936927],[121.5653408,18.0937921],[121.5653408,18.0938661],[121.5653059,18.0939553],[121.5652415,18.0940038],[121.565153,18.0940089],[121.5650699,18.0940114],[121.5649867,18.0940318],[121.564917,18.0940802]]}},{"type":"Feature","properties":{"id":"LAS-RIV-0011","name":"stream","waterway":"stream","class":"tributary","osm_id":946388863,"data_source":"OpenStreetMap","length_km":1.187},"geometry":{"type":"LineString","coordinates":[[121.5593433,18.0946666],[121.5595767,18.0944958],[121.5598878,18.0944117],[121.559979,18.0944576],[121.5600595,18.0945749],[121.5601319,18.0946208],[121.5601882,18.0945162],[121.5602016,18.0944244],[121.5603626,18.0944091],[121.5604484,18.0944678],[121.5605369,18.094506],[121.5605986,18.0944831],[121.5606147,18.0943633],[121.5605691,18.0942077],[121.5604886,18.0941542],[121.5603143,18.0940701],[121.5602607,18.093963],[121.560325,18.0938763],[121.5604511,18.093861],[121.5605852,18.0939069],[121.5606683,18.0939553],[121.5609661,18.0940063],[121.5610975,18.0939477],[121.561127,18.0938635],[121.5611136,18.093759],[121.5609822,18.0935882],[121.5609392,18.0934658],[121.5609741,18.0933766],[121.5610653,18.0932822],[121.5612906,18.0932414],[121.5614167,18.0932491],[121.5615508,18.0933256],[121.5616983,18.0934097],[121.5617546,18.0934097],[121.5617922,18.0932975],[121.5617841,18.0931675],[121.5618271,18.0930579],[121.5618995,18.0930349],[121.561996,18.093091],[121.5620577,18.0931777],[121.5620872,18.0934199],[121.5623179,18.0936111],[121.5624091,18.0936392],[121.562452,18.0936162],[121.5624708,18.0935525],[121.5624708,18.0935015],[121.5624627,18.0934327],[121.5624547,18.0933766],[121.5624735,18.0933358],[121.5625271,18.0933128],[121.5625969,18.0933307],[121.5626451,18.0933995],[121.5627015,18.0935448],[121.5627658,18.0937412],[121.5628034,18.093787],[121.5628329,18.0937972],[121.5629107,18.0937972],[121.5629831,18.0936774],[121.5630019,18.0935805],[121.5630072,18.0935015],[121.5630126,18.093448],[121.5630582,18.0933485],[121.5631011,18.0932771],[121.5631574,18.0931981],[121.5632057,18.093165],[121.5632862,18.093165],[121.5633613,18.0932363],[121.5633774,18.0933409],[121.5633211,18.0934505],[121.5632889,18.0935219],[121.5632379,18.0935933],[121.5632191,18.0936443],[121.5632299,18.0937284],[121.5632862,18.0937921],[121.5633532,18.0938406],[121.5634364,18.0938533],[121.5635222,18.0938533],[121.5635866,18.0938202],[121.5636483,18.0937463],[121.5637207,18.0936443],[121.5637878,18.0936009],[121.5638602,18.0935933],[121.5639514,18.0936264],[121.5640694,18.0937488],[121.5641981,18.0938916],[121.5642598,18.0939757],[121.5643054,18.0940624],[121.5643349,18.0941593],[121.5643644,18.0942179],[121.5644395,18.0942485],[121.5645334,18.0942332],[121.5645683,18.0942026],[121.5646005,18.0941516],[121.5646192,18.0940904],[121.5646487,18.0940191],[121.5646729,18.0939528],[121.5646997,18.0939273],[121.564748,18.0939094],[121.5648016,18.0939222],[121.5648526,18.0939681],[121.5648767,18.0940293],[121.564917,18.0940802]]}},{"type":"Feature","properties":{"id":"LAS-RIV-0012","name":"stream","waterway":"stream","class":"tributary","osm_id":946388864,"data_source":"OpenStreetMap","length_km":1.007},"geometry":{"type":"LineString","coordinates":[[121.5698308,18.0915587],[121.5698764,18.0915715],[121.5699273,18.0915715],[121.5699998,18.0915613],[121.5700453,18.0915485],[121.5700963,18.0915205],[121.570158,18.091472],[121.5702143,18.0914669],[121.570268,18.091472],[121.5703806,18.091495],[121.5704772,18.0915256],[121.5705684,18.0915613],[121.5707132,18.0915766],[121.5708125,18.0915817],[121.5709412,18.0916021],[121.571019,18.0916403],[121.5710485,18.0916989],[121.5710807,18.0917984],[121.5710968,18.0918698],[121.5711343,18.0919564],[121.5712523,18.0919692],[121.5713114,18.091959],[121.5713677,18.0919284],[121.5714455,18.0918749],[121.5714991,18.0918137],[121.5715635,18.0916811],[121.5716144,18.091546],[121.5717056,18.0914465],[121.57177,18.0914134],[121.5718988,18.0913522],[121.5719068,18.0913139],[121.571888,18.091263],[121.5718237,18.091212],[121.5717486,18.0911967],[121.5716788,18.0911967],[121.5716064,18.0912196],[121.5715259,18.0912324],[121.5713945,18.0912273],[121.5713516,18.0911814],[121.5713274,18.0911176],[121.5713301,18.0910513],[121.5713757,18.0909748],[121.5714481,18.0909264],[121.5715098,18.0908933],[121.5715876,18.0908831],[121.5716547,18.0908882],[121.5717781,18.0909009],[121.5718961,18.0908882],[121.5719658,18.090855],[121.5720704,18.0907428],[121.572175,18.090419],[121.5721858,18.0903247],[121.5722421,18.0902125],[121.5723172,18.0901488],[121.5724701,18.0900952],[121.5724996,18.0900646],[121.5725559,18.0900111],[121.572639,18.0899295],[121.5727115,18.0899015],[121.5728027,18.0899066],[121.5728778,18.0899321],[121.5729743,18.0899805],[121.573087,18.0899932],[121.5731728,18.0899652],[121.573205,18.0898836],[121.573272,18.0897791],[121.5733311,18.0897408],[121.5733847,18.089751],[121.5734491,18.0898224],[121.5734598,18.0898989],[121.5734571,18.0899703],[121.5734491,18.0900315],[121.5734652,18.0900672],[121.5735349,18.0900876],[121.5735912,18.0900774],[121.5736449,18.0900162],[121.5736636,18.0899066],[121.5736636,18.0898122],[121.5736717,18.0897128],[121.5736797,18.0896388],[121.5736958,18.0895879],[121.573728,18.0895624],[121.5737709,18.0895573],[121.5738246,18.0895649],[121.5738863,18.089672],[121.5739225,18.0900047],[121.5739131,18.0900659],[121.5739238,18.0901067],[121.5739694,18.0901424],[121.5740164,18.0901424],[121.5740445,18.0901284],[121.574074,18.0901194],[121.5740888,18.0901194],[121.574121,18.0901271],[121.5741558,18.0901411],[121.5741907,18.0901322],[121.5742417,18.0900812],[121.5742819,18.0900366],[121.5743114,18.0900238],[121.5743396,18.0900226],[121.5743932,18.0900366],[121.5744375,18.0900914],[121.5744643,18.0901424],[121.5745018,18.0901934],[121.5745233,18.0902074],[121.5745823,18.0902049],[121.574652,18.0901883],[121.5746789,18.0901896],[121.5747218,18.0902049],[121.5747862,18.0902673],[121.5748224,18.0902966],[121.5748666,18.0903527],[121.5749216,18.0904229],[121.5750101,18.0904981]]}},{"type":"Feature","properties":{"id":"LAS-RIV-0013","name":"stream","waterway":"stream","class":"tributary","osm_id":946388865,"data_source":"OpenStreetMap","length_km":1.126},"geometry":{"type":"LineString","coordinates":[[121.564917,18.0940802],[121.5649572,18.0941899],[121.5649813,18.094274],[121.5650108,18.0943403],[121.5650296,18.0944321],[121.565043,18.0944882],[121.5650833,18.094557],[121.5651503,18.0946004],[121.5652093,18.0946157],[121.5653086,18.0946004],[121.5653676,18.0945749],[121.565499,18.0944066],[121.5656868,18.094172],[121.5657967,18.0940853],[121.5658718,18.0940471],[121.5659818,18.094014],[121.5660569,18.0940293],[121.5661454,18.0940675],[121.5662339,18.0941414],[121.5663815,18.0942179],[121.5665343,18.0942434],[121.5666229,18.0942256],[121.5667248,18.0941848],[121.5667704,18.0941134],[121.5668052,18.0940038],[121.5668187,18.093889],[121.5667918,18.093782],[121.5667275,18.0937055],[121.5666577,18.0936647],[121.5665612,18.0936162],[121.5664297,18.0935601],[121.56636,18.0933536],[121.5663332,18.0933103],[121.56636,18.0932389],[121.5664002,18.0931879],[121.56647,18.0930961],[121.5665263,18.093012],[121.5665585,18.0929125],[121.5666175,18.0927596],[121.5666631,18.0926397],[121.5667328,18.0925964],[121.5667945,18.0925989],[121.5668723,18.0926423],[121.5669206,18.0926805],[121.5669742,18.0927698],[121.5670922,18.0929125],[121.5672317,18.0930298],[121.5674436,18.0931318],[121.5675965,18.0932108],[121.5676635,18.0932669],[121.5677977,18.0933128],[121.5678996,18.0933026],[121.5680122,18.0932491],[121.5680766,18.0931802],[121.568141,18.0930961],[121.5681598,18.0930247],[121.5681598,18.0929533],[121.5682107,18.0928845],[121.5682912,18.0928412],[121.5683877,18.0928259],[121.5684924,18.0928386],[121.5685943,18.0928896],[121.5687203,18.0929712],[121.5688544,18.0930604],[121.5688974,18.093114],[121.5689349,18.093193],[121.5689564,18.0932695],[121.5690047,18.0933332],[121.5690637,18.0933638],[121.5691763,18.0933638],[121.5692729,18.0933358],[121.5693319,18.0933256],[121.5693909,18.0933281],[121.5694472,18.0933281],[121.569517,18.0932873],[121.5695357,18.0931726],[121.5694982,18.0930604],[121.5694338,18.0929406],[121.5693775,18.0928233],[121.5693399,18.092655],[121.5692514,18.0925505],[121.5692273,18.0924766],[121.5692192,18.0923873],[121.5693131,18.092293],[121.5695599,18.0922598],[121.5696886,18.0922522],[121.5698281,18.092214],[121.5699139,18.0921808],[121.569981,18.0921094],[121.5699783,18.0920278],[121.5699166,18.0919335],[121.5698817,18.0918825],[121.5698388,18.0918111],[121.56982,18.0917117],[121.5698147,18.0916581],[121.5698308,18.0915587]]}},{"type":"Feature","properties":{"id":"LAS-RIV-0014","name":"stream","waterway":"stream","class":"tributary","osm_id":946388866,"data_source":"OpenStreetMap","length_km":0.751},"geometry":{"type":"LineString","coordinates":[[121.5949684,18.0728768],[121.5950087,18.0728079],[121.5950838,18.0727977],[121.5951508,18.0728309],[121.5952179,18.0728742],[121.5953439,18.0729048],[121.5954298,18.0729252],[121.5957221,18.0730068],[121.5958106,18.0730629],[121.5958938,18.0731292],[121.5959501,18.0731394],[121.5959984,18.0730935],[121.5960601,18.0730094],[121.5961325,18.0729558],[121.5961996,18.0729762],[121.5963122,18.0730323],[121.59639,18.0731012],[121.5964061,18.0732337],[121.5963954,18.0733332],[121.5963444,18.0734454],[121.5962881,18.0736086],[121.5961352,18.0737667],[121.5960896,18.0738177],[121.5960735,18.0738916],[121.5961432,18.0740115],[121.5962613,18.0740981],[121.5964088,18.0741415],[121.5965241,18.0741313],[121.5966475,18.0741491],[121.5966958,18.0742231],[121.5967548,18.0743812],[121.5967762,18.0748045],[121.596787,18.0749957],[121.5968272,18.0750849],[121.5968943,18.0751053],[121.5969533,18.0750441],[121.5969962,18.07496],[121.5970552,18.0749167],[121.5971437,18.0748988],[121.5972429,18.0749498],[121.5972966,18.0750161],[121.5973502,18.0751104],[121.5973797,18.0751793],[121.5974414,18.0753272],[121.5975165,18.0754139],[121.5975729,18.0754496],[121.5976506,18.07547],[121.5976962,18.0755414],[121.5976962,18.0756204],[121.5976372,18.0756587],[121.5974843,18.0756969],[121.5973985,18.0757453],[121.5973395,18.0758575],[121.5973476,18.0759723],[121.5973958,18.0760207],[121.5974522,18.0760641],[121.5974522,18.076161],[121.5974307,18.0762502],[121.5974253,18.0763089],[121.5974951,18.0764389],[121.5975326,18.0765256],[121.5975863,18.076648]]}},{"type":"Feature","properties":{"id":"LAS-RIV-0015","name":"stream","waterway":"stream","class":"tributary","osm_id":946388867,"data_source":"OpenStreetMap","length_km":2.246},"geometry":{"type":"LineString","coordinates":[[121.5868226,18.079287],[121.5868413,18.0792513],[121.5869728,18.0792054],[121.5870908,18.0791901],[121.587123,18.0791723],[121.5871149,18.0791136],[121.5870935,18.0790881],[121.5870425,18.0790856],[121.5868494,18.079083],[121.5867609,18.079078],[121.5867287,18.0790448],[121.5866643,18.0789862],[121.5865463,18.0789428],[121.5864685,18.0788765],[121.5864524,18.0788102],[121.5864712,18.0787567],[121.586557,18.0786878],[121.5866858,18.0786343],[121.5870023,18.0785654],[121.5870506,18.0784991],[121.5871552,18.0784125],[121.587241,18.0783564],[121.587308,18.0782059],[121.5874207,18.078007],[121.5874583,18.0779637],[121.5874422,18.0778923],[121.5874475,18.0778056],[121.5874878,18.0777572],[121.587536,18.0777164],[121.5876004,18.0776858],[121.5877077,18.0776603],[121.5877828,18.0776195],[121.5878043,18.0775634],[121.5877935,18.0774588],[121.5877238,18.0773874],[121.5876514,18.0773441],[121.587536,18.0772982],[121.587469,18.0772701],[121.5874287,18.0772115],[121.5873912,18.0771656],[121.5873429,18.0771401],[121.5873134,18.0771044],[121.5873161,18.0770764],[121.5873644,18.0770228],[121.5874395,18.0769922],[121.5874931,18.0769999],[121.5875897,18.0770585],[121.5876728,18.0770917],[121.5877935,18.0771299],[121.5879035,18.0771044],[121.587992,18.0771095],[121.5881395,18.0771631],[121.5881851,18.0771987],[121.5882334,18.0772701],[121.5882924,18.0773033],[121.5883595,18.0772905],[121.5884078,18.0772523],[121.5884453,18.0771732],[121.5884453,18.0770738],[121.5884614,18.0769463],[121.5884989,18.0768494],[121.5885392,18.076829],[121.5885955,18.0768214],[121.5886599,18.0768392],[121.5887216,18.0768673],[121.5887859,18.076903],[121.5888825,18.0769489],[121.5889522,18.0769795],[121.5890568,18.0770101],[121.5891239,18.0769948],[121.5892312,18.0769744],[121.5893036,18.0769999],[121.5893385,18.0770432],[121.5893492,18.0770942],[121.5892902,18.0771554],[121.5892231,18.0772089],[121.5892124,18.0772905],[121.5892419,18.0773415],[121.5892956,18.0773619],[121.5893707,18.0773517],[121.5894458,18.0773262],[121.5895182,18.0772854],[121.5896603,18.0771936],[121.589781,18.0771223],[121.589832,18.0770509],[121.5897891,18.0769234],[121.5897596,18.0768724],[121.589714,18.0768571],[121.589663,18.0768698],[121.5895691,18.0768902],[121.5895209,18.0768851],[121.5894833,18.0768316],[121.589478,18.0767704],[121.5894994,18.0766531],[121.5895343,18.076625],[121.5895933,18.0766607],[121.5896764,18.0766862],[121.5897354,18.0766607],[121.5897435,18.0766199],[121.5897301,18.0765791],[121.5896925,18.0765154],[121.5897033,18.0764746],[121.5897623,18.0764491],[121.5898105,18.0764491],[121.5898588,18.0764568],[121.5899473,18.0764746],[121.5900385,18.0765052],[121.5901646,18.0765307],[121.5902612,18.0765358],[121.5903282,18.0765536],[121.5903631,18.0766072],[121.5903819,18.0766429],[121.5903926,18.0766837],[121.5904033,18.0767525],[121.5903845,18.076829],[121.5903577,18.076903],[121.590355,18.0769871],[121.5903899,18.0770458],[121.5904489,18.0770866],[121.5905321,18.0770942],[121.5906098,18.0770534],[121.5906689,18.0769846],[121.5907145,18.0769132],[121.5907654,18.0768214],[121.5908566,18.0767194],[121.5909022,18.076625],[121.5909317,18.0765358],[121.5909746,18.0764822],[121.591047,18.0764619],[121.5911034,18.076365],[121.5911275,18.0762859],[121.591208,18.0762298],[121.5913019,18.0762324],[121.5913555,18.0762579],[121.5914011,18.0762961],[121.5914655,18.0763165],[121.591495,18.0762987],[121.591495,18.0762375],[121.5914762,18.076161],[121.591444,18.07611],[121.5913957,18.0760182],[121.5914118,18.0759468],[121.5914896,18.0758473],[121.591562,18.0758499],[121.5916371,18.0758881],[121.59168,18.0759697],[121.5917176,18.0760462],[121.5917337,18.0761125],[121.5917605,18.0761737],[121.5918276,18.0762349],[121.5919134,18.0762222],[121.5919939,18.0761329],[121.5920502,18.0760284],[121.5921012,18.0759136],[121.5921012,18.0758193],[121.5920716,18.0757453],[121.5920314,18.0756816],[121.5919536,18.0756128],[121.5919107,18.0755949],[121.5918383,18.0755516],[121.5918142,18.0754955],[121.5917793,18.0754292],[121.5917471,18.0754113],[121.5916827,18.0754139],[121.5916479,18.075419],[121.5915701,18.0754088],[121.5915459,18.0753756],[121.5915352,18.0753399],[121.5915513,18.0752966],[121.5916023,18.0752328],[121.5917471,18.075164],[121.5918624,18.0751053],[121.5919965,18.0748453],[121.5921119,18.0747203],[121.5921816,18.0746948],[121.5922594,18.0747025],[121.5923882,18.0746999],[121.5924901,18.0746515],[121.5925169,18.0745979],[121.5925115,18.0745112],[121.592482,18.0744883],[121.5924042,18.0744908],[121.5923586,18.074501],[121.5923157,18.0744883],[121.592297,18.0743863],[121.5923345,18.0743531],[121.5923962,18.0743174],[121.5924579,18.0743021],[121.5925544,18.0742664],[121.5926027,18.0742052],[121.5926564,18.0741517],[121.5926966,18.0741338],[121.5928575,18.0741134],[121.5929139,18.074116],[121.5929836,18.074167],[121.5930265,18.0742078],[121.5930882,18.074195],[121.5931123,18.0741466],[121.593107,18.0740905],[121.5931016,18.073986],[121.5931177,18.0738916],[121.5932009,18.0737794],[121.5932947,18.073731],[121.5934101,18.073731],[121.5934718,18.073759],[121.5935442,18.0738024],[121.5935951,18.0738661],[121.5936166,18.0739605],[121.5936273,18.0740166],[121.5936354,18.074065],[121.593689,18.0741466],[121.5937668,18.0741517],[121.5938339,18.0741262],[121.5938741,18.0740446],[121.593917,18.073912],[121.5938956,18.0736698],[121.5939304,18.0735576],[121.594027,18.0734887],[121.5941128,18.0734275],[121.5941209,18.0733612],[121.5941423,18.0732159],[121.5942094,18.07317],[121.5942711,18.0731776],[121.5943354,18.0732286],[121.5944266,18.0732796],[121.5945286,18.0733306],[121.5946224,18.0733842],[121.5947351,18.073476],[121.5948665,18.0735397],[121.5950033,18.0735754],[121.5950704,18.0735703],[121.5951347,18.073527],[121.5951481,18.0734428],[121.5951455,18.0733077],[121.5950972,18.073147],[121.5950596,18.0730884],[121.5949684,18.0728768]]}},{"type":"Feature","properties":{"id":"LAS-RIV-0016","name":"stream","waterway":"stream","class":"tributary","osm_id":946388868,"data_source":"OpenStreetMap","length_km":1.178},"geometry":{"type":"LineString","coordinates":[[121.5835556,18.0849602],[121.5835798,18.084899],[121.5836495,18.0848251],[121.5837353,18.0847486],[121.583899,18.0847052],[121.5839419,18.0846415],[121.5839392,18.0845472],[121.5839043,18.0844987],[121.5838373,18.0844605],[121.5837648,18.0844146],[121.5837058,18.0843432],[121.583679,18.0842641],[121.5837085,18.0841621],[121.5837514,18.0841316],[121.5838829,18.0840729],[121.5840358,18.0840423],[121.5841404,18.0839913],[121.5841591,18.0839072],[121.5841967,18.0838383],[121.584253,18.0837695],[121.5843603,18.0837109],[121.5844595,18.083693],[121.5845829,18.0836701],[121.5846419,18.0836293],[121.5846392,18.0835145],[121.5846258,18.0834151],[121.5846688,18.0833182],[121.5847439,18.0833233],[121.5848002,18.0833666],[121.5848672,18.0834202],[121.5849316,18.0834151],[121.5849826,18.0833794],[121.5850121,18.0833182],[121.585055,18.0832213],[121.5851086,18.083229],[121.5851569,18.0833003],[121.5851516,18.0833513],[121.5851569,18.0834406],[121.5852159,18.0834788],[121.5852722,18.0834661],[121.5853339,18.083387],[121.5853983,18.0832009],[121.5854573,18.0828439],[121.585511,18.0827675],[121.5856156,18.082742],[121.5856719,18.08277],[121.5857014,18.0828184],[121.5857685,18.0828592],[121.5858114,18.0828592],[121.5858677,18.0828567],[121.5858972,18.0827471],[121.5858972,18.0826553],[121.5858892,18.0825278],[121.5858436,18.0824105],[121.5857846,18.0823493],[121.5857255,18.0822983],[121.5857202,18.0821989],[121.5857363,18.0821275],[121.5857738,18.0820867],[121.5858516,18.0820714],[121.5859321,18.0821045],[121.5859884,18.0821147],[121.5860581,18.0821122],[121.5860903,18.0820688],[121.5860876,18.0819719],[121.5860689,18.0819082],[121.5860367,18.0818291],[121.5860608,18.0817705],[121.5861118,18.0817527],[121.5861976,18.081768],[121.5862995,18.0817782],[121.5863585,18.0817068],[121.5863612,18.0816099],[121.5863076,18.0815232],[121.5863129,18.0814518],[121.5863317,18.0814033],[121.58638,18.0813498],[121.5863934,18.0813013],[121.5863746,18.0812147],[121.5863264,18.0811637],[121.5862888,18.0810974],[121.5863344,18.0810413],[121.5863854,18.0810464],[121.5864363,18.0810744],[121.5864792,18.0811356],[121.5865061,18.0811917],[121.5865248,18.0812376],[121.5865973,18.0812861],[121.5866429,18.0812096],[121.5866509,18.0811356],[121.5866375,18.0810591],[121.5865383,18.0808577],[121.586431,18.0808245],[121.5863022,18.0808169],[121.5862083,18.080771],[121.5861842,18.0806996],[121.5861949,18.0806129],[121.5862566,18.0805619],[121.5863425,18.0804931],[121.5863505,18.0804013],[121.5863156,18.0803248],[121.5862754,18.0803197],[121.5862083,18.0803273],[121.5861547,18.0803375],[121.5861171,18.0803069],[121.5861145,18.080261],[121.5861601,18.0801157],[121.5861949,18.0800851],[121.5865007,18.0799984],[121.5866402,18.0799474],[121.5867072,18.0798862],[121.5867099,18.0798072],[121.586675,18.0797587],[121.5866294,18.0797128],[121.5866294,18.0796669],[121.586667,18.0796262],[121.5867501,18.0795956],[121.5868521,18.0795624],[121.5869004,18.0795216],[121.5869004,18.0794681],[121.5868628,18.0794273],[121.5868252,18.0793763],[121.5868226,18.079287]]}},{"type":"Feature","properties":{"id":"LAS-RIV-0017","name":"stream","waterway":"stream","class":"tributary","osm_id":946388869,"data_source":"OpenStreetMap","length_km":2.702},"geometry":{"type":"LineString","coordinates":[[121.5750101,18.0904981],[121.5750584,18.0904445],[121.5751281,18.0903986],[121.5751764,18.0903527],[121.5752247,18.0903017],[121.5752891,18.0902355],[121.5753105,18.0901717],[121.5753427,18.0900748],[121.5753883,18.0900417],[121.57545,18.0900417],[121.5755251,18.0901003],[121.5755331,18.0902661],[121.5755627,18.0904037],[121.5756002,18.090521],[121.575686,18.0905669],[121.5757531,18.0906103],[121.5758121,18.0906791],[121.5758872,18.0907148],[121.5759784,18.0906867],[121.576032,18.0906332],[121.5760159,18.0905848],[121.5759891,18.0904981],[121.5759999,18.0904114],[121.5760428,18.0903145],[121.5761447,18.090261],[121.5762386,18.0902508],[121.5763003,18.0902737],[121.5763968,18.0903043],[121.5764666,18.0902814],[121.5765926,18.0902023],[121.5766892,18.0901947],[121.5767482,18.0902253],[121.5767857,18.0902661],[121.5767643,18.0903323],[121.5766758,18.090419],[121.5765604,18.0904496],[121.5764505,18.0904879],[121.5763754,18.090572],[121.576421,18.0906281],[121.5764719,18.090711],[121.576484,18.0908015],[121.5765215,18.0908703],[121.5765591,18.0908894],[121.5766087,18.0908741],[121.5766717,18.0908563],[121.5767254,18.0908627],[121.5767764,18.09092],[121.57683,18.0909965],[121.5769051,18.0910309],[121.5769587,18.0910297],[121.5770271,18.0910054],[121.5770835,18.0909748],[121.5771237,18.09092],[121.5771626,18.0908512],[121.5771881,18.0907734],[121.5772243,18.0906957],[121.5772524,18.0906727],[121.5772873,18.0906753],[121.5773383,18.0906867],[121.5773691,18.0907301],[121.5773678,18.0907722],[121.5773517,18.0908206],[121.5773235,18.0908576],[121.5773034,18.0909175],[121.5773168,18.0909595],[121.5773544,18.0910067],[121.5774161,18.091022],[121.577455,18.0910003],[121.5775502,18.0909672],[121.5775958,18.090971],[121.5776373,18.0909876],[121.5776923,18.091008],[121.5777446,18.0910093],[121.5777969,18.0908971],[121.5777983,18.0908499],[121.5778264,18.0907887],[121.5778774,18.0907454],[121.5779404,18.0907224],[121.5779914,18.0907326],[121.5780236,18.0907581],[121.5780826,18.0907734],[121.5781349,18.0907913],[121.5781537,18.0908244],[121.5781336,18.0908614],[121.578096,18.0908741],[121.5780209,18.0909073],[121.5779847,18.0909494],[121.5779927,18.0909952],[121.5780075,18.0910348],[121.5780289,18.0911023],[121.5780786,18.0911826],[121.5781322,18.0912273],[121.5781818,18.0912349],[121.5782475,18.0912298],[121.5783682,18.0912043],[121.578497,18.0911418],[121.5786003,18.0910896],[121.5786391,18.0910921],[121.57867,18.0911176],[121.5787062,18.0911839],[121.578729,18.0912426],[121.5787612,18.0912757],[121.5787987,18.091291],[121.5788752,18.0912795],[121.5789275,18.0912566],[121.5789852,18.0912234],[121.5790589,18.0912018],[121.5790884,18.0912183],[121.5791152,18.0912502],[121.5791367,18.0912935],[121.5791635,18.0913547],[121.5792413,18.0914261],[121.5792815,18.0914363],[121.5793177,18.0914261],[121.5793794,18.0913917],[121.5794854,18.0913637],[121.5795404,18.09137],[121.579586,18.0913994],[121.5796718,18.0914312],[121.5797228,18.0914185],[121.5797831,18.09137],[121.5798502,18.0912081],[121.5798502,18.0911329],[121.5798394,18.0910552],[121.5798676,18.0910182],[121.5799373,18.0910144],[121.5800312,18.0910169],[121.5800647,18.0910462],[121.5800782,18.0911011],[121.5800808,18.0911329],[121.5801157,18.0911635],[121.5801734,18.0911928],[121.5802015,18.0911903],[121.580219,18.0911737],[121.5802418,18.0911227],[121.5802887,18.0910144],[121.5802954,18.090929],[121.5803142,18.0908665],[121.5803356,18.0908219],[121.5803236,18.0907747],[121.5802954,18.0907594],[121.5802632,18.0907084],[121.5802391,18.0906842],[121.5802015,18.0906804],[121.5801734,18.0906714],[121.5801452,18.0906561],[121.5801144,18.0906485],[121.5800983,18.0906408],[121.5800513,18.0906166],[121.579991,18.0905605],[121.5799454,18.0904904],[121.5799347,18.0904356],[121.5799467,18.0903795],[121.5800124,18.090326],[121.5800755,18.0902966],[121.5801412,18.0902966],[121.580219,18.0903068],[121.5802941,18.0903425],[121.5803598,18.0903833],[121.5804027,18.0904165],[121.5804416,18.0904636],[121.580459,18.0905006],[121.5804711,18.0905376],[121.5804885,18.090558],[121.5805234,18.0905567],[121.5805529,18.0905376],[121.5805717,18.0904879],[121.5805583,18.0904547],[121.580565,18.0904178],[121.5805918,18.0903884],[121.5806293,18.0903884],[121.5806803,18.0904088],[121.580734,18.090442],[121.5807688,18.0905006],[121.5807849,18.0905465],[121.5808091,18.090572],[121.5808627,18.0905771],[121.5808868,18.0905644],[121.5809512,18.0905338],[121.5809914,18.0905338],[121.5810397,18.0905414],[121.5811309,18.0905414],[121.5811658,18.0905134],[121.581206,18.0904216],[121.5812221,18.0903502],[121.5812382,18.0902865],[121.5813482,18.090187],[121.5813991,18.0901921],[121.5815654,18.0902533],[121.5816271,18.0903094],[121.5816861,18.0903298],[121.5817746,18.0903247],[121.5818095,18.0902967],[121.5818766,18.0902227],[121.5819222,18.0902023],[121.5819517,18.0901896],[121.5819919,18.0901335],[121.5819865,18.0900238],[121.5819678,18.0899474],[121.5818524,18.0898632],[121.5817961,18.0897893],[121.5818122,18.0897332],[121.5818712,18.0897128],[121.5819436,18.0896898],[121.5821931,18.0895343],[121.5822118,18.0894833],[121.5822574,18.0894349],[121.5823245,18.0894578],[121.5823996,18.0895012],[121.5824935,18.0895343],[121.58259,18.0895292],[121.5826249,18.089491],[121.5826571,18.0894247],[121.5826625,18.0893915],[121.5826732,18.0893201],[121.5827268,18.0892793],[121.5827644,18.0892997],[121.5828046,18.0893686],[121.5828851,18.0894374],[121.5830111,18.0894553],[121.5830621,18.0894374],[121.5830648,18.0894094],[121.5830353,18.0893303],[121.5829763,18.0892615],[121.5829816,18.0891825],[121.5830219,18.0891493],[121.5830702,18.0891519],[121.5831345,18.0891876],[121.583223,18.089264],[121.5832874,18.0892972],[121.5833464,18.0892946],[121.5833893,18.0892742],[121.5834028,18.0891876],[121.583384,18.0890932],[121.5833384,18.0889912],[121.5832767,18.0888765],[121.5831292,18.0887694],[121.5830728,18.0886215],[121.5830031,18.0885298],[121.5829253,18.0884864],[121.5828395,18.0884482],[121.58281,18.0884048],[121.5828261,18.0883411],[121.5828744,18.0882952],[121.5829334,18.088285],[121.583038,18.0882901],[121.5831614,18.0882875],[121.5832418,18.0882442],[121.5832821,18.0881626],[121.5832552,18.0880938],[121.5832204,18.0880606],[121.5830433,18.0879459],[121.5829816,18.0878821],[121.5829656,18.0877929],[121.5829816,18.087747],[121.5830594,18.0877113],[121.5832284,18.087668],[121.5833276,18.0876272],[121.583392,18.0875711],[121.583392,18.0875124],[121.5833598,18.0874232],[121.5833062,18.0873646],[121.583156,18.0872957],[121.5831238,18.087209],[121.5831828,18.0871376],[121.5832901,18.0870433],[121.5833706,18.0870025],[121.5834725,18.0869286],[121.5834939,18.0867934],[121.5834725,18.0867246],[121.5834296,18.0866812],[121.5834215,18.0866226],[121.583451,18.0865716],[121.5835234,18.0865716],[121.5835851,18.0865946],[121.5836495,18.0866405],[121.5837407,18.0866507],[121.5837917,18.0865869],[121.5837783,18.0864594],[121.5837193,18.0863753],[121.5836415,18.0863345],[121.5835342,18.0863243],[121.5834644,18.0862962],[121.5834671,18.0862351],[121.5834349,18.086128],[121.5833974,18.0860974],[121.5832955,18.0860693],[121.5832606,18.086003],[121.583274,18.0859546],[121.5833357,18.0859189],[121.5834349,18.0859061],[121.5835288,18.0859112],[121.5836254,18.0859138],[121.5836737,18.0859418],[121.5837568,18.085975],[121.5838346,18.0859852],[121.5838936,18.0860081],[121.5839794,18.0860209],[121.5840679,18.0860362],[121.5841243,18.0860387],[121.5841967,18.0860311],[121.5842155,18.0859903],[121.5842128,18.0859367],[121.584186,18.0858373],[121.5841538,18.0857812],[121.5840974,18.0856996],[121.5840277,18.0856231],[121.5839606,18.08559],[121.5838855,18.0855696],[121.5838507,18.0855415],[121.5838453,18.0854854],[121.5838909,18.0854421],[121.5839982,18.0854345],[121.5841028,18.0854497],[121.584202,18.0854956],[121.5842852,18.0854931],[121.5843201,18.0854574],[121.5843254,18.0853427],[121.5842852,18.0852432],[121.5842155,18.0851871],[121.5841055,18.0851489],[121.5840465,18.0851132],[121.5840223,18.0850647],[121.5840223,18.0850061],[121.5840116,18.0849424],[121.5839231,18.0849398],[121.5838668,18.0849679],[121.5838158,18.0849959],[121.5837193,18.0850494],[121.5836522,18.0850571],[121.5835986,18.0850316],[121.5835556,18.0849602]]}},{"type":"Feature","properties":{"id":"LAS-RIV-0039","name":"stream","waterway":"stream","class":"tributary","osm_id":946388891,"data_source":"OpenStreetMap","length_km":3.867},"geometry":{"type":"LineString","coordinates":[[121.5975863,18.076648],[121.5976238,18.0766633],[121.5976748,18.0766531],[121.5977499,18.0765587],[121.5977767,18.0765052],[121.5978384,18.0764568],[121.5979296,18.0763905],[121.5979752,18.0762808],[121.5980288,18.0761304],[121.5980476,18.0759238],[121.5980342,18.0758269],[121.5980315,18.0757275],[121.5980878,18.0756306],[121.5981629,18.0755694],[121.5982407,18.0755669],[121.5983453,18.0756434],[121.5983829,18.0756663],[121.5985009,18.0756867],[121.5985975,18.0756536],[121.5986699,18.0756255],[121.5987504,18.0756204],[121.5988228,18.0756383],[121.5989301,18.0756791],[121.5990052,18.0757249],[121.5990186,18.0758091],[121.5989649,18.0758881],[121.5988871,18.0759187],[121.598855,18.0759417],[121.5988415,18.0760131],[121.5989006,18.0761661],[121.5989086,18.0762196],[121.5988845,18.0763216],[121.5988818,18.0763905],[121.598922,18.0764466],[121.5990239,18.0764771],[121.5991339,18.0764797],[121.5993082,18.0764338],[121.599496,18.0763522],[121.5996033,18.0762808],[121.5997696,18.076138],[121.5998661,18.0760513],[121.5999359,18.0760258],[121.6000164,18.0760207],[121.6000754,18.0760054],[121.6001371,18.0759595],[121.6002256,18.0759213],[121.600298,18.0759213],[121.600365,18.0759799],[121.6003945,18.076059],[121.6003838,18.0761661],[121.6003221,18.0764134],[121.6002363,18.0765077],[121.6001156,18.0765715],[121.6000164,18.0766225],[121.59996,18.0766939],[121.5999493,18.0768265],[121.59996,18.0769744],[121.6000351,18.0771299],[121.6001183,18.0772599],[121.6002685,18.0773415],[121.6003677,18.0773874],[121.6005018,18.077418],[121.6006145,18.0773747],[121.6006896,18.0773441],[121.6007674,18.0773492],[121.6009015,18.07739],[121.6010034,18.077492],[121.6010356,18.0775761],[121.601108,18.0776348],[121.601226,18.0776883],[121.601387,18.0776883],[121.6017061,18.0775149],[121.601741,18.077469],[121.601859,18.0774027],[121.6019019,18.0773798],[121.6019878,18.0773415],[121.6021031,18.0772829],[121.6022024,18.0772395],[121.6023016,18.077158],[121.6023526,18.0770305],[121.6023311,18.0769438],[121.6022775,18.0768698],[121.6021997,18.0768188],[121.6020843,18.0767704],[121.6019931,18.0767143],[121.6019422,18.0766378],[121.6019207,18.076546],[121.6019261,18.0764542],[121.6020012,18.0763624],[121.6020521,18.0763063],[121.6021058,18.0762069],[121.602138,18.0760794],[121.6020736,18.0759519],[121.6020441,18.0758524],[121.6020629,18.0756893],[121.6021058,18.0755439],[121.6022211,18.0753399],[121.6023338,18.0752558],[121.6024303,18.0752124],[121.6026074,18.075215],[121.6026825,18.0752507],[121.6027871,18.0752991],[121.602889,18.075345],[121.6029748,18.0753603],[121.603058,18.0753731],[121.603176,18.0753221],[121.6032377,18.0753144],[121.6032779,18.075243],[121.6032618,18.0751079],[121.6031814,18.0749957],[121.6030338,18.0748606],[121.6028675,18.0748172],[121.6027334,18.074807],[121.6026074,18.0747968],[121.6024598,18.074756],[121.6023499,18.0746948],[121.6022962,18.0745979],[121.6022855,18.0744806],[121.6023311,18.0743582],[121.6023901,18.0742384],[121.6025376,18.0740319],[121.6026771,18.0738789],[121.6027281,18.073782],[121.6028273,18.0736927],[121.6029292,18.0736672],[121.6030607,18.0736698],[121.6032082,18.0737488],[121.6033155,18.0738457],[121.6034818,18.0740472],[121.6037098,18.0743378],[121.6038278,18.0744322],[121.6039109,18.0744908],[121.6039914,18.0745801],[121.604037,18.0746719],[121.6040504,18.0747994],[121.6040236,18.0749116],[121.6039297,18.0750033],[121.603868,18.0750518],[121.6038144,18.0751665],[121.6037902,18.0752481],[121.6038412,18.0753527],[121.6039404,18.0754215],[121.6040263,18.0754725],[121.6040558,18.0755261],[121.6040692,18.0756077],[121.6040477,18.0756969],[121.6039699,18.0757479],[121.6037661,18.0758397],[121.6036937,18.0758754],[121.6036481,18.0759366],[121.6036266,18.0760207],[121.6036642,18.0761278],[121.6037902,18.07624],[121.6038868,18.0762783],[121.604037,18.0762808],[121.6041094,18.0762579],[121.6042167,18.0762196],[121.6043293,18.0761839],[121.6044071,18.0761788],[121.6044876,18.0761916],[121.6045547,18.07624],[121.6045868,18.0763114],[121.6045949,18.0763752],[121.6045868,18.076444],[121.6045305,18.0765128],[121.6044313,18.0766072],[121.6043803,18.0766913],[121.6043615,18.0768367],[121.6043454,18.077186],[121.6043133,18.0772599],[121.6042542,18.0773594],[121.6041979,18.0774435],[121.6041657,18.0775047],[121.604155,18.0775685],[121.604155,18.0776654],[121.6041604,18.0778693],[121.6041496,18.0779968],[121.6041228,18.0780249],[121.6040665,18.0780325],[121.6040021,18.0780121],[121.6039136,18.0779892],[121.6038439,18.0780019],[121.6038144,18.0780529],[121.6038063,18.078109],[121.6038117,18.0781957],[121.6038707,18.078262],[121.6039377,18.0782977],[121.6040263,18.0783207],[121.6040906,18.0783742],[121.6041282,18.0784711],[121.604163,18.0785221],[121.6042355,18.078545],[121.6042918,18.078545],[121.6043803,18.0785119],[121.6044688,18.0783793],[121.6045466,18.0782161],[121.6045868,18.0780886],[121.6046298,18.0779917],[121.6046673,18.077928],[121.6047585,18.0778668],[121.6048363,18.0778489],[121.6049221,18.077854],[121.6050053,18.0778897],[121.6050804,18.0779203],[121.6051501,18.0779203],[121.6052225,18.0779101],[121.6053379,18.0779611],[121.605362,18.0780453],[121.605362,18.07816],[121.6053244,18.0782136],[121.6052574,18.0782824],[121.6050884,18.0784737],[121.6049275,18.0788051],[121.6048685,18.0788995],[121.6048121,18.079027],[121.6048202,18.0791238],[121.604898,18.0792437],[121.6050079,18.0793355],[121.6051394,18.0793916],[121.6052198,18.079389],[121.6053057,18.0793482],[121.6053942,18.0792054],[121.6053969,18.079078],[121.6053754,18.0789862],[121.6053861,18.0788536],[121.6054371,18.0787975],[121.6055927,18.0787669],[121.6057241,18.0787975],[121.6058663,18.0788893],[121.606003,18.0790219],[121.6060674,18.079083],[121.6061613,18.079134],[121.6062498,18.079157],[121.6064054,18.0791493],[121.6065824,18.079027],[121.6066226,18.0789454],[121.6066253,18.0788587],[121.6066682,18.0787873],[121.6067326,18.0787516],[121.6067648,18.0786343],[121.6067353,18.0785552],[121.6065824,18.0783895],[121.6063356,18.078081],[121.6063249,18.0780172],[121.6063544,18.0779535],[121.6064376,18.0778948],[121.6064724,18.0778719],[121.6065717,18.0778235],[121.6067111,18.0777827],[121.6068694,18.0777419],[121.6070196,18.0777419],[121.6071162,18.0777291],[121.6071966,18.0776756],[121.6072798,18.0776271],[121.607379,18.0775914],[121.6075212,18.0775863],[121.6076097,18.0775863],[121.6078269,18.0776297],[121.6080844,18.0777648],[121.6081327,18.0778566],[121.6081971,18.0779458],[121.6082641,18.0779968],[121.6083768,18.0780121],[121.6084653,18.0779892],[121.6085136,18.0778923],[121.6085404,18.0777521],[121.6085404,18.0776067],[121.608578,18.0775302],[121.6086316,18.0774308],[121.6087201,18.077288],[121.6087496,18.0771732],[121.6087952,18.0769361],[121.6088462,18.0768341],[121.6089186,18.0767576],[121.6090259,18.0767015],[121.6091037,18.0766633],[121.6092056,18.0766556],[121.6093209,18.0767041],[121.6094121,18.0767755],[121.609498,18.076903],[121.6095516,18.077005],[121.6096267,18.0771044],[121.6097018,18.0771783],[121.6098198,18.0772395],[121.6099352,18.0772829],[121.6100237,18.0772854],[121.6101927,18.077237],[121.6103026,18.0771758],[121.6104743,18.0770356],[121.6105708,18.0769361],[121.6106486,18.0768392],[121.6107318,18.0767372],[121.6107827,18.0766531],[121.6108391,18.0765893],[121.6109222,18.0765281],[121.6110429,18.076467],[121.6111556,18.0764287],[121.6113192,18.0763981],[121.6116475,18.0763982]]}},{"type":"Feature","properties":{"id":"LAS-RIV-0097","name":"stream","waterway":"stream","class":"tributary","osm_id":1313450052,"data_source":"OpenStreetMap","length_km":0.015},"geometry":{"type":"LineString","coordinates":[[121.6029799,18.0663573],[121.6031069,18.0663069]]}},{"type":"Feature","properties":{"id":"LAS-RIV-0098","name":"stream","waterway":"stream","class":"tributary","osm_id":1313450053,"data_source":"OpenStreetMap","length_km":0.156},"geometry":{"type":"LineString","coordinates":[[121.6015556,18.0667475],[121.602717,18.0664466],[121.6029799,18.0663573]]}},{"type":"Feature","properties":{"id":"LAS-RIV-0099","name":"stream","waterway":"stream","class":"tributary","osm_id":1313450054,"data_source":"OpenStreetMap","length_km":0.064},"geometry":{"type":"LineString","coordinates":[[121.6038573,18.0646787],[121.6038989,18.0644709],[121.6039042,18.0642478],[121.6038559,18.0641101]]}},{"type":"Feature","properties":{"id":"LAS-RIV-0100","name":"stream","waterway":"stream","class":"tributary","osm_id":1313450055,"data_source":"OpenStreetMap","length_km":0.012},"geometry":{"type":"LineString","coordinates":[[121.6038425,18.0647871],[121.6038573,18.0646787]]}},{"type":"Feature","properties":{"id":"LAS-RIV-0101","name":"stream","waterway":"stream","class":"tributary","osm_id":1313450056,"data_source":"OpenStreetMap","length_km":0.124},"geometry":{"type":"LineString","coordinates":[[121.6038098,18.0639936],[121.6036078,18.063484],[121.6035314,18.0631831],[121.603577,18.063076],[121.6036601,18.063011],[121.6037017,18.0629983]]}},{"type":"Feature","properties":{"id":"LAS-RIV-0102","name":"stream","waterway":"stream","class":"tributary","osm_id":1313450057,"data_source":"OpenStreetMap","length_km":0.014},"geometry":{"type":"LineString","coordinates":[[121.6038559,18.0641101],[121.6038098,18.0639936]]}},{"type":"Feature","properties":{"id":"LAS-RIV-0103","name":"stream","waterway":"stream","class":"tributary","osm_id":1313450058,"data_source":"OpenStreetMap","length_km":0.317},"geometry":{"type":"LineString","coordinates":[[121.6038412,18.0629575],[121.6052493,18.0623914],[121.6065886,18.061807]]}},{"type":"Feature","properties":{"id":"LAS-RIV-0104","name":"stream","waterway":"stream","class":"tributary","osm_id":1313450059,"data_source":"OpenStreetMap","length_km":0.015},"geometry":{"type":"LineString","coordinates":[[121.6037017,18.0629983],[121.6038412,18.0629575]]}},{"type":"Feature","properties":{"id":"LAS-RIV-0105","name":"stream","waterway":"stream","class":"tributary","osm_id":1313450060,"data_source":"OpenStreetMap","length_km":0.214},"geometry":{"type":"LineString","coordinates":[[121.6031069,18.0663069],[121.6034992,18.0661705],[121.6036467,18.0660583],[121.6036923,18.0659384],[121.6036803,18.0658364],[121.6035649,18.0654871],[121.603573,18.0653889],[121.6036078,18.065306],[121.6037513,18.0649834],[121.6038425,18.0647871]]}},{"type":"Feature","properties":{"id":"LAS-RIV-0106","name":"stream","waterway":"stream","class":"tributary","osm_id":1313450061,"data_source":"OpenStreetMap","length_km":0.01},"geometry":{"type":"LineString","coordinates":[[121.6014666,18.0667751],[121.6015556,18.0667475]]}},{"type":"Feature","properties":{"id":"LAS-RIV-0107","name":"stream","waterway":"stream","class":"tributary","osm_id":1313450062,"data_source":"OpenStreetMap","length_km":0.009},"geometry":{"type":"LineString","coordinates":[[121.5998395,18.0654696],[121.5998535,18.0655099],[121.5998675,18.0655418]]}},{"type":"Feature","properties":{"id":"LAS-RIV-0108","name":"stream","waterway":"stream","class":"tributary","osm_id":1313450063,"data_source":"OpenStreetMap","length_km":0.073},"geometry":{"type":"LineString","coordinates":[[121.5994984,18.064914],[121.5996459,18.065039],[121.5997532,18.06522],[121.5998395,18.0654696]]}},{"type":"Feature","properties":{"id":"LAS-RIV-0115","name":"stream","waterway":"stream","class":"tributary","osm_id":1313450070,"data_source":"OpenStreetMap","length_km":0.704},"geometry":{"type":"LineString","coordinates":[[121.4935353,18.0767347],[121.4935273,18.0768622],[121.4935112,18.0769336],[121.493538,18.0770228],[121.4936158,18.0770789],[121.4939055,18.077214],[121.4940181,18.0772446],[121.4947262,18.0773466],[121.4947504,18.0773619],[121.4947638,18.0774002],[121.4946511,18.0776832],[121.4946458,18.0777546],[121.4946645,18.0777852],[121.4947316,18.0778082],[121.4949328,18.0778591],[121.494973,18.0779152],[121.4949891,18.0780351],[121.4950052,18.0781243],[121.495083,18.0781651],[121.4951795,18.07816],[121.4952841,18.0781626],[121.4953297,18.0781855],[121.4953753,18.0782748],[121.4953941,18.078313],[121.4956596,18.0783564],[121.4957508,18.0783946],[121.4958099,18.0784176],[121.4959118,18.0784201],[121.4960164,18.0784125],[121.4961451,18.0784278],[121.4962497,18.0784609],[121.496357,18.0785425],[121.4964026,18.0786113],[121.4964911,18.078619],[121.4965367,18.0786113],[121.4966735,18.0786037],[121.4967674,18.0786598],[121.496813,18.0787439],[121.4969069,18.0788026],[121.4969498,18.0787924],[121.4969552,18.0787439],[121.4969525,18.0787082],[121.4970303,18.0786751],[121.4971992,18.0786598],[121.4972985,18.0786215],[121.4973602,18.0785629],[121.4974433,18.0785323],[121.497556,18.0785374],[121.4977142,18.0785042],[121.4978698,18.0784584],[121.4980119,18.0784584],[121.4982104,18.0784966],[121.4982668,18.0785374],[121.4983177,18.0786241],[121.4983875,18.0786674],[121.4985135,18.0787031]]}},{"type":"Feature","properties":{"id":"LAS-RIV-0116","name":"stream","waterway":"stream","class":"tributary","osm_id":1313450071,"data_source":"OpenStreetMap","length_km":2.518},"geometry":{"type":"LineString","coordinates":[[121.4985135,18.0787031],[121.4988059,18.0787133],[121.4989346,18.0787184],[121.4990017,18.0786521],[121.4990821,18.0785654],[121.4991572,18.0785578],[121.4992189,18.0785833],[121.4992565,18.0786878],[121.4992726,18.0787822],[121.4993343,18.0788536],[121.4994121,18.0788944],[121.4996454,18.0789836],[121.499809,18.0790729],[121.4998788,18.079185],[121.499927,18.0793176],[121.5002006,18.0795675],[121.500273,18.0796262],[121.5003589,18.0796593],[121.5004018,18.0796542],[121.5006271,18.0796669],[121.5006834,18.0796771],[121.5007344,18.0797358],[121.5007907,18.0798786],[121.500839,18.0800137],[121.500847,18.0801744],[121.5008551,18.0802789],[121.5008926,18.0803681],[121.5009865,18.080465],[121.5012225,18.0806384],[121.5014318,18.0807251],[121.5014639,18.0807863],[121.5014693,18.0808679],[121.5015578,18.0810158],[121.5016437,18.0811025],[121.5017134,18.0811611],[121.5017912,18.0812427],[121.5018207,18.0812988],[121.5018126,18.0814186],[121.5018046,18.0815053],[121.5018475,18.0816201],[121.5019575,18.0817782],[121.5020004,18.081898],[121.5021989,18.082],[121.5025154,18.0821504],[121.502687,18.0822346],[121.5028855,18.0823722],[121.5030116,18.0824921],[121.503143,18.0826884],[121.5032369,18.0828286],[121.5033308,18.082923],[121.5035936,18.083053],[121.5039316,18.0832366],[121.5040308,18.0833819],[121.5040335,18.0835069],[121.5040281,18.08354],[121.5040737,18.0836522],[121.50424,18.0838154],[121.5043741,18.0839097],[121.5046692,18.0842208],[121.5047389,18.0842947],[121.5047711,18.0844044],[121.504755,18.0845344],[121.5047336,18.0846644],[121.5047577,18.0847741],[121.5048113,18.0848404],[121.5049964,18.0848888],[121.5053505,18.0848735],[121.5055409,18.0848455],[121.5056187,18.0847715],[121.5057099,18.0846772],[121.5058467,18.0846415],[121.5060291,18.0847001],[121.5062302,18.0848021],[121.506359,18.0848429],[121.5065092,18.0847894],[121.5066862,18.0846721],[121.5067801,18.0846746],[121.5069652,18.0846848],[121.50711,18.0847052],[121.5072441,18.084695],[121.5073863,18.0846491],[121.5075096,18.0846236],[121.5076169,18.0846466],[121.5077886,18.0847435],[121.5079978,18.0848888],[121.5081185,18.0849781],[121.5083009,18.0850851],[121.5083948,18.0851642],[121.5084672,18.0852381],[121.5085745,18.0852891],[121.508773,18.0853172],[121.5092048,18.0853707],[121.5092772,18.0853962],[121.5093684,18.0854676],[121.5094033,18.0855313],[121.5094596,18.0856359],[121.5095133,18.085683],[121.5095803,18.0856881],[121.5097064,18.0856486],[121.5098204,18.0855734],[121.5099183,18.0855543],[121.5100296,18.0855709],[121.5101422,18.0856601],[121.5103649,18.085961],[121.5104426,18.0859979],[121.5105379,18.086026],[121.5110689,18.0862593],[121.511085,18.0862593],[121.5111119,18.0862504],[121.5111601,18.0862032],[121.5119728,18.084848],[121.5120211,18.0848174],[121.5120573,18.0848314],[121.5121204,18.0848914],[121.5136063,18.0866481],[121.5150842,18.0883079]]}},{"type":"Feature","properties":{"id":"LAS-RIV-0117","name":"stream","waterway":"stream","class":"tributary","osm_id":1313450072,"data_source":"OpenStreetMap","length_km":1.189},"geometry":{"type":"LineString","coordinates":[[121.5150842,18.0883079],[121.5160847,18.0875966],[121.516149,18.0875711],[121.5162027,18.0875711],[121.5162805,18.0876017],[121.5166157,18.0877164],[121.5167686,18.0877317],[121.5168625,18.0877317],[121.5170449,18.0877113],[121.5171495,18.0876935],[121.5172943,18.0877062],[121.5174687,18.0877368],[121.5176511,18.0878235],[121.5177798,18.0878541],[121.5180588,18.0878949],[121.5181392,18.087928],[121.5182841,18.0879663],[121.5184316,18.087979],[121.518665,18.088002],[121.5190056,18.0880071],[121.5192497,18.0880071],[121.5197486,18.088002],[121.5198827,18.08803],[121.5199766,18.0880657],[121.5201133,18.0880785],[121.520167,18.0881295],[121.5202904,18.0882365],[121.5203735,18.0882493],[121.520403,18.0882289],[121.5204218,18.088155],[121.5205103,18.0880326],[121.5205908,18.0880045],[121.5206954,18.0880045],[121.5207356,18.088053],[121.5207812,18.0881218],[121.5208778,18.0881091],[121.5212882,18.0879076],[121.5213096,18.0878898],[121.5217066,18.0877802],[121.5220794,18.0877088],[121.522294,18.0877037],[121.5224388,18.0876909],[121.5225032,18.0877164],[121.5225622,18.0877496],[121.5226185,18.0877496],[121.5226695,18.0877215],[121.5228385,18.0876272],[121.5229323,18.0876068],[121.5230638,18.0876042],[121.5232784,18.0877139],[121.5234366,18.0877751],[121.5236887,18.0878057],[121.5239596,18.0878311],[121.5244183,18.0878515],[121.5246356,18.087877],[121.5247482,18.0879102],[121.5249145,18.0878898],[121.5250888,18.0878362],[121.5252095,18.0877547],[121.5252659,18.0876858],[121.5253758,18.0875201]]}},{"type":"Feature","properties":{"id":"LAS-RIV-0118","name":"stream","waterway":"stream","class":"tributary","osm_id":1313450073,"data_source":"OpenStreetMap","length_km":0.494},"geometry":{"type":"LineString","coordinates":[[121.5253758,18.0875201],[121.5257406,18.0875277],[121.5258935,18.0875507],[121.5260249,18.0876017],[121.5261537,18.0876986],[121.5262449,18.0877725],[121.5263307,18.087798],[121.5263924,18.0877929],[121.5264943,18.0877572],[121.5265641,18.0877776],[121.5266204,18.0878108],[121.5266848,18.0878082],[121.5267625,18.0877904],[121.5268645,18.0877904],[121.5269181,18.0878413],[121.5270281,18.0879969],[121.5271005,18.0880504],[121.527189,18.0880785],[121.5272641,18.0880836],[121.5273231,18.0881065],[121.5274438,18.0882391],[121.5274787,18.088313],[121.5275109,18.0883538],[121.5276906,18.0883589],[121.5277979,18.0883181],[121.5280983,18.088285],[121.5282565,18.0882544],[121.5283316,18.0882314],[121.5284845,18.0881014],[121.5286857,18.0879255],[121.5288439,18.0878643],[121.5290076,18.0878362],[121.5291551,18.087849],[121.5293375,18.0878796],[121.5295145,18.0879127]]}},{"type":"Feature","properties":{"id":"LAS-RIV-0119","name":"stream","waterway":"stream","class":"tributary","osm_id":1313450074,"data_source":"OpenStreetMap","length_km":0.015},"geometry":{"type":"LineString","coordinates":[[121.5295145,18.0879127],[121.5296245,18.0879943]]}},{"type":"Feature","properties":{"id":"LAS-RIV-0120","name":"stream","waterway":"stream","class":"tributary","osm_id":1313450075,"data_source":"OpenStreetMap","length_km":2.523},"geometry":{"type":"LineString","coordinates":[[121.5296245,18.0879943],[121.529654,18.0880453],[121.5297425,18.088234],[121.5297934,18.088285],[121.5298846,18.0883207],[121.5299946,18.0883411],[121.5301314,18.088387],[121.5302119,18.0884329],[121.5303835,18.0887031],[121.5304586,18.0887363],[121.5306088,18.0887082],[121.5307456,18.0886598],[121.53081,18.0886317],[121.5308958,18.0886368],[121.5309763,18.0886623],[121.5315342,18.0888255],[121.5316737,18.088851],[121.53184,18.0889122],[121.532139,18.0890792],[121.5322852,18.0891123],[121.5325427,18.0892233],[121.5331449,18.0893393],[121.5332481,18.0893456],[121.5333179,18.0893367],[121.5334493,18.0892755],[121.5336183,18.0892041],[121.5337068,18.0891876],[121.533794,18.0891901],[121.5338892,18.0892105],[121.5342915,18.0893252],[121.5349165,18.089519],[121.5354636,18.0896771],[121.5357158,18.0897969],[121.5358096,18.0898275],[121.5359518,18.0898071],[121.5360323,18.0897536],[121.5361074,18.0897153],[121.5362012,18.0896975],[121.5363219,18.089723],[121.5370327,18.0899499],[121.5372285,18.0900136],[121.5373734,18.0901513],[121.5375075,18.0902661],[121.537545,18.0903119],[121.5375933,18.0903247],[121.5376684,18.0902992],[121.5377006,18.0902737],[121.5378052,18.0902916],[121.5378267,18.0903986],[121.5378776,18.0908142],[121.5379044,18.0915511],[121.5378937,18.0916352],[121.5379178,18.0916989],[121.5379956,18.091704],[121.53817,18.0916428],[121.5383095,18.091546],[121.5384328,18.0914771],[121.5385213,18.0914669],[121.5386099,18.0914669],[121.538744,18.0914746],[121.5388969,18.0914924],[121.5389666,18.0915383],[121.5390444,18.0915868],[121.5392509,18.0915664],[121.5394092,18.0915205],[121.5394789,18.0914618],[121.539613,18.0913522],[121.5398303,18.0912375],[121.5399215,18.0911916],[121.5399858,18.0911967],[121.5400475,18.0912732],[121.5400717,18.0913496],[121.5401065,18.091393],[121.5402058,18.0914797],[121.5402621,18.0917754],[121.5403157,18.0918749],[121.5403479,18.0919513],[121.5405115,18.0920304],[121.5407878,18.0920304],[121.5412143,18.0920125],[121.541335,18.0920125],[121.5414718,18.0919896],[121.5415469,18.0919743],[121.5415898,18.0919819],[121.5416515,18.0920125],[121.5418071,18.0921273],[121.5418634,18.0921961],[121.5419304,18.0922547],[121.541976,18.0922879],[121.5420404,18.0923491],[121.5420833,18.0924052],[121.5421236,18.0924868],[121.5421584,18.0925836],[121.5421852,18.0927264],[121.5422174,18.0928514],[121.5422362,18.0929253],[121.5422738,18.0929941],[121.5423274,18.0930273],[121.5423703,18.0930502],[121.5424213,18.0930757],[121.5425688,18.0932185],[121.5426278,18.093295],[121.5426734,18.0933868],[121.542711,18.0934327],[121.5428156,18.0934454],[121.5429094,18.093448],[121.5429765,18.0935117],[121.5430167,18.0935882],[121.5430462,18.0936723],[121.5430516,18.0937667],[121.5430462,18.0938176],[121.5430462,18.0938865],[121.5430865,18.0939579],[121.5432098,18.094014],[121.5435371,18.094093],[121.5436578,18.0941185],[121.5438911,18.094093],[121.5439689,18.0940802],[121.5440118,18.094093],[121.5440628,18.0941491],[121.5441138,18.0942103],[121.5441728,18.0942562],[121.544264,18.094246],[121.5445349,18.094223],[121.5446636,18.0942358],[121.5447441,18.0942664],[121.544787,18.0942995],[121.5448058,18.0943378],[121.5448433,18.0944448],[121.5448701,18.0945239],[121.5449747,18.0945902],[121.5451303,18.0946921],[121.5452188,18.0947686],[121.5452939,18.0948604],[121.5453234,18.0949293],[121.5453422,18.0949624],[121.5454254,18.0949675],[121.5455112,18.0949547],[121.5455943,18.09497],[121.5457982,18.0950797],[121.5458894,18.0951409],[121.5459082,18.0951842],[121.5459055,18.0952479],[121.5459323,18.0953321],[121.5459645,18.0953882],[121.5460738,18.0955061],[121.5461187,18.0955552],[121.5461274,18.0955966],[121.5461341,18.0956731],[121.5461388,18.0957081],[121.546177,18.095754],[121.5463762,18.0959032],[121.5463936,18.0959287],[121.5463956,18.0959899],[121.5463829,18.096023],[121.54635,18.096118],[121.5463534,18.0962665],[121.5463708,18.09632],[121.5463963,18.0963825],[121.5464714,18.0964539],[121.5465787,18.0964921],[121.5467463,18.0965138],[121.5469287,18.0965699],[121.5469784,18.096612],[121.5470427,18.0966859],[121.5471165,18.0967751],[121.5471728,18.0968427],[121.5471889,18.0968911],[121.5472211,18.0969498],[121.5472774,18.0970122],[121.5473123,18.0970275],[121.5473619,18.0970301]]}},{"type":"Feature","properties":{"id":"LAS-RIV-0121","name":"stream","waterway":"stream","class":"tributary","osm_id":1313450076,"data_source":"OpenStreetMap","length_km":1.445},"geometry":{"type":"LineString","coordinates":[[121.5473619,18.0970301],[121.5476918,18.0969561],[121.5483946,18.0968567],[121.5487701,18.0968159],[121.5490276,18.096793],[121.5491027,18.096821],[121.5491053,18.0968669],[121.5491295,18.096923],[121.5492099,18.0969281],[121.5494299,18.0968822],[121.5495265,18.0968669],[121.549674,18.096895],[121.5497303,18.096923],[121.5498027,18.0969561],[121.5500173,18.0969893],[121.5502399,18.0969765],[121.5504089,18.0969765],[121.5505886,18.0969332],[121.5507227,18.0968873],[121.5508676,18.0968848],[121.551007,18.0969179],[121.5511626,18.0970046],[121.5511975,18.0970505],[121.5512243,18.097104],[121.5513128,18.097127],[121.5513772,18.0971142],[121.5514576,18.0970989],[121.551699,18.0971168],[121.5518653,18.0971448],[121.5519458,18.0971448],[121.5520263,18.0971295],[121.5522435,18.0970811],[121.5523213,18.0970964],[121.5523723,18.0971499],[121.5524635,18.0971703],[121.5525681,18.0971576],[121.552729,18.097127],[121.5528256,18.0971627],[121.5531608,18.0972876],[121.5532172,18.0972952],[121.5533325,18.097285],[121.5534478,18.0972519],[121.5536973,18.0972238],[121.5539119,18.0971372],[121.5539414,18.0971142],[121.5541533,18.0970046],[121.5542874,18.096951],[121.5544215,18.0968567],[121.5546441,18.0967496],[121.5548882,18.0966629],[121.5550491,18.0965967],[121.5553576,18.0964947],[121.5555105,18.096487],[121.5556526,18.0964947],[121.5557197,18.0964386],[121.5558699,18.0964029],[121.5559208,18.0964029],[121.555945,18.096459],[121.5559369,18.09651],[121.5559262,18.0965712],[121.5559611,18.0966527],[121.5560067,18.0966884],[121.556122,18.0967165],[121.5563795,18.0967152],[121.5566303,18.0966285],[121.5567926,18.0966209],[121.5569039,18.0966285],[121.5570889,18.0966183],[121.557211,18.0965763],[121.5574752,18.0965457],[121.557675,18.0965686],[121.5577568,18.0966336],[121.5578011,18.0966884],[121.5578668,18.0967331],[121.5579446,18.0967445],[121.5579995,18.096728],[121.5581189,18.096691],[121.5582074,18.0966693],[121.5583375,18.0966323],[121.5585011,18.0965227],[121.5585709,18.0964526],[121.5586205,18.0963991],[121.5586607,18.0963264],[121.5586969,18.0962372],[121.5588042,18.0960957],[121.5588726,18.0960613],[121.5589464,18.0959784],[121.5590161,18.0958943],[121.5590698,18.0958127],[121.5591046,18.0957859],[121.5591542,18.095791],[121.5592226,18.0957872],[121.559291,18.0957426],[121.5594386,18.0956291],[121.5595043,18.0955832],[121.559578,18.0955501],[121.5596397,18.0955399]]}},{"type":"Feature","properties":{"id":"LAS-RIV-0122","name":"stream","waterway":"stream","class":"tributary","osm_id":1313450077,"data_source":"OpenStreetMap","length_km":1.376},"geometry":{"type":"LineString","coordinates":[[121.5485367,18.0923797],[121.54899,18.0922955],[121.5494621,18.0922063],[121.5499341,18.0921604],[121.5503687,18.0921757],[121.5509561,18.0923108],[121.5514684,18.0924332],[121.5515435,18.0924689],[121.5516534,18.0928794],[121.5517098,18.0929355],[121.5523857,18.0932363],[121.552662,18.0934454],[121.5527397,18.0935015],[121.5528631,18.0935499],[121.5530509,18.0935754],[121.5531179,18.0936086],[121.5531743,18.0936698],[121.5532547,18.0937335],[121.5532976,18.0937718],[121.5533701,18.0938176],[121.5534773,18.0938482],[121.5547742,18.0936608],[121.5548533,18.0936557],[121.5548842,18.0936404],[121.5548962,18.0936022],[121.5549056,18.0935754],[121.5549432,18.0935678],[121.5551484,18.0935499],[121.5551819,18.0935538],[121.5552154,18.0935652],[121.5552583,18.0935856],[121.5560389,18.0936137],[121.5562803,18.093606],[121.55635,18.0935907],[121.5564063,18.0935652],[121.557042,18.0935933],[121.5571251,18.0936111],[121.5576804,18.0938992],[121.5586352,18.0944168],[121.5586808,18.0944346],[121.5587908,18.0944423],[121.5588552,18.0944499],[121.558882,18.0944525],[121.55922,18.0945392],[121.5593031,18.0945723],[121.5593433,18.0946666],[121.5593795,18.09484],[121.5593769,18.0948923],[121.5593514,18.0949356],[121.5593125,18.0949879],[121.5593165,18.095058],[121.5593474,18.0951064],[121.5594117,18.0951511],[121.5595096,18.095197],[121.5595753,18.0952314],[121.5595727,18.0952773],[121.5595566,18.0953295],[121.5595298,18.095378],[121.5595338,18.0954188],[121.5595539,18.0954545],[121.5595794,18.0954838],[121.5596397,18.0955399]]}},{"type":"Feature","properties":{"id":"LAS-RIV-0123","name":"stream","waterway":"stream","class":"tributary","osm_id":1313450078,"data_source":"OpenStreetMap","length_km":2.601},"geometry":{"type":"LineString","coordinates":[[121.5596397,18.0955399],[121.5597457,18.0955513],[121.5598664,18.0955513],[121.5599897,18.0955998],[121.5600434,18.0956533],[121.5600836,18.0956788],[121.5601614,18.0956635],[121.5602472,18.0955998],[121.5603331,18.0955055],[121.5603814,18.0954494],[121.5604672,18.0953984],[121.5605208,18.0953499],[121.5606335,18.0952352],[121.5606683,18.0951868],[121.5607676,18.0950338],[121.560899,18.0947584],[121.5610653,18.0946131],[121.5611619,18.0945723],[121.561245,18.0945825],[121.5613067,18.0946208],[121.5613684,18.0946361],[121.5614837,18.0945519],[121.5615293,18.094506],[121.561642,18.0945035],[121.5617573,18.094529],[121.5618163,18.0945621],[121.5618753,18.094608],[121.5619478,18.0946208],[121.5620524,18.094608],[121.5622455,18.0946437],[121.5622964,18.0946641],[121.5624198,18.0947253],[121.5625915,18.0947253],[121.5626062,18.094724],[121.5626867,18.0947176],[121.5627363,18.0947278],[121.5627632,18.0947393],[121.5627846,18.0947597],[121.5628503,18.0948285],[121.5629093,18.0948668],[121.5630381,18.0948961],[121.56325,18.0949624],[121.563313,18.0950083],[121.5633747,18.095081],[121.5634632,18.0953397],[121.5635142,18.0954073],[121.5635571,18.0954455],[121.5636134,18.0955246],[121.563714,18.0957209],[121.563722,18.0957668],[121.5637073,18.0958216],[121.5636711,18.0958943],[121.5636657,18.0959605],[121.5636805,18.0960154],[121.563769,18.0960396],[121.5639272,18.0961479],[121.5640882,18.0963392],[121.5641861,18.0964284],[121.5642464,18.0967382],[121.5642612,18.096784],[121.5643068,18.0968019],[121.5643604,18.09677],[121.5644087,18.0967203],[121.5644664,18.0967012],[121.5645777,18.0967076],[121.5649626,18.09677],[121.5651034,18.0967815],[121.565275,18.0967203],[121.5654521,18.0965661],[121.5655486,18.0964042],[121.5655929,18.0963417],[121.5656666,18.0963392],[121.5656961,18.0963608],[121.5657444,18.096371],[121.5657793,18.0963608],[121.5658101,18.0963251],[121.5658396,18.0962958],[121.5659335,18.0962729],[121.5660542,18.0962933],[121.5661199,18.0962945],[121.566183,18.0962792],[121.5662862,18.096241],[121.5663761,18.0962435],[121.5665625,18.096292],[121.5666711,18.0963468],[121.5667717,18.0964246],[121.5668066,18.0964284],[121.5669085,18.096422],[121.5669554,18.0964399],[121.567056,18.0965049],[121.5672947,18.0966056],[121.5673792,18.0966247],[121.5674382,18.0966553],[121.5675777,18.0967318],[121.5676421,18.0967904],[121.5677118,18.0968465],[121.5678272,18.0968975],[121.567913,18.0968899],[121.5679505,18.0968567],[121.5680283,18.0968389],[121.5681088,18.0968695],[121.5682617,18.0969969],[121.5683717,18.0970683],[121.5684468,18.0970683],[121.5685245,18.0970607],[121.5686077,18.0970148],[121.5686452,18.0969791],[121.5687311,18.0969689],[121.5688276,18.0970173],[121.5689135,18.097053],[121.5689617,18.097053],[121.5690342,18.0970122],[121.5691468,18.0969944],[121.5694687,18.0969893],[121.5695572,18.0970173],[121.5696403,18.0971091],[121.5697315,18.0972366],[121.5697959,18.0973182],[121.5701231,18.0974405],[121.5705469,18.0975502],[121.5707105,18.0975068],[121.5708446,18.0974074],[121.5709171,18.0973054],[121.5709332,18.0972289],[121.5709358,18.0969357],[121.5709707,18.096793],[121.5710404,18.0965125],[121.5713221,18.0958343],[121.5713704,18.095763],[121.5714347,18.0957349],[121.5715232,18.09574],[121.5716654,18.0957451],[121.5717244,18.0957349],[121.5717941,18.0956967],[121.5718397,18.0956304],[121.5718719,18.0955411],[121.5718934,18.0954188],[121.5719175,18.0952658],[121.5719175,18.0951842],[121.5718397,18.0950899],[121.5718022,18.0950057],[121.5717941,18.0949395],[121.5718451,18.0948094],[121.5718693,18.0946692],[121.5718693,18.0945978],[121.571762,18.0944066],[121.5716547,18.0943021],[121.5716064,18.0941924],[121.5716279,18.0941261],[121.5717056,18.0940701],[121.5719122,18.0940548],[121.5725344,18.0939885],[121.5729877,18.093889],[121.5731433,18.093787],[121.573264,18.0936494],[121.5733606,18.0935091],[121.5733767,18.093425],[121.5733418,18.0932414],[121.5733659,18.0930171],[121.5734383,18.0929125],[121.5736502,18.0928463],[121.5736824,18.0928463],[121.5739292,18.0927443],[121.5739185,18.0926448],[121.5738621,18.092604],[121.5738299,18.0925276],[121.5738299,18.092446],[121.5738782,18.0921375],[121.5739131,18.0920278],[121.5740016,18.0919896],[121.5741974,18.0918953],[121.5743127,18.0918264],[121.5743932,18.0917678],[121.5744388,18.0916709],[121.574471,18.0915664],[121.5744817,18.0914873],[121.5745488,18.0913216],[121.5745783,18.0912222],[121.574581,18.0911329],[121.5745568,18.0910768],[121.5745488,18.0910131],[121.5745756,18.0909264],[121.5746266,18.0908805],[121.5747097,18.0908703],[121.574825,18.0909341],[121.5748841,18.0909417],[121.574986,18.090906],[121.5750718,18.0908091],[121.5750825,18.0907326],[121.5750316,18.0906587],[121.5749913,18.0905771],[121.5750101,18.0904981]]}},{"type":"Feature","properties":{"id":"LAS-RIV-0129","name":"stream","waterway":"stream","class":"tributary","osm_id":1526181721,"data_source":"OpenStreetMap","length_km":0.011},"geometry":{"type":"LineString","coordinates":[[121.4732015,18.1108033],[121.4732286,18.1108993]]}},{"type":"Feature","properties":{"id":"LAS-RIV-0130","name":"stream","waterway":"stream","class":"tributary","osm_id":1526181722,"data_source":"OpenStreetMap","length_km":4.545},"geometry":{"type":"LineString","coordinates":[[121.4684565,18.0929833],[121.4685053,18.0930644],[121.468615,18.0932229],[121.4688264,18.0933233],[121.4690419,18.0932383],[121.469294,18.093304],[121.4693265,18.0933697],[121.4692005,18.0934856],[121.4692492,18.0935745],[121.4694444,18.0935938],[121.4694078,18.0937098],[121.4691354,18.0937098],[121.4687898,18.0938218],[121.4684646,18.0940228],[121.4684199,18.093818],[121.4682735,18.0937755],[121.4678141,18.0938025],[121.467619,18.0939803],[121.4673263,18.0943281],[121.4671596,18.094417],[121.4670417,18.0941271],[121.4668791,18.093818],[121.4666148,18.0937909],[121.4663262,18.0939764],[121.4662123,18.0941542],[121.4662164,18.0942817],[121.4661839,18.0944015],[121.4663058,18.0944749],[121.4664319,18.0945793],[121.4663587,18.0946527],[121.4661879,18.0946218],[121.4660091,18.0945329],[121.4660294,18.0946913],[121.4661636,18.0949387],[121.4664197,18.0948575],[121.4664481,18.0949966],[121.4663546,18.0951551],[121.4664359,18.0952903],[121.4663384,18.095329],[121.4662693,18.095329],[121.466005,18.0952169],[121.4659074,18.0951898],[121.4658749,18.0953212],[121.4660497,18.095499],[121.4660619,18.0956458],[121.4663872,18.0959202],[121.4665416,18.0961675],[121.4666677,18.0963221],[121.4670661,18.0961482],[121.4671271,18.0961637],[121.4671881,18.0962641],[121.4672409,18.0963569],[121.4673019,18.0964612],[121.4672287,18.0965192],[121.4669766,18.0965887],[121.4669523,18.0967201],[121.4669604,18.0968361],[121.4670783,18.0968708],[121.4671189,18.0972766],[121.4671433,18.0973887],[121.4671677,18.0974853],[121.4674848,18.0974312],[121.4678141,18.0974003],[121.467867,18.0972998],[121.467928,18.0973384],[121.467989,18.0975317],[121.4679442,18.0976669],[121.4680784,18.0977983],[121.4680377,18.098007],[121.4681109,18.098204],[121.4681556,18.0983973],[121.4681963,18.0986059],[121.468176,18.0990078],[121.4681434,18.099201],[121.4680418,18.0993402],[121.4679198,18.0996184],[121.4678385,18.0998077],[121.4677897,18.1000319],[121.4677369,18.1002019],[121.4675214,18.1004144],[121.4673629,18.1005381],[121.4672328,18.1005535],[121.467123,18.1005188],[121.4670539,18.1005497],[121.466997,18.1006231],[121.4668709,18.1006656],[121.4667368,18.1005922],[121.4667002,18.1006463],[121.4666758,18.1008666],[121.466688,18.1010675],[121.4667734,18.101195],[121.466749,18.1012878],[121.4665538,18.1012568],[121.4664481,18.1013109],[121.46644,18.1013844],[121.4665538,18.1013998],[121.4665782,18.1014578],[121.4665701,18.1015157],[121.4664888,18.1016046],[121.4664888,18.1016896],[121.466623,18.1018017],[121.4667083,18.1019215],[121.4666351,18.1019872],[121.4664969,18.1020104],[121.4664929,18.1020722],[121.4665579,18.1021418],[121.4668262,18.1020992],[121.467123,18.1019833],[121.4672124,18.1020374],[121.4672124,18.1021147],[121.4670783,18.1022422],[121.4668384,18.1023311],[121.4665945,18.1023388],[121.4664929,18.1024354],[121.466314,18.1025127],[121.4662001,18.1026596],[121.4661676,18.1027175],[121.4662123,18.1030421],[121.4661961,18.1033397],[121.4661392,18.1035483],[121.4663018,18.1036643],[121.4667043,18.1037106],[121.4670905,18.1037106],[121.467222,18.103684],[121.4672816,18.103672],[121.4672938,18.1035483],[121.4672897,18.1034749],[121.4673873,18.1035522],[121.4674726,18.1036411],[121.4675255,18.1036102],[121.4675011,18.1034401],[121.4675336,18.1033358],[121.4675783,18.1033358],[121.4677125,18.1035367],[121.4678426,18.1036372],[121.4679686,18.1036218],[121.467993,18.1037068],[121.4678263,18.1038304],[121.4677979,18.104043],[121.4678629,18.1041009],[121.4679417,18.104101],[121.4680745,18.1040883],[121.4681469,18.1040959],[121.4682354,18.1040845],[121.4682797,18.1041202],[121.4683802,18.1042043],[121.4684419,18.1042668],[121.4684956,18.1042782],[121.4686203,18.1042068],[121.4687343,18.1041278],[121.4688872,18.1040551],[121.4688992,18.1040195],[121.4688764,18.103994],[121.4687021,18.1038703],[121.4686726,18.1038142],[121.4686672,18.1037479],[121.4687182,18.1036613],[121.4687651,18.1036141],[121.4688376,18.1036166],[121.468918,18.1035963],[121.468965,18.1036065],[121.4690977,18.1036472],[121.4691326,18.103623],[121.4691608,18.1035644],[121.4690964,18.1035045],[121.4690723,18.1034293],[121.469079,18.1033439],[121.4691299,18.1032648],[121.4691715,18.1032444],[121.46937,18.1032674],[121.4695108,18.1032916],[121.4695537,18.1032852],[121.4695966,18.1032368],[121.4697146,18.1031157],[121.4698166,18.1030303],[121.469826,18.1029309],[121.4698514,18.1028901],[121.4699882,18.1028888],[121.4700204,18.1029219],[121.4700513,18.1029946],[121.4699949,18.1031883],[121.4699601,18.1033184],[121.4699721,18.1033451],[121.4700606,18.1033719],[121.4703785,18.1034637],[121.4704335,18.103507],[121.4704952,18.1036396],[121.4705005,18.103688],[121.4704616,18.103892],[121.4704737,18.1039188],[121.470589,18.1039493],[121.4706266,18.103943],[121.4707902,18.1038117],[121.4708371,18.1038155],[121.470876,18.1039328],[121.4708291,18.1040526],[121.4708398,18.1040857],[121.4708948,18.104161],[121.4708854,18.1042413],[121.4708345,18.1042515],[121.470699,18.104217],[121.4706212,18.1042476],[121.4705649,18.10437],[121.4705703,18.1044567],[121.470581,18.1045638],[121.4705488,18.1046555],[121.4704925,18.1046938],[121.4704925,18.1047473],[121.4706212,18.1050532],[121.4705837,18.1051323],[121.4705139,18.1052215],[121.4704066,18.1052368],[121.4703852,18.1052827],[121.4704254,18.1053566],[121.4704737,18.1054535],[121.4704603,18.1055121],[121.4703315,18.1056422],[121.4702833,18.1057416],[121.4701813,18.1060144],[121.4701948,18.1061316],[121.4702538,18.1061877],[121.470404,18.1062132],[121.470522,18.1063076],[121.4705193,18.1063483],[121.4704818,18.1064503],[121.4705273,18.1064835],[121.4706936,18.1065472],[121.4706936,18.1066058],[121.4706427,18.1067435],[121.4706534,18.1069398],[121.4707044,18.1069831],[121.4708143,18.1069857],[121.4708546,18.1070367],[121.4708532,18.1070877],[121.4708224,18.1071246],[121.4707406,18.1072113],[121.4706588,18.1073451],[121.4706065,18.1073783],[121.4705019,18.1074],[121.4704831,18.1074726],[121.4704952,18.1075211],[121.4705676,18.1075606],[121.4706494,18.1075733],[121.4709485,18.1075529],[121.4710397,18.1075631],[121.4711885,18.1076103],[121.4712596,18.1076167],[121.4714447,18.1076167],[121.4715426,18.1075797],[121.4715815,18.1075835],[121.4716257,18.1076141],[121.4716378,18.1076409],[121.4716592,18.1078614],[121.4716968,18.1079302],[121.4717276,18.1079328],[121.4718349,18.1078448],[121.4718792,18.1078385],[121.4719114,18.1078729],[121.4719261,18.1079723],[121.4718913,18.1081049],[121.4718658,18.108217],[121.4718725,18.1082642],[121.4718886,18.1083292],[121.4718658,18.1083585],[121.4717773,18.1084388],[121.4717706,18.1084643],[121.4718054,18.1085357],[121.4718725,18.1086186],[121.4719167,18.1086186],[121.4721581,18.1084822],[121.4721984,18.108486],[121.4723968,18.1086428],[121.4725792,18.1088505],[121.4726999,18.1089347],[121.4727388,18.1089882],[121.4727764,18.1091131],[121.4727737,18.1092495],[121.4728153,18.1093145],[121.4730258,18.1094407],[121.4730366,18.1094828],[121.472999,18.1096957],[121.472999,18.1098282],[121.4730191,18.109948],[121.4730795,18.1100793],[121.4732431,18.1102986],[121.4732578,18.1103827],[121.4732324,18.1106338],[121.4732015,18.1108033]]}}]}