{
  "type": "FeatureCollection",
  "features": [
    {
      "type": "Feature",
      "properties": {
        "id": "PSA-0201517000",
        "name": "Lasam",
        "city_name": "Lasam",
        "prov_name": "Cagayan",
        "reg_name": "Region II (Cagayan Valley)",
        "city_code": "021517000",
        "psgc_10d": "0201517000",
        "data_source": "PSA / GeoRisk",
        "objectid": 373
      },
      "geometry": {
        "type": "Polygon",
        "coordinates": [
          [
            [
              121.52767858200002,
              18.112246050000067
            ],
            [
              121.52528863700002,
              18.11242708800006
            ],
            [
              121.52200861100005,
              18.112107086000037
            ],
            [
              121.50877984200008,
              18.11193437700007
            ],
            [
              121.5041047420001,
              18.111962710000057
            ],
            [
              121.49356240800012,
              18.11001833800003
            ],
            [
              121.49031716900004,
              18.109477602000027
            ],
            [
              121.46315965800011,
              18.11228163900006
            ],
            [
              121.46567299300011,
              18.10467871900005
            ],
            [
              121.4649593910001,
              18.08573718100007
            ],
            [
              121.46390637400009,
              18.083584314000063
            ],
            [
              121.46321148600009,
              18.076200550000067
            ],
            [
              121.46270127000003,
              18.07077907100006
            ],
            [
              121.46035909600005,
              18.04941033700004
            ],
            [
              121.42783800000007,
              18.035335404000023
            ],
            [
              121.44908399500002,
              18.003593075000026
            ],
            [
              121.4615044090001,
              18.000714622000032
            ],
            [
              121.47223753600008,
              17.997621197000058
            ],
            [
              121.48603668200008,
              18.000809987000025
            ],
            [
              121.50273580500004,
              18.007503899000028
            ],
            [
              121.52259746700008,
              18.015721660000054
            ],
            [
              121.5525709210001,
              18.013823641000045
            ],
            [
              121.56570599500003,
              18.012154360000068
            ],
            [
              121.56577402300002,
              18.012265679000052
            ],
            [
              121.56587297300007,
              18.012327523000067
            ],
            [
              121.56604613500008,
              18.012407920000044
            ],
            [
              121.56623166600002,
              18.012376998000036
            ],
            [
              121.56636153800002,
              18.01228423200007
            ],
            [
              121.56652851600006,
              18.012203835000037
            ],
            [
              121.56681918100003,
              18.012203835000037
            ],
            [
              121.56701708100002,
              18.012197651000065
            ],
            [
              121.56722116500009,
              18.012228573000073
            ],
            [
              121.56736340600003,
              18.012339891000067
            ],
            [
              121.56742524900005,
              18.012426473000062
            ],
            [
              121.56738814300002,
              18.012543976000075
            ],
            [
              121.56736959000011,
              18.01264292600007
            ],
            [
              121.56733866800005,
              18.012748060000035
            ],
            [
              121.56723353400002,
              18.012816088000022
            ],
            [
              121.56705418700005,
              18.012890300000038
            ],
            [
              121.56691194700011,
              18.012989250000032
            ],
            [
              121.56685628700006,
              18.01315622800007
            ],
            [
              121.56685628700006,
              18.013317022000024
            ],
            [
              121.56691194700011,
              18.013397419000057
            ],
            [
              121.56704800300008,
              18.013471631000073
            ],
            [
              121.5671964280001,
              18.013465447000044
            ],
            [
              121.56740051200006,
              18.01340360300003
            ],
            [
              121.56751801500002,
              18.01336649700005
            ],
            [
              121.56759841200005,
              18.013409787000057
            ],
            [
              121.5677220990001,
              18.013490184000034
            ],
            [
              121.5678952610001,
              18.01353965900006
            ],
            [
              121.56827869200004,
              18.01352110600004
            ],
            [
              121.56858172700004,
              18.013570581000067
            ],
            [
              121.56880436400002,
              18.01371900600003
            ],
            [
              121.5688971290001,
              18.013824140000054
            ],
            [
              121.56895278900004,
              18.013978749000046
            ],
            [
              121.5690950290001,
              18.01406533100004
            ],
            [
              121.56921871700001,
              18.014189018000025
            ],
            [
              121.56927437600007,
              18.014337443000045
            ],
            [
              121.56933003500001,
              18.014467315000047
            ],
            [
              121.56941661600001,
              18.014522974000045
            ],
            [
              121.56951556600006,
              18.014553896000052
            ],
            [
              121.56965780700011,
              18.014535343000034
            ],
            [
              121.57017729400002,
              18.014510605000055
            ],
            [
              121.5706844120001,
              18.01443639300004
            ],
            [
              121.57104310600005,
              18.014615739000078
            ],
            [
              121.57132140200008,
              18.01479508600005
            ],
            [
              121.57143272100006,
              18.01495588000006
            ],
            [
              121.57148219600003,
              18.01509812000006
            ],
            [
              121.57148838000012,
              18.01525891400007
            ],
            [
              121.57149456500008,
              18.015407339000035
            ],
            [
              121.57139561500003,
              18.015549579000037
            ],
            [
              121.5711853460001,
              18.015710373000047
            ],
            [
              121.57103692100009,
              18.015809323000042
            ],
            [
              121.57079573100009,
              18.015970116000062
            ],
            [
              121.57062875300005,
              18.01601959100003
            ],
            [
              121.5705112500001,
              18.01614327900006
            ],
            [
              121.5704679590001,
              18.016285519000064
            ],
            [
              121.57045559000005,
              18.01639683800005
            ],
            [
              121.57054835600002,
              18.016464866000035
            ],
            [
              121.5706844120001,
              18.016508157000032
            ],
            [
              121.57084520600006,
              18.016532894000022
            ],
            [
              121.57099981500005,
              18.016520525000033
            ],
            [
              121.57130284900006,
              18.016613291000056
            ],
            [
              121.57193983900004,
              18.01674934700003
            ],
            [
              121.57229234800002,
              18.016978169000026
            ],
            [
              121.57260775100008,
              18.01724409700006
            ],
            [
              121.57287986300003,
              18.01741107500004
            ],
            [
              121.57311486900005,
              18.017565684000033
            ],
            [
              121.57345501000009,
              18.017720293000025
            ],
            [
              121.5737580440001,
              18.017905824000024
            ],
            [
              121.57420950300002,
              18.018196489000047
            ],
            [
              121.5744135870001,
              18.01832636100005
            ],
            [
              121.57453727400002,
              18.018400574000054
            ],
            [
              121.57465477700009,
              18.01846860200004
            ],
            [
              121.57479083400005,
              18.01846860200004
            ],
            [
              121.57516189600005,
              18.018703608000067
            ],
            [
              121.57536598000002,
              18.018889139000066
            ],
            [
              121.57555769500004,
              18.019117961000063
            ],
            [
              121.57579888600003,
              18.01956942000004
            ],
            [
              121.57585454500008,
              18.01969929100005
            ],
            [
              121.57596586400007,
              18.01975495100004
            ],
            [
              121.57608336700002,
              18.019835347000026
            ],
            [
              121.57618231700008,
              18.01986008500006
            ],
            [
              121.57629982000003,
              18.01990956000003
            ],
            [
              121.5763307420001,
              18.019977588000074
            ],
            [
              121.57642350700007,
              18.02005798500005
            ],
            [
              121.57658430100003,
              18.020138382000027
            ],
            [
              121.57672035700011,
              18.02020641000007
            ],
            [
              121.57683786000007,
              18.02020641000007
            ],
            [
              121.57696773200007,
              18.020163119000074
            ],
            [
              121.57698010000001,
              18.020039432000033
            ],
            [
              121.57690588800006,
              18.019748766000077
            ],
            [
              121.57685022900012,
              18.019649816000026
            ],
            [
              121.5767883850001,
              18.01953849800003
            ],
            [
              121.57678220100001,
              18.019420995000075
            ],
            [
              121.5768316760001,
              18.01919217300002
            ],
            [
              121.57679456900007,
              18.018981904000043
            ],
            [
              121.57673272600005,
              18.01885821700006
            ],
            [
              121.57664614400005,
              18.018740714000046
            ],
            [
              121.57660285400004,
              18.018567552000036
            ],
            [
              121.5765471950001,
              18.018505708000077
            ],
            [
              121.5765286410001,
              18.018295439000042
            ],
            [
              121.57644824500005,
              18.018010958000048
            ],
            [
              121.57626889800008,
              18.01762752700006
            ],
            [
              121.5761328420001,
              18.017299756000057
            ],
            [
              121.57605244500007,
              18.017077119000078
            ],
            [
              121.5760462610001,
              18.01691014100004
            ],
            [
              121.57608955100011,
              18.016786453000066
            ],
            [
              121.57621323900003,
              18.01673697800004
            ],
            [
              121.57640083000001,
              18.016735808000078
            ],
            [
              121.57681405800008,
              18.01684772400006
            ],
            [
              121.57708093400004,
              18.017037120000055
            ],
            [
              121.57711537000012,
              18.01722651700004
            ],
            [
              121.57724450300009,
              18.017364259000033
            ],
            [
              121.57738224600007,
              18.017433131000075
            ],
            [
              121.57765773100004,
              18.017286779000074
            ],
            [
              121.5777352120001,
              18.01710599200004
            ],
            [
              121.577640513,
              18.016830507000066
            ],
            [
              121.57750277100001,
              18.016666937000025
            ],
            [
              121.57758025100009,
              18.01639145200005
            ],
            [
              121.57772660300009,
              18.01623649100003
            ],
            [
              121.578027915,
              18.016322581000054
            ],
            [
              121.5786391480001,
              18.016890769000042
            ],
            [
              121.57912985600001,
              18.01708016500004
            ],
            [
              121.57950864800011,
              18.017243734000033
            ],
            [
              121.57984439600011,
              18.017527829000073
            ],
            [
              121.58027484100012,
              18.018121844000063
            ],
            [
              121.58081720300004,
              18.018044364000048
            ],
            [
              121.58104964400002,
              18.01794105700003
            ],
            [
              121.58104964400002,
              18.01773444300005
            ],
            [
              121.58086024800002,
              18.01744173900005
            ],
            [
              121.58056754500001,
              18.01701990300006
            ],
            [
              121.5802231880001,
              18.016563630000064
            ],
            [
              121.58000796500005,
              18.016072922000035
            ],
            [
              121.58019736100005,
              18.01553056000006
            ],
            [
              121.58061058900012,
              18.015237857000045
            ],
            [
              121.58088607400009,
              18.015263684000047
            ],
            [
              121.58114434200002,
              18.015255075000027
            ],
            [
              121.58171253000012,
              18.01530672900003
            ],
            [
              121.58207773800007,
              18.015308419000064
            ],
            [
              121.58260785700008,
              18.01518620400003
            ],
            [
              121.58296943200003,
              18.01495376300005
            ],
            [
              121.58329657100012,
              18.015108724000072
            ],
            [
              121.58346874900008,
              18.015246466000065
            ],
            [
              121.58354622900004,
              18.01554777800004
            ],
            [
              121.58352901100011,
              18.01578882800004
            ],
            [
              121.5833310060001,
              18.016055704000053
            ],
            [
              121.58302108500004,
              18.016443105000064
            ],
            [
              121.58290916900012,
              18.016658328000062
            ],
            [
              121.58278003600003,
              18.017045729000074
            ],
            [
              121.58241846100009,
              18.017545046000066
            ],
            [
              121.5821860210001,
              18.017975492000062
            ],
            [
              121.58219462900001,
              18.01831124000006
            ],
            [
              121.58253898600003,
              18.018483418000073
            ],
            [
              121.58283168900005,
              18.018690032000052
            ],
            [
              121.58350318400005,
              18.01893108200005
            ],
            [
              121.58401971900003,
              18.019327092000026
            ],
            [
              121.58450181900002,
              18.019723102000057
            ],
            [
              121.58508722500005,
              18.02024824600005
            ],
            [
              121.58536271000003,
              18.020420424000065
            ],
            [
              121.5856812400001,
              18.020325726000067
            ],
            [
              121.58587924500011,
              18.020084676000067
            ],
            [
              121.5858676470001,
              18.01929437700005
            ],
            [
              121.58597238000004,
              18.019015100000047
            ],
            [
              121.586189493,
              18.018740914000034
            ],
            [
              121.58647903700012,
              18.01851725100005
            ],
            [
              121.58679100000006,
              18.018377437000026
            ],
            [
              121.58713619100001,
              18.017964427000038
            ],
            [
              121.58722363600009,
              18.01757357300005
            ],
            [
              121.58740713200007,
              18.017384882000044
            ],
            [
              121.58771258700006,
              18.017357549000053
            ],
            [
              121.58804602500004,
              18.017613159000064
            ],
            [
              121.58833301800007,
              18.017874705000054
            ],
            [
              121.58863839100002,
              18.018388306000077
            ],
            [
              121.5887325430001,
              18.018936171000064
            ],
            [
              121.58881441800008,
              18.019251691000022
            ],
            [
              121.5890514670001,
              18.019299739000076
            ],
            [
              121.58934943400004,
              18.01921648800004
            ],
            [
              121.58953644000007,
              18.019038571000067
            ],
            [
              121.58963035600004,
              18.01872122900005
            ],
            [
              121.58972277400005,
              18.018560437000076
            ],
            [
              121.59002646200008,
              18.018326554000055
            ],
            [
              121.59028370400006,
              18.018178274000036
            ],
            [
              121.59102924100011,
              18.017836671000055
            ],
            [
              121.5914449070001,
              18.01761872700007
            ],
            [
              121.59166706700012,
              18.017401346000042
            ],
            [
              121.59200073700003,
              18.01721791400007
            ],
            [
              121.59248967600001,
              18.016961258000038
            ],
            [
              121.59284093800011,
              18.016867115000025
            ],
            [
              121.59316927100008,
              18.016817047000075
            ],
            [
              121.59348600200008,
              18.016783633000045
            ],
            [
              121.59395131100007,
              18.01680557900005
            ],
            [
              121.59439123800007,
              18.016805154000053
            ],
            [
              121.594871839,
              18.016737952000028
            ],
            [
              121.59542190000002,
              18.016564404000064
            ],
            [
              121.59588316400004,
              18.01641354800006
            ],
            [
              121.59655503800002,
              18.016079700000034
            ],
            [
              121.5970532130001,
              18.01585175200006
            ],
            [
              121.59737485900007,
              18.01576848900004
            ],
            [
              121.59775447700008,
              18.01577406800004
            ],
            [
              121.5980840950001,
              18.01579625100004
            ],
            [
              121.59838112000011,
              18.015951404000077
            ],
            [
              121.59863761000008,
              18.016151026000045
            ],
            [
              121.59892346000004,
              18.016478282000037
            ],
            [
              121.59919183400007,
              18.01672244200006
            ],
            [
              121.59955138100008,
              18.01697716600006
            ],
            [
              121.59986714500008,
              18.01704285900007
            ],
            [
              121.60021121900002,
              18.01702583200006
            ],
            [
              121.60041479900008,
              18.016860027000064
            ],
            [
              121.60058493400004,
              18.016570870000066
            ],
            [
              121.60099771300008,
              18.016039641000077
            ],
            [
              121.60140565500001,
              18.01556828300005
            ],
            [
              121.60169046300007,
              18.015386885000055
            ],
            [
              121.60218079600008,
              18.015014759000053
            ],
            [
              121.6024627700001,
              18.014519069000073
            ],
            [
              121.60258674500005,
              18.014063788000044
            ],
            [
              121.60224895700003,
              18.01385436000004
            ],
            [
              121.60196521600005,
              18.013597641000047
            ],
            [
              121.60142475600003,
              18.01301664700003
            ],
            [
              121.60089780800001,
              18.01239511800003
            ],
            [
              121.60035059200004,
              18.01173981000005
            ],
            [
              121.59979662100011,
              18.01106423500005
            ],
            [
              121.59935074100008,
              18.01065889100005
            ],
            [
              121.59885757200004,
              18.010253546000058
            ],
            [
              121.59847925000008,
              18.009963049000078
            ],
            [
              121.5982292870001,
              18.009510413000044
            ],
            [
              121.59826982200002,
              18.009125336000068
            ],
            [
              121.59843196000008,
              18.008990221000033
            ],
            [
              121.59874948000004,
              18.00876052500007
            ],
            [
              121.59936425300009,
              18.008497051000063
            ],
            [
              121.60004658300011,
              18.008686212000043
            ],
            [
              121.60058704300002,
              18.008868617000076
            ],
            [
              121.60175567400006,
              18.009075637000024
            ],
            [
              121.60376967200011,
              18.00894862900003
            ],
            [
              121.6043741950001,
              18.008283618000064
            ],
            [
              121.60520637800005,
              18.009332893000078
            ],
            [
              121.60640038100007,
              18.010961079000026
            ],
            [
              121.6101994820001,
              18.018088915000078
            ],
            [
              121.61389003600004,
              18.023335291000024
            ],
            [
              121.61674840700005,
              18.027206755000066
            ],
            [
              121.62000477900006,
              18.03180185700006
            ],
            [
              121.62268224000002,
              18.03516677500005
            ],
            [
              121.62782007100009,
              18.04139006300005
            ],
            [
              121.63017189400011,
              18.04381425100007
            ],
            [
              121.63157499600004,
              18.04490045800003
            ],
            [
              121.63201717200002,
              18.045370073000072
            ],
            [
              121.6344413600001,
              18.04811989800004
            ],
            [
              121.63603336300002,
              18.050688813000022
            ],
            [
              121.63669195600005,
              18.053525861000026
            ],
            [
              121.63697409300005,
              18.054741187000047
            ],
            [
              121.63824046000002,
              18.05926392500004
            ],
            [
              121.63885555200011,
              18.06215847800007
            ],
            [
              121.63952596700005,
              18.06369372100005
            ],
            [
              121.63972391800007,
              18.064148483000054
            ],
            [
              121.64328006900007,
              18.07406842200004
            ],
            [
              121.6455853870001,
              18.08086452400005
            ],
            [
              121.64663466200011,
              18.08611090000005
            ],
            [
              121.64681557200004,
              18.088571270000045
            ],
            [
              121.64692411800002,
              18.091104003000055
            ],
            [
              121.64735830000006,
              18.092949281000074
            ],
            [
              121.64876939500004,
              18.09678456300003
            ],
            [
              121.64990183800012,
              18.09921421000007
            ],
            [
              121.65188103900005,
              18.103080215000034
            ],
            [
              121.65321976900009,
              18.10514258300003
            ],
            [
              121.64710143200011,
              18.105180675000042
            ],
            [
              121.62932699500004,
              18.104906655000036
            ],
            [
              121.62679738800011,
              18.104723381000042
            ],
            [
              121.62215244400011,
              18.10462789500002
            ],
            [
              121.60500245600008,
              18.104627024000024
            ],
            [
              121.5918214730001,
              18.105663063000065
            ],
            [
              121.5799944800001,
              18.105531159000066
            ],
            [
              121.55845849600007,
              18.10574230900005
            ],
            [
              121.55755564300011,
              18.105719645000022
            ],
            [
              121.55660627200007,
              18.105982237000035
            ],
            [
              121.55391975400005,
              18.10674981300002
            ],
            [
              121.5506070560001,
              18.106770013000073
            ],
            [
              121.54765794600007,
              18.10662861700007
            ],
            [
              121.54497142800005,
              18.108224368000037
            ],
            [
              121.53530041300007,
              18.108930979000036
            ],
            [
              121.52767858200002,
              18.112246050000067
            ]
          ]
        ]
      }
    }
  ],
  "properties": {
    "name": "PSA Municipal Boundary — Lasam, Cagayan",
    "source": "PSA / GeoRisk ULAP Municipal MapServer",
    "source_url": "https://ulap-nga.georisk.gov.ph/arcgis/rest/services/PSA/Municipal/MapServer/0",
    "psgc_10d": "0201517000",
    "fetched_at": "2026-08-08T03:01:55.775Z",
    "disclaimer": "Official PSA administrative boundary via GeoRisk. For demonstration planning prototype use."
  }
}
